{"type":"FeatureCollection","name":"data","crs":{"type":"name","properties":{"name":"urn:ogc:def:crs:OGC:1.3:CRS84"}},"sources":[{"id":"escalade-cassis-ciotat-2025","nom":"Escalade Cassis – La Ciotat","auteur":"FFME 13","type":"topo payant","annee":"2025","url":"https://www.auvieuxcampeur.fr/escalade-cassis-la-ciotat.html"}],"features":[{"type":"Feature","properties":{"nom":"Jas de la Penna","site":"Falaises Soubeyranes","secteur":"Jas de la Penna","type_roche":null,"orientation":["NO"],"lien_oblyk":null,"lien_camptocamp":null,"source_id":"escalade-cassis-ciotat-2025","topo_id":"escalade-cassis-ciotat-2025","topo_page":"52","hauteur_max_voie_m":null,"parking_associe":null,"approche_min":null,"approche_metre":null,"nb_voie_total":0,"nb_voie_sportive":0,"nb_voie_trad":0,"nb_voie_artificielle":0,"nb_voie_moulinette":0,"categorie":"falaise","nb_couenne":0,"nb_gv":0,"cotations":{},"routes":null,"routes_falaise":null},"geometry":{"type":"Point","coordinates":[5.553555,43.203809]}},{"type":"Feature","properties":{"nom":"Belvédère des Calanques","site":"Falaises Soubeyranes","secteur":"La Tour Carrée","type_roche":null,"orientation":["O"],"lien_oblyk":null,"lien_camptocamp":null,"source_id":"escalade-cassis-ciotat-2025","topo_id":"escalade-cassis-ciotat-2025","topo_page":"58","hauteur_max_voie_m":null,"parking_associe":null,"approche_min":null,"approche_metre":null,"nb_voie_total":0,"nb_voie_sportive":0,"nb_voie_trad":0,"nb_voie_artificielle":0,"nb_voie_moulinette":0,"categorie":"falaise","nb_couenne":0,"nb_gv":0,"cotations":{},"routes":null,"routes_falaise":null},"geometry":{"type":"Point","coordinates":[5.552486,43.20165]}},{"type":"Feature","properties":{"nom":"Belvédère des Calanques","site":"Falaises Soubeyranes","secteur":"Ouvreur de bouse gauche","type_roche":null,"orientation":["O"],"lien_oblyk":null,"lien_camptocamp":null,"source_id":"escalade-cassis-ciotat-2025","topo_id":"escalade-cassis-ciotat-2025","topo_page":"60","hauteur_max_voie_m":null,"parking_associe":null,"approche_min":null,"approche_metre":null,"nb_voie_total":0,"nb_voie_sportive":0,"nb_voie_trad":0,"nb_voie_artificielle":0,"nb_voie_moulinette":0,"categorie":"falaise","nb_couenne":0,"nb_gv":0,"cotations":{},"routes":null,"routes_falaise":null},"geometry":{"type":"Point","coordinates":[5.552196,43.200268]}},{"type":"Feature","properties":{"nom":"Belvédère des Calanques","site":"Falaises Soubeyranes","secteur":"Ouvreur de bouse","type_roche":null,"orientation":["O"],"lien_oblyk":null,"lien_camptocamp":null,"source_id":"escalade-cassis-ciotat-2025","topo_id":"escalade-cassis-ciotat-2025","topo_page":"62","hauteur_max_voie_m":null,"parking_associe":null,"approche_min":null,"approche_metre":null,"nb_voie_total":0,"nb_voie_sportive":0,"nb_voie_trad":0,"nb_voie_artificielle":0,"nb_voie_moulinette":0,"categorie":"falaise","nb_couenne":0,"nb_gv":0,"cotations":{},"routes":null,"routes_falaise":null},"geometry":{"type":"Point","coordinates":[5.552122,43.199918]}},{"type":"Feature","properties":{"nom":"Belvédère des Calanques","site":"Falaises Soubeyranes","secteur":"Le bonheur est dans le grès","type_roche":null,"orientation":["O"],"lien_oblyk":null,"lien_camptocamp":null,"source_id":"escalade-cassis-ciotat-2025","topo_id":"escalade-cassis-ciotat-2025","topo_page":"64;66","hauteur_max_voie_m":null,"parking_associe":null,"approche_min":null,"approche_metre":null,"nb_voie_total":0,"nb_voie_sportive":0,"nb_voie_trad":0,"nb_voie_artificielle":0,"nb_voie_moulinette":0,"categorie":"falaise","nb_couenne":0,"nb_gv":0,"cotations":{},"routes":null,"routes_falaise":null},"geometry":{"type":"Point","coordinates":[5.552128,43.199877]}},{"type":"Feature","properties":{"nom":"Belvédère des Calanques","site":"Falaises Soubeyranes","secteur":"Canailloux","type_roche":null,"orientation":["O"],"lien_oblyk":null,"lien_camptocamp":null,"source_id":"escalade-cassis-ciotat-2025","topo_id":"escalade-cassis-ciotat-2025","topo_page":"68","hauteur_max_voie_m":null,"parking_associe":null,"approche_min":null,"approche_metre":null,"nb_voie_total":0,"nb_voie_sportive":0,"nb_voie_trad":0,"nb_voie_artificielle":0,"nb_voie_moulinette":0,"categorie":"falaise","nb_couenne":0,"nb_gv":0,"cotations":{},"routes":null,"routes_falaise":null},"geometry":{"type":"Point","coordinates":[5.551827,43.197381]}},{"type":"Feature","properties":{"nom":"Cap Canaille","site":"Falaises Soubeyranes","secteur":"Cathédrale gauche","type_roche":null,"orientation":["O"],"lien_oblyk":null,"lien_camptocamp":null,"source_id":"escalade-cassis-ciotat-2025","topo_id":"escalade-cassis-ciotat-2025","topo_page":"72","hauteur_max_voie_m":null,"parking_associe":null,"approche_min":null,"approche_metre":null,"nb_voie_total":0,"nb_voie_sportive":0,"nb_voie_trad":0,"nb_voie_artificielle":0,"nb_voie_moulinette":0,"categorie":"falaise","nb_couenne":0,"nb_gv":0,"cotations":{},"routes":null,"routes_falaise":null},"geometry":{"type":"Point","coordinates":[5.551862,43.197028]}},{"type":"Feature","properties":{"nom":"Cap Canaille","site":"Falaises Soubeyranes","secteur":"Cathédrale droite","type_roche":null,"orientation":["O"],"lien_oblyk":null,"lien_camptocamp":null,"source_id":"escalade-cassis-ciotat-2025","topo_id":"escalade-cassis-ciotat-2025","topo_page":"74","hauteur_max_voie_m":null,"parking_associe":null,"approche_min":null,"approche_metre":null,"nb_voie_total":0,"nb_voie_sportive":0,"nb_voie_trad":0,"nb_voie_artificielle":0,"nb_voie_moulinette":0,"categorie":"falaise","nb_couenne":0,"nb_gv":0,"cotations":{},"routes":null,"routes_falaise":null},"geometry":{"type":"Point","coordinates":[5.552045,43.196306]}},{"type":"Feature","properties":{"nom":"Cap Canaille","site":"Falaises Soubeyranes","secteur":"Ciao Bella","type_roche":null,"orientation":["O"],"lien_oblyk":null,"lien_camptocamp":null,"source_id":"escalade-cassis-ciotat-2025","topo_id":"escalade-cassis-ciotat-2025","topo_page":"75","hauteur_max_voie_m":null,"parking_associe":null,"approche_min":null,"approche_metre":null,"nb_voie_total":0,"nb_voie_sportive":0,"nb_voie_trad":0,"nb_voie_artificielle":0,"nb_voie_moulinette":0,"categorie":"falaise","nb_couenne":0,"nb_gv":0,"cotations":{},"routes":null,"routes_falaise":null},"geometry":{"type":"Point","coordinates":[5.552476,43.194659]}},{"type":"Feature","properties":{"nom":"Cap Canaille","site":"Falaises Soubeyranes","secteur":"Ombre du Néant","type_roche":null,"orientation":["O"],"lien_oblyk":null,"lien_camptocamp":null,"source_id":"escalade-cassis-ciotat-2025","topo_id":"escalade-cassis-ciotat-2025","topo_page":"76","hauteur_max_voie_m":null,"parking_associe":null,"approche_min":null,"approche_metre":null,"nb_voie_total":0,"nb_voie_sportive":0,"nb_voie_trad":0,"nb_voie_artificielle":0,"nb_voie_moulinette":0,"categorie":"falaise","nb_couenne":0,"nb_gv":0,"cotations":{},"routes":null,"routes_falaise":null},"geometry":{"type":"Point","coordinates":[5.552674,43.194218]}},{"type":"Feature","properties":{"nom":"Les Émigrés","site":"Falaises Soubeyranes","secteur":"Grotte des Émigrés","type_roche":null,"orientation":["SO"],"lien_oblyk":null,"lien_camptocamp":null,"source_id":"escalade-cassis-ciotat-2025","topo_id":"escalade-cassis-ciotat-2025","topo_page":"79","hauteur_max_voie_m":null,"parking_associe":null,"approche_min":null,"approche_metre":null,"nb_voie_total":0,"nb_voie_sportive":0,"nb_voie_trad":0,"nb_voie_artificielle":0,"nb_voie_moulinette":0,"categorie":"falaise","nb_couenne":0,"nb_gv":0,"cotations":{},"routes":null,"routes_falaise":null},"geometry":{"type":"Point","coordinates":[5.561149,43.186078]}},{"type":"Feature","properties":{"nom":"Les Émigrés","site":"Falaises Soubeyranes","secteur":"La boule des Émigrés (gauche)","type_roche":null,"orientation":["SO"],"lien_oblyk":null,"lien_camptocamp":null,"source_id":"escalade-cassis-ciotat-2025","topo_id":"escalade-cassis-ciotat-2025","topo_page":"80","hauteur_max_voie_m":null,"parking_associe":null,"approche_min":null,"approche_metre":null,"nb_voie_total":0,"nb_voie_sportive":0,"nb_voie_trad":0,"nb_voie_artificielle":0,"nb_voie_moulinette":0,"categorie":"falaise","nb_couenne":0,"nb_gv":0,"cotations":{},"routes":null,"routes_falaise":null},"geometry":{"type":"Point","coordinates":[5.561953,43.185577]}},{"type":"Feature","properties":{"nom":"Les Émigrés","site":"Falaises Soubeyranes","secteur":"La boule des Émigrés (droit)","type_roche":null,"orientation":["SO"],"lien_oblyk":null,"lien_camptocamp":null,"source_id":"escalade-cassis-ciotat-2025","topo_id":"escalade-cassis-ciotat-2025","topo_page":"81","hauteur_max_voie_m":null,"parking_associe":null,"approche_min":null,"approche_metre":null,"nb_voie_total":0,"nb_voie_sportive":0,"nb_voie_trad":0,"nb_voie_artificielle":0,"nb_voie_moulinette":0,"categorie":"falaise","nb_couenne":0,"nb_gv":0,"cotations":{},"routes":null,"routes_falaise":null},"geometry":{"type":"Point","coordinates":[5.562525,43.185263]}},{"type":"Feature","properties":{"nom":"Belvédère","site":"Falaises Soubeyranes","secteur":"Belvédère","type_roche":null,"orientation":["SO"],"lien_oblyk":null,"lien_camptocamp":null,"source_id":"escalade-cassis-ciotat-2025","topo_id":"escalade-cassis-ciotat-2025","topo_page":"84","hauteur_max_voie_m":null,"parking_associe":null,"approche_min":null,"approche_metre":null,"nb_voie_total":0,"nb_voie_sportive":0,"nb_voie_trad":0,"nb_voie_artificielle":0,"nb_voie_moulinette":0,"categorie":"falaise","nb_couenne":0,"nb_gv":0,"cotations":{},"routes":null,"routes_falaise":null},"geometry":{"type":"Point","coordinates":[5.563446,43.184036]}},{"type":"Feature","properties":{"nom":"Effet Papillon","site":"Falaises Soubeyranes","secteur":"Effet Papillon","type_roche":null,"orientation":["SO"],"lien_oblyk":null,"lien_camptocamp":null,"source_id":"escalade-cassis-ciotat-2025","topo_id":"escalade-cassis-ciotat-2025","topo_page":"86","hauteur_max_voie_m":null,"parking_associe":null,"approche_min":null,"approche_metre":null,"nb_voie_total":0,"nb_voie_sportive":0,"nb_voie_trad":0,"nb_voie_artificielle":0,"nb_voie_moulinette":0,"categorie":"falaise","nb_couenne":0,"nb_gv":0,"cotations":{},"routes":null,"routes_falaise":null},"geometry":{"type":"Point","coordinates":[5.563984,43.183676]}},{"type":"Feature","properties":{"nom":"Albert","site":"Falaises Soubeyranes","secteur":"Albert","type_roche":null,"orientation":["SO"],"lien_oblyk":null,"lien_camptocamp":null,"source_id":"escalade-cassis-ciotat-2025","topo_id":"escalade-cassis-ciotat-2025","topo_page":"90","hauteur_max_voie_m":null,"parking_associe":null,"approche_min":null,"approche_metre":null,"nb_voie_total":0,"nb_voie_sportive":0,"nb_voie_trad":0,"nb_voie_artificielle":0,"nb_voie_moulinette":0,"categorie":"falaise","nb_couenne":0,"nb_gv":0,"cotations":{},"routes":null,"routes_falaise":null},"geometry":{"type":"Point","coordinates":[5.564621,43.182459]}},{"type":"Feature","properties":{"nom":"Grand Draïoun","site":"Falaises Soubeyranes","secteur":"Grand Draïoun","type_roche":null,"orientation":["SO"],"lien_oblyk":null,"lien_camptocamp":null,"source_id":"escalade-cassis-ciotat-2025","topo_id":"escalade-cassis-ciotat-2025","topo_page":"94","hauteur_max_voie_m":null,"parking_associe":null,"approche_min":null,"approche_metre":null,"nb_voie_total":0,"nb_voie_sportive":0,"nb_voie_trad":0,"nb_voie_artificielle":0,"nb_voie_moulinette":0,"categorie":"falaise","nb_couenne":0,"nb_gv":0,"cotations":{},"routes":null,"routes_falaise":null},"geometry":{"type":"Point","coordinates":[5.566144,43.180586]}},{"type":"Feature","properties":{"nom":"Pas de la Chèvre","site":"Falaises Soubeyranes","secteur":"Les Favouilles","type_roche":null,"orientation":["SO"],"lien_oblyk":null,"lien_camptocamp":null,"source_id":"escalade-cassis-ciotat-2025","topo_id":"escalade-cassis-ciotat-2025","topo_page":"96","hauteur_max_voie_m":null,"parking_associe":null,"approche_min":null,"approche_metre":null,"nb_voie_total":0,"nb_voie_sportive":0,"nb_voie_trad":0,"nb_voie_artificielle":0,"nb_voie_moulinette":0,"categorie":"falaise","nb_couenne":0,"nb_gv":0,"cotations":{},"routes":null,"routes_falaise":null},"geometry":{"type":"Point","coordinates":[5.565894,43.1812]}},{"type":"Feature","properties":{"nom":"Pas de la Chèvre","site":"Falaises Soubeyranes","secteur":"Le Pas de la Chèvre","type_roche":null,"orientation":["SO"],"lien_oblyk":null,"lien_camptocamp":null,"source_id":"escalade-cassis-ciotat-2025","topo_id":"escalade-cassis-ciotat-2025","topo_page":"97","hauteur_max_voie_m":null,"parking_associe":null,"approche_min":null,"approche_metre":null,"nb_voie_total":0,"nb_voie_sportive":0,"nb_voie_trad":0,"nb_voie_artificielle":0,"nb_voie_moulinette":0,"categorie":"falaise","nb_couenne":0,"nb_gv":0,"cotations":{},"routes":null,"routes_falaise":null},"geometry":{"type":"Point","coordinates":[5.566628,43.180081]}},{"type":"Feature","properties":{"nom":"Pas de la Chèvre","site":"Falaises Soubeyranes","secteur":"Cap Canaveral","type_roche":null,"orientation":["SO"],"lien_oblyk":null,"lien_camptocamp":null,"source_id":"escalade-cassis-ciotat-2025","topo_id":"escalade-cassis-ciotat-2025","topo_page":"99","hauteur_max_voie_m":null,"parking_associe":null,"approche_min":null,"approche_metre":null,"nb_voie_total":0,"nb_voie_sportive":0,"nb_voie_trad":0,"nb_voie_artificielle":0,"nb_voie_moulinette":0,"categorie":"falaise","nb_couenne":0,"nb_gv":0,"cotations":{},"routes":null,"routes_falaise":null},"geometry":{"type":"Point","coordinates":[5.567113,43.179729]}},{"type":"Feature","properties":{"nom":"Pas de la Chèvre","site":"Falaises Soubeyranes","secteur":"Sun Ami","type_roche":null,"orientation":["SO"],"lien_oblyk":null,"lien_camptocamp":null,"source_id":"escalade-cassis-ciotat-2025","topo_id":"escalade-cassis-ciotat-2025","topo_page":"100","hauteur_max_voie_m":null,"parking_associe":null,"approche_min":null,"approche_metre":null,"nb_voie_total":0,"nb_voie_sportive":0,"nb_voie_trad":0,"nb_voie_artificielle":0,"nb_voie_moulinette":0,"categorie":"falaise","nb_couenne":0,"nb_gv":0,"cotations":{},"routes":null,"routes_falaise":null},"geometry":{"type":"Point","coordinates":[5.567397,43.179647]}},{"type":"Feature","properties":{"nom":"Saphira","site":"Falaises Soubeyranes","secteur":"Saphira","type_roche":null,"orientation":["SO"],"lien_oblyk":null,"lien_camptocamp":null,"source_id":"escalade-cassis-ciotat-2025","topo_id":"escalade-cassis-ciotat-2025","topo_page":"104","hauteur_max_voie_m":null,"parking_associe":null,"approche_min":null,"approche_metre":null,"nb_voie_total":0,"nb_voie_sportive":0,"nb_voie_trad":0,"nb_voie_artificielle":0,"nb_voie_moulinette":0,"categorie":"falaise","nb_couenne":0,"nb_gv":0,"cotations":{},"routes":null,"routes_falaise":null},"geometry":{"type":"Point","coordinates":[5.567805,43.1792]}},{"type":"Feature","properties":{"nom":"Grande Bleue","site":"Falaises Soubeyranes","secteur":"Grande Bleue","type_roche":null,"orientation":["SO"],"lien_oblyk":null,"lien_camptocamp":null,"source_id":"escalade-cassis-ciotat-2025","topo_id":"escalade-cassis-ciotat-2025","topo_page":"106","hauteur_max_voie_m":null,"parking_associe":null,"approche_min":null,"approche_metre":null,"nb_voie_total":0,"nb_voie_sportive":0,"nb_voie_trad":0,"nb_voie_artificielle":0,"nb_voie_moulinette":0,"categorie":"falaise","nb_couenne":0,"nb_gv":0,"cotations":{},"routes":null,"routes_falaise":null},"geometry":{"type":"Point","coordinates":[5.56895,43.178513]}},{"type":"Feature","properties":{"nom":"Cirque du 14 juillet","site":"Falaises Soubeyranes","secteur":"Cirque du 14 juillet","type_roche":null,"orientation":["SO"],"lien_oblyk":null,"lien_camptocamp":null,"source_id":"escalade-cassis-ciotat-2025","topo_id":"escalade-cassis-ciotat-2025","topo_page":"110","hauteur_max_voie_m":null,"parking_associe":null,"approche_min":null,"approche_metre":null,"nb_voie_total":0,"nb_voie_sportive":0,"nb_voie_trad":0,"nb_voie_artificielle":0,"nb_voie_moulinette":0,"categorie":"falaise","nb_couenne":0,"nb_gv":0,"cotations":{},"routes":null,"routes_falaise":null},"geometry":{"type":"Point","coordinates":[5.570215,43.177529]}},{"type":"Feature","properties":{"nom":"Le Pendule","site":"Falaises Soubeyranes","secteur":"Le Pendule","type_roche":null,"orientation":["SO"],"lien_oblyk":null,"lien_camptocamp":null,"source_id":"escalade-cassis-ciotat-2025","topo_id":"escalade-cassis-ciotat-2025","topo_page":"112","hauteur_max_voie_m":null,"parking_associe":null,"approche_min":null,"approche_metre":null,"nb_voie_total":0,"nb_voie_sportive":0,"nb_voie_trad":0,"nb_voie_artificielle":0,"nb_voie_moulinette":0,"categorie":"falaise","nb_couenne":0,"nb_gv":0,"cotations":{},"routes":null,"routes_falaise":null},"geometry":{"type":"Point","coordinates":[5.570682,43.176789]}},{"type":"Feature","properties":{"nom":"Damoclès","site":"Falaises Soubeyranes","secteur":"Damoclès","type_roche":null,"orientation":["SO"],"lien_oblyk":null,"lien_camptocamp":null,"source_id":"escalade-cassis-ciotat-2025","topo_id":"escalade-cassis-ciotat-2025","topo_page":"114","hauteur_max_voie_m":null,"parking_associe":null,"approche_min":null,"approche_metre":null,"nb_voie_total":0,"nb_voie_sportive":0,"nb_voie_trad":0,"nb_voie_artificielle":0,"nb_voie_moulinette":0,"categorie":"falaise","nb_couenne":0,"nb_gv":0,"cotations":{},"routes":null,"routes_falaise":null},"geometry":{"type":"Point","coordinates":[5.573482,43.174666]}},{"type":"Feature","properties":{"nom":"Damoclès","site":"Falaises Soubeyranes","secteur":"Notre Dame des Falaises","type_roche":null,"orientation":["SO"],"lien_oblyk":null,"lien_camptocamp":null,"source_id":"escalade-cassis-ciotat-2025","topo_id":"escalade-cassis-ciotat-2025","topo_page":"116","hauteur_max_voie_m":null,"parking_associe":null,"approche_min":null,"approche_metre":null,"nb_voie_total":0,"nb_voie_sportive":0,"nb_voie_trad":0,"nb_voie_artificielle":0,"nb_voie_moulinette":0,"categorie":"falaise","nb_couenne":0,"nb_gv":0,"cotations":{},"routes":null,"routes_falaise":null},"geometry":{"type":"Point","coordinates":[5.57451,43.173969]}},{"type":"Feature","properties":{"nom":"Le Sémaphore","site":"Falaises Soubeyranes","secteur":"Le Sémaphore","type_roche":null,"orientation":["S"],"lien_oblyk":null,"lien_camptocamp":null,"source_id":"escalade-cassis-ciotat-2025","topo_id":"escalade-cassis-ciotat-2025","topo_page":"130","hauteur_max_voie_m":null,"parking_associe":null,"approche_min":null,"approche_metre":null,"nb_voie_total":0,"nb_voie_sportive":0,"nb_voie_trad":0,"nb_voie_artificielle":0,"nb_voie_moulinette":0,"categorie":"falaise","nb_couenne":0,"nb_gv":0,"cotations":{},"routes":null,"routes_falaise":null},"geometry":{"type":"Point","coordinates":[5.570635,43.178833]}},{"type":"Feature","properties":{"nom":"Le Sémaphore","site":"Falaises Soubeyranes","secteur":"Nabacuc","type_roche":null,"orientation":["O"],"lien_oblyk":null,"lien_camptocamp":null,"source_id":"escalade-cassis-ciotat-2025","topo_id":"escalade-cassis-ciotat-2025","topo_page":"132","hauteur_max_voie_m":null,"parking_associe":null,"approche_min":null,"approche_metre":null,"nb_voie_total":0,"nb_voie_sportive":0,"nb_voie_trad":0,"nb_voie_artificielle":0,"nb_voie_moulinette":0,"categorie":"falaise","nb_couenne":0,"nb_gv":0,"cotations":{},"routes":null,"routes_falaise":null},"geometry":{"type":"Point","coordinates":[5.571141,43.178486]}},{"type":"Feature","properties":{"nom":"Le Sémaphore","site":"Falaises Soubeyranes","secteur":"Le Petit Pou Dingue","type_roche":null,"orientation":["O"],"lien_oblyk":null,"lien_camptocamp":null,"source_id":"escalade-cassis-ciotat-2025","topo_id":"escalade-cassis-ciotat-2025","topo_page":"134","hauteur_max_voie_m":null,"parking_associe":null,"approche_min":null,"approche_metre":null,"nb_voie_total":0,"nb_voie_sportive":0,"nb_voie_trad":0,"nb_voie_artificielle":0,"nb_voie_moulinette":0,"categorie":"falaise","nb_couenne":0,"nb_gv":0,"cotations":{},"routes":null,"routes_falaise":null},"geometry":{"type":"Point","coordinates":[5.571152,43.17803]}},{"type":"Feature","properties":{"nom":"Le Sémaphore","site":"Falaises Soubeyranes","secteur":"Piou Piou","type_roche":null,"orientation":["O"],"lien_oblyk":null,"lien_camptocamp":null,"source_id":"escalade-cassis-ciotat-2025","topo_id":"escalade-cassis-ciotat-2025","topo_page":"136","hauteur_max_voie_m":null,"parking_associe":null,"approche_min":null,"approche_metre":null,"nb_voie_total":0,"nb_voie_sportive":0,"nb_voie_trad":0,"nb_voie_artificielle":0,"nb_voie_moulinette":0,"categorie":"falaise","nb_couenne":0,"nb_gv":0,"cotations":{},"routes":null,"routes_falaise":null},"geometry":{"type":"Point","coordinates":[5.571147,43.177673]}},{"type":"Feature","properties":{"nom":"Le Mugel","site":"Bec de l’Aigle","secteur":"Le Mugel","type_roche":null,"orientation":["NE"],"lien_oblyk":null,"lien_camptocamp":null,"source_id":"escalade-cassis-ciotat-2025","topo_id":"escalade-cassis-ciotat-2025","topo_page":"142","hauteur_max_voie_m":null,"parking_associe":null,"approche_min":null,"approche_metre":null,"nb_voie_total":0,"nb_voie_sportive":0,"nb_voie_trad":0,"nb_voie_artificielle":0,"nb_voie_moulinette":0,"categorie":"falaise","nb_couenne":0,"nb_gv":0,"cotations":{},"routes":null,"routes_falaise":null},"geometry":{"type":"Point","coordinates":[5.605767,43.162407]}},{"type":"Feature","properties":{"nom":"Les Secs","site":"Bec de l’Aigle","secteur":"Les Secs","type_roche":null,"orientation":["SO"],"lien_oblyk":null,"lien_camptocamp":null,"source_id":"escalade-cassis-ciotat-2025","topo_id":"escalade-cassis-ciotat-2025","topo_page":"144","hauteur_max_voie_m":null,"parking_associe":null,"approche_min":null,"approche_metre":null,"nb_voie_total":0,"nb_voie_sportive":0,"nb_voie_trad":0,"nb_voie_artificielle":0,"nb_voie_moulinette":0,"categorie":"falaise","nb_couenne":0,"nb_gv":0,"cotations":{},"routes":null,"routes_falaise":null},"geometry":{"type":"Point","coordinates":[5.603472,43.161803]}},{"type":"Feature","properties":{"nom":"Calanques de Figuerolles","site":"Bec de l’Aigle","secteur":"La Plage","type_roche":null,"orientation":["SE"],"lien_oblyk":null,"lien_camptocamp":null,"source_id":"escalade-cassis-ciotat-2025","topo_id":"escalade-cassis-ciotat-2025","topo_page":"146","hauteur_max_voie_m":null,"parking_associe":null,"approche_min":null,"approche_metre":null,"nb_voie_total":0,"nb_voie_sportive":0,"nb_voie_trad":0,"nb_voie_artificielle":0,"nb_voie_moulinette":0,"categorie":"falaise","nb_couenne":0,"nb_gv":0,"cotations":{},"routes":null,"routes_falaise":null},"geometry":{"type":"Point","coordinates":[5.596626,43.166696]}},{"type":"Feature","properties":{"nom":"Calanques de Figuerolles","site":"Bec de l’Aigle","secteur":"Le Capucin","type_roche":null,"orientation":["NE"],"lien_oblyk":null,"lien_camptocamp":null,"source_id":"escalade-cassis-ciotat-2025","topo_id":"escalade-cassis-ciotat-2025","topo_page":"147","hauteur_max_voie_m":null,"parking_associe":null,"approche_min":null,"approche_metre":null,"nb_voie_total":0,"nb_voie_sportive":0,"nb_voie_trad":0,"nb_voie_artificielle":0,"nb_voie_moulinette":0,"categorie":"falaise","nb_couenne":0,"nb_gv":0,"cotations":{},"routes":null,"routes_falaise":null},"geometry":{"type":"Point","coordinates":[5.595087,43.165757]}},{"type":"Feature","properties":{"nom":"Grotte du Graal","site":"Mallombre","secteur":"Grotte du Graal","type_roche":null,"orientation":["NO"],"lien_oblyk":null,"lien_camptocamp":null,"source_id":"escalade-cassis-ciotat-2025","topo_id":"escalade-cassis-ciotat-2025","topo_page":"170","hauteur_max_voie_m":null,"parking_associe":null,"approche_min":null,"approche_metre":null,"nb_voie_total":0,"nb_voie_sportive":0,"nb_voie_trad":0,"nb_voie_artificielle":0,"nb_voie_moulinette":0,"categorie":"falaise","nb_couenne":0,"nb_gv":0,"cotations":{},"routes":null,"routes_falaise":null},"geometry":{"type":"Point","coordinates":[5.574106,43.183115]}},{"type":"Feature","properties":{"nom":"Les Lierres","site":"Mallombre","secteur":"Les Lierres","type_roche":null,"orientation":["N"],"lien_oblyk":null,"lien_camptocamp":null,"source_id":"escalade-cassis-ciotat-2025","topo_id":"escalade-cassis-ciotat-2025","topo_page":"171","hauteur_max_voie_m":null,"parking_associe":null,"approche_min":null,"approche_metre":null,"nb_voie_total":0,"nb_voie_sportive":0,"nb_voie_trad":0,"nb_voie_artificielle":0,"nb_voie_moulinette":0,"categorie":"falaise","nb_couenne":0,"nb_gv":0,"cotations":{},"routes":null,"routes_falaise":null},"geometry":{"type":"Point","coordinates":[5.573592,43.182744]}},{"type":"Feature","properties":{"nom":"L’Abri du Renard","site":"Mallombre","secteur":"L’Abri du Renard","type_roche":null,"orientation":["NE"],"lien_oblyk":null,"lien_camptocamp":null,"source_id":"escalade-cassis-ciotat-2025","topo_id":"escalade-cassis-ciotat-2025","topo_page":"172","hauteur_max_voie_m":null,"parking_associe":null,"approche_min":null,"approche_metre":null,"nb_voie_total":0,"nb_voie_sportive":0,"nb_voie_trad":0,"nb_voie_artificielle":0,"nb_voie_moulinette":0,"categorie":"falaise","nb_couenne":0,"nb_gv":0,"cotations":{},"routes":null,"routes_falaise":null},"geometry":{"type":"Point","coordinates":[5.573211,43.182963]}},{"type":"Feature","properties":{"nom":"La Vanoise","site":"Mallombre","secteur":"La Vanoise","type_roche":null,"orientation":["N","NO"],"lien_oblyk":null,"lien_camptocamp":null,"source_id":"escalade-cassis-ciotat-2025","topo_id":"escalade-cassis-ciotat-2025","topo_page":"174","hauteur_max_voie_m":null,"parking_associe":null,"approche_min":null,"approche_metre":null,"nb_voie_total":0,"nb_voie_sportive":0,"nb_voie_trad":0,"nb_voie_artificielle":0,"nb_voie_moulinette":0,"categorie":"falaise","nb_couenne":0,"nb_gv":0,"cotations":{},"routes":null,"routes_falaise":null},"geometry":{"type":"Point","coordinates":[5.571103,43.182998]}},{"type":"Feature","properties":{"nom":"Face Nord-Est","site":"Mallombre","secteur":"Sylvebarde","type_roche":null,"orientation":["NE"],"lien_oblyk":null,"lien_camptocamp":null,"source_id":"escalade-cassis-ciotat-2025","topo_id":"escalade-cassis-ciotat-2025","topo_page":"176","hauteur_max_voie_m":null,"parking_associe":null,"approche_min":null,"approche_metre":null,"nb_voie_total":0,"nb_voie_sportive":0,"nb_voie_trad":0,"nb_voie_artificielle":0,"nb_voie_moulinette":0,"categorie":"falaise","nb_couenne":0,"nb_gv":0,"cotations":{},"routes":null,"routes_falaise":null},"geometry":{"type":"Point","coordinates":[5.569053,43.182932]}},{"type":"Feature","properties":{"nom":"Face Nord-Est","site":"Mallombre","secteur":"Basraf’","type_roche":null,"orientation":["NE"],"lien_oblyk":null,"lien_camptocamp":null,"source_id":"escalade-cassis-ciotat-2025","topo_id":"escalade-cassis-ciotat-2025","topo_page":"177","hauteur_max_voie_m":null,"parking_associe":null,"approche_min":null,"approche_metre":null,"nb_voie_total":0,"nb_voie_sportive":0,"nb_voie_trad":0,"nb_voie_artificielle":0,"nb_voie_moulinette":0,"categorie":"falaise","nb_couenne":0,"nb_gv":0,"cotations":{},"routes":null,"routes_falaise":null},"geometry":{"type":"Point","coordinates":[5.568593,43.183323]}},{"type":"Feature","properties":{"nom":"Face Nord-Est","site":"Mallombre","secteur":"Solstice","type_roche":null,"orientation":["NE"],"lien_oblyk":null,"lien_camptocamp":null,"source_id":"escalade-cassis-ciotat-2025","topo_id":"escalade-cassis-ciotat-2025","topo_page":"178","hauteur_max_voie_m":null,"parking_associe":null,"approche_min":null,"approche_metre":null,"nb_voie_total":0,"nb_voie_sportive":0,"nb_voie_trad":0,"nb_voie_artificielle":0,"nb_voie_moulinette":0,"categorie":"falaise","nb_couenne":0,"nb_gv":0,"cotations":{},"routes":null,"routes_falaise":null},"geometry":{"type":"Point","coordinates":[5.568485,43.18337]}},{"type":"Feature","properties":{"nom":"Face Nord-Est","site":"Mallombre","secteur":"Zone Rouge","type_roche":null,"orientation":["NE"],"lien_oblyk":null,"lien_camptocamp":null,"source_id":"escalade-cassis-ciotat-2025","topo_id":"escalade-cassis-ciotat-2025","topo_page":"180","hauteur_max_voie_m":null,"parking_associe":null,"approche_min":null,"approche_metre":null,"nb_voie_total":0,"nb_voie_sportive":0,"nb_voie_trad":0,"nb_voie_artificielle":0,"nb_voie_moulinette":0,"categorie":"falaise","nb_couenne":0,"nb_gv":0,"cotations":{},"routes":null,"routes_falaise":null},"geometry":{"type":"Point","coordinates":[5.568298,43.183442]}},{"type":"Feature","properties":{"nom":"Face Nord-Est","site":"Mallombre","secteur":"Alvéole","type_roche":null,"orientation":["NE"],"lien_oblyk":null,"lien_camptocamp":null,"source_id":"escalade-cassis-ciotat-2025","topo_id":"escalade-cassis-ciotat-2025","topo_page":"181","hauteur_max_voie_m":null,"parking_associe":null,"approche_min":null,"approche_metre":null,"nb_voie_total":0,"nb_voie_sportive":0,"nb_voie_trad":0,"nb_voie_artificielle":0,"nb_voie_moulinette":0,"categorie":"falaise","nb_couenne":0,"nb_gv":0,"cotations":{},"routes":null,"routes_falaise":null},"geometry":{"type":"Point","coordinates":[5.567988,43.183663]}},{"type":"Feature","properties":{"nom":"Face Nord-Est","site":"Mallombre","secteur":"Cool Raoul","type_roche":null,"orientation":["NE"],"lien_oblyk":null,"lien_camptocamp":null,"source_id":"escalade-cassis-ciotat-2025","topo_id":"escalade-cassis-ciotat-2025","topo_page":"182","hauteur_max_voie_m":null,"parking_associe":null,"approche_min":null,"approche_metre":null,"nb_voie_total":0,"nb_voie_sportive":0,"nb_voie_trad":0,"nb_voie_artificielle":0,"nb_voie_moulinette":0,"categorie":"falaise","nb_couenne":0,"nb_gv":0,"cotations":{},"routes":null,"routes_falaise":null},"geometry":{"type":"Point","coordinates":[5.567708,43.18392]}},{"type":"Feature","properties":{"nom":"Face Nord-Est","site":"Mallombre","secteur":"Minor","type_roche":null,"orientation":["NE"],"lien_oblyk":null,"lien_camptocamp":null,"source_id":"escalade-cassis-ciotat-2025","topo_id":"escalade-cassis-ciotat-2025","topo_page":"183","hauteur_max_voie_m":null,"parking_associe":null,"approche_min":null,"approche_metre":null,"nb_voie_total":0,"nb_voie_sportive":0,"nb_voie_trad":0,"nb_voie_artificielle":0,"nb_voie_moulinette":0,"categorie":"falaise","nb_couenne":0,"nb_gv":0,"cotations":{},"routes":null,"routes_falaise":null},"geometry":{"type":"Point","coordinates":[5.567499,43.184292]}},{"type":"Feature","properties":{"nom":"Le Puits Ciotaden","site":"L’Étoile Noire","secteur":"Mur et Pilier Gauche","type_roche":null,"orientation":["S"],"lien_oblyk":null,"lien_camptocamp":null,"source_id":"escalade-cassis-ciotat-2025","topo_id":"escalade-cassis-ciotat-2025","topo_page":"195","hauteur_max_voie_m":null,"parking_associe":null,"approche_min":null,"approche_metre":null,"nb_voie_total":0,"nb_voie_sportive":0,"nb_voie_trad":0,"nb_voie_artificielle":0,"nb_voie_moulinette":0,"categorie":"falaise","nb_couenne":0,"nb_gv":0,"cotations":{},"routes":null,"routes_falaise":null},"geometry":{"type":"Point","coordinates":[5.584331,43.192487]}},{"type":"Feature","properties":{"nom":"Le Puits Ciotaden","site":"L’Étoile Noire","secteur":"Central","type_roche":null,"orientation":["N"],"lien_oblyk":null,"lien_camptocamp":null,"source_id":"escalade-cassis-ciotat-2025","topo_id":"escalade-cassis-ciotat-2025","topo_page":"196","hauteur_max_voie_m":null,"parking_associe":null,"approche_min":null,"approche_metre":null,"nb_voie_total":0,"nb_voie_sportive":0,"nb_voie_trad":0,"nb_voie_artificielle":0,"nb_voie_moulinette":0,"categorie":"falaise","nb_couenne":0,"nb_gv":0,"cotations":{},"routes":null,"routes_falaise":null},"geometry":{"type":"Point","coordinates":[5.584475,43.192514]}},{"type":"Feature","properties":{"nom":"Le Puits Ciotaden","site":"L’Étoile Noire","secteur":"Mur de Droite","type_roche":null,"orientation":["N"],"lien_oblyk":null,"lien_camptocamp":null,"source_id":"escalade-cassis-ciotat-2025","topo_id":"escalade-cassis-ciotat-2025","topo_page":"198","hauteur_max_voie_m":null,"parking_associe":null,"approche_min":null,"approche_metre":null,"nb_voie_total":0,"nb_voie_sportive":0,"nb_voie_trad":0,"nb_voie_artificielle":0,"nb_voie_moulinette":0,"categorie":"falaise","nb_couenne":0,"nb_gv":0,"cotations":{},"routes":null,"routes_falaise":null},"geometry":{"type":"Point","coordinates":[5.584611,43.192503]}},{"type":"Feature","properties":{"nom":"Le Portail","site":"L’Étoile Noire","secteur":"Le Portail","type_roche":null,"orientation":["N"],"lien_oblyk":null,"lien_camptocamp":null,"source_id":"escalade-cassis-ciotat-2025","topo_id":"escalade-cassis-ciotat-2025","topo_page":"200","hauteur_max_voie_m":null,"parking_associe":null,"approche_min":null,"approche_metre":null,"nb_voie_total":0,"nb_voie_sportive":0,"nb_voie_trad":0,"nb_voie_artificielle":0,"nb_voie_moulinette":0,"categorie":"falaise","nb_couenne":0,"nb_gv":0,"cotations":{},"routes":null,"routes_falaise":null},"geometry":{"type":"Point","coordinates":[5.581336,43.191485]}},{"type":"Feature","properties":{"nom":"Pilier Deux Versants","site":"L’Étoile Noire","secteur":"Pilier Deux Versants","type_roche":null,"orientation":["N","SO"],"lien_oblyk":null,"lien_camptocamp":null,"source_id":"escalade-cassis-ciotat-2025","topo_id":"escalade-cassis-ciotat-2025","topo_page":"202","hauteur_max_voie_m":null,"parking_associe":null,"approche_min":null,"approche_metre":null,"nb_voie_total":0,"nb_voie_sportive":0,"nb_voie_trad":0,"nb_voie_artificielle":0,"nb_voie_moulinette":0,"categorie":"falaise","nb_couenne":0,"nb_gv":0,"cotations":{},"routes":null,"routes_falaise":null},"geometry":{"type":"Point","coordinates":[5.580622,43.191128]}},{"type":"Feature","properties":{"nom":"Hunger Games","site":"L’Étoile Noire","secteur":"Hunger Games","type_roche":null,"orientation":["NO"],"lien_oblyk":null,"lien_camptocamp":null,"source_id":"escalade-cassis-ciotat-2025","topo_id":"escalade-cassis-ciotat-2025","topo_page":"203","hauteur_max_voie_m":null,"parking_associe":null,"approche_min":null,"approche_metre":null,"nb_voie_total":0,"nb_voie_sportive":0,"nb_voie_trad":0,"nb_voie_artificielle":0,"nb_voie_moulinette":0,"categorie":"falaise","nb_couenne":0,"nb_gv":0,"cotations":{},"routes":null,"routes_falaise":null},"geometry":{"type":"Point","coordinates":[5.579963,43.190593]}},{"type":"Feature","properties":{"nom":"SDF","site":"L’Étoile Noire","secteur":"Loisir","type_roche":null,"orientation":["O"],"lien_oblyk":null,"lien_camptocamp":null,"source_id":"escalade-cassis-ciotat-2025","topo_id":"escalade-cassis-ciotat-2025","topo_page":"205","hauteur_max_voie_m":null,"parking_associe":null,"approche_min":null,"approche_metre":null,"nb_voie_total":0,"nb_voie_sportive":0,"nb_voie_trad":0,"nb_voie_artificielle":0,"nb_voie_moulinette":0,"categorie":"falaise","nb_couenne":0,"nb_gv":0,"cotations":{},"routes":null,"routes_falaise":null},"geometry":{"type":"Point","coordinates":[5.579804,43.190005]}},{"type":"Feature","properties":{"nom":"SDF","site":"L’Étoile Noire","secteur":"Grand Mur","type_roche":null,"orientation":["O"],"lien_oblyk":null,"lien_camptocamp":null,"source_id":"escalade-cassis-ciotat-2025","topo_id":"escalade-cassis-ciotat-2025","topo_page":"206","hauteur_max_voie_m":null,"parking_associe":null,"approche_min":null,"approche_metre":null,"nb_voie_total":0,"nb_voie_sportive":0,"nb_voie_trad":0,"nb_voie_artificielle":0,"nb_voie_moulinette":0,"categorie":"falaise","nb_couenne":0,"nb_gv":0,"cotations":{},"routes":null,"routes_falaise":null},"geometry":{"type":"Point","coordinates":[5.579787,43.189827]}},{"type":"Feature","properties":{"nom":"Pin Pon","site":"L’Étoile Noire","secteur":"Pin Pon (gauche)","type_roche":null,"orientation":["NE"],"lien_oblyk":null,"lien_camptocamp":null,"source_id":"escalade-cassis-ciotat-2025","topo_id":"escalade-cassis-ciotat-2025","topo_page":"208","hauteur_max_voie_m":null,"parking_associe":null,"approche_min":null,"approche_metre":null,"nb_voie_total":0,"nb_voie_sportive":0,"nb_voie_trad":0,"nb_voie_artificielle":0,"nb_voie_moulinette":0,"categorie":"falaise","nb_couenne":0,"nb_gv":0,"cotations":{},"routes":null,"routes_falaise":null},"geometry":{"type":"Point","coordinates":[5.577629,43.187037]}},{"type":"Feature","properties":{"nom":"Pin Pon","site":"L’Étoile Noire","secteur":"Pin Pon","type_roche":null,"orientation":["NE","NO"],"lien_oblyk":null,"lien_camptocamp":null,"source_id":"escalade-cassis-ciotat-2025","topo_id":"escalade-cassis-ciotat-2025","topo_page":"209","hauteur_max_voie_m":null,"parking_associe":null,"approche_min":null,"approche_metre":null,"nb_voie_total":0,"nb_voie_sportive":0,"nb_voie_trad":0,"nb_voie_artificielle":0,"nb_voie_moulinette":0,"categorie":"falaise","nb_couenne":0,"nb_gv":0,"cotations":{},"routes":null,"routes_falaise":null},"geometry":{"type":"Point","coordinates":[5.577543,43.186977]}},{"type":"Feature","properties":{"nom":"Jeux de Boules","site":"L’Étoile Noire","secteur":"Jeux de Boules 1","type_roche":null,"orientation":["O"],"lien_oblyk":null,"lien_camptocamp":null,"source_id":"escalade-cassis-ciotat-2025","topo_id":"escalade-cassis-ciotat-2025","topo_page":"210","hauteur_max_voie_m":null,"parking_associe":null,"approche_min":null,"approche_metre":null,"nb_voie_total":0,"nb_voie_sportive":0,"nb_voie_trad":0,"nb_voie_artificielle":0,"nb_voie_moulinette":0,"categorie":"falaise","nb_couenne":0,"nb_gv":0,"cotations":{},"routes":null,"routes_falaise":null},"geometry":{"type":"Point","coordinates":[5.576973,43.186751]}},{"type":"Feature","properties":{"nom":"Jeux de Boules","site":"L’Étoile Noire","secteur":"Jeux de Boules 2","type_roche":null,"orientation":["N"],"lien_oblyk":null,"lien_camptocamp":null,"source_id":"escalade-cassis-ciotat-2025","topo_id":"escalade-cassis-ciotat-2025","topo_page":"211","hauteur_max_voie_m":null,"parking_associe":null,"approche_min":null,"approche_metre":null,"nb_voie_total":0,"nb_voie_sportive":0,"nb_voie_trad":0,"nb_voie_artificielle":0,"nb_voie_moulinette":0,"categorie":"falaise","nb_couenne":0,"nb_gv":0,"cotations":{},"routes":null,"routes_falaise":null},"geometry":{"type":"Point","coordinates":[5.576813,43.186623]}},{"type":"Feature","properties":{"nom":"Kick Ass","site":"L’Étoile Noire","secteur":"Kick Ass","type_roche":null,"orientation":["E","NE"],"lien_oblyk":null,"lien_camptocamp":null,"source_id":"escalade-cassis-ciotat-2025","topo_id":"escalade-cassis-ciotat-2025","topo_page":"212","hauteur_max_voie_m":null,"parking_associe":null,"approche_min":null,"approche_metre":null,"nb_voie_total":0,"nb_voie_sportive":0,"nb_voie_trad":0,"nb_voie_artificielle":0,"nb_voie_moulinette":0,"categorie":"falaise","nb_couenne":0,"nb_gv":0,"cotations":{},"routes":null,"routes_falaise":null},"geometry":{"type":"Point","coordinates":[5.576466,43.186576]}},{"type":"Feature","properties":{"nom":"Frigo","site":"L’Étoile Noire","secteur":"Frigo Ouest","type_roche":null,"orientation":["O"],"lien_oblyk":null,"lien_camptocamp":null,"source_id":"escalade-cassis-ciotat-2025","topo_id":"escalade-cassis-ciotat-2025","topo_page":"214","hauteur_max_voie_m":null,"parking_associe":null,"approche_min":null,"approche_metre":null,"nb_voie_total":0,"nb_voie_sportive":0,"nb_voie_trad":0,"nb_voie_artificielle":0,"nb_voie_moulinette":0,"categorie":"falaise","nb_couenne":0,"nb_gv":0,"cotations":{},"routes":null,"routes_falaise":null},"geometry":{"type":"Point","coordinates":[5.575735,43.18644]}},{"type":"Feature","properties":{"nom":"Frigo","site":"L’Étoile Noire","secteur":"Frigo Nord","type_roche":null,"orientation":["N"],"lien_oblyk":null,"lien_camptocamp":null,"source_id":"escalade-cassis-ciotat-2025","topo_id":"escalade-cassis-ciotat-2025","topo_page":"216","hauteur_max_voie_m":null,"parking_associe":null,"approche_min":null,"approche_metre":null,"nb_voie_total":0,"nb_voie_sportive":0,"nb_voie_trad":0,"nb_voie_artificielle":0,"nb_voie_moulinette":0,"categorie":"falaise","nb_couenne":0,"nb_gv":0,"cotations":{},"routes":null,"routes_falaise":null},"geometry":{"type":"Point","coordinates":[5.575619,43.186383]}},{"type":"Feature","properties":{"nom":"Sonic","site":"L’Étoile Noire","secteur":"Bleau","type_roche":null,"orientation":["SO"],"lien_oblyk":null,"lien_camptocamp":null,"source_id":"escalade-cassis-ciotat-2025","topo_id":"escalade-cassis-ciotat-2025","topo_page":"218","hauteur_max_voie_m":null,"parking_associe":null,"approche_min":null,"approche_metre":null,"nb_voie_total":0,"nb_voie_sportive":0,"nb_voie_trad":0,"nb_voie_artificielle":0,"nb_voie_moulinette":0,"categorie":"falaise","nb_couenne":0,"nb_gv":0,"cotations":{},"routes":null,"routes_falaise":null},"geometry":{"type":"Point","coordinates":[5.575434,43.186257]}},{"type":"Feature","properties":{"nom":"Sonic","site":"L’Étoile Noire","secteur":"Super Sonic","type_roche":null,"orientation":["NO","N"],"lien_oblyk":null,"lien_camptocamp":null,"source_id":"escalade-cassis-ciotat-2025","topo_id":"escalade-cassis-ciotat-2025","topo_page":"219","hauteur_max_voie_m":null,"parking_associe":null,"approche_min":null,"approche_metre":null,"nb_voie_total":0,"nb_voie_sportive":0,"nb_voie_trad":0,"nb_voie_artificielle":0,"nb_voie_moulinette":0,"categorie":"falaise","nb_couenne":0,"nb_gv":0,"cotations":{},"routes":null,"routes_falaise":null},"geometry":{"type":"Point","coordinates":[5.575182,43.186079]}},{"type":"Feature","properties":{"nom":"Sonic","site":"L’Étoile Noire","secteur":"Jacquadi","type_roche":null,"orientation":["NO","NE"],"lien_oblyk":null,"lien_camptocamp":null,"source_id":"escalade-cassis-ciotat-2025","topo_id":"escalade-cassis-ciotat-2025","topo_page":"220","hauteur_max_voie_m":null,"parking_associe":null,"approche_min":null,"approche_metre":null,"nb_voie_total":0,"nb_voie_sportive":0,"nb_voie_trad":0,"nb_voie_artificielle":0,"nb_voie_moulinette":0,"categorie":"falaise","nb_couenne":0,"nb_gv":0,"cotations":{},"routes":null,"routes_falaise":null},"geometry":{"type":"Point","coordinates":[5.575146,43.186077]}},{"type":"Feature","properties":{"nom":"Sonic","site":"L’Étoile Noire","secteur":"Papillons","type_roche":null,"orientation":["NO","NE"],"lien_oblyk":null,"lien_camptocamp":null,"source_id":"escalade-cassis-ciotat-2025","topo_id":"escalade-cassis-ciotat-2025","topo_page":"221","hauteur_max_voie_m":null,"parking_associe":null,"approche_min":null,"approche_metre":null,"nb_voie_total":0,"nb_voie_sportive":0,"nb_voie_trad":0,"nb_voie_artificielle":0,"nb_voie_moulinette":0,"categorie":"falaise","nb_couenne":0,"nb_gv":0,"cotations":{},"routes":null,"routes_falaise":null},"geometry":{"type":"Point","coordinates":[5.574713,43.185736]}},{"type":"Feature","properties":{"nom":"Ilôt Central","site":"L’Étoile Noire","secteur":"Les Deux Fissures","type_roche":null,"orientation":["N"],"lien_oblyk":null,"lien_camptocamp":null,"source_id":"escalade-cassis-ciotat-2025","topo_id":"escalade-cassis-ciotat-2025","topo_page":"223","hauteur_max_voie_m":null,"parking_associe":null,"approche_min":null,"approche_metre":null,"nb_voie_total":0,"nb_voie_sportive":0,"nb_voie_trad":0,"nb_voie_artificielle":0,"nb_voie_moulinette":0,"categorie":"falaise","nb_couenne":0,"nb_gv":0,"cotations":{},"routes":null,"routes_falaise":null},"geometry":{"type":"Point","coordinates":[5.577215,43.189076]}},{"type":"Feature","properties":{"nom":"Ilôt Central","site":"L’Étoile Noire","secteur":"Mini","type_roche":null,"orientation":["O"],"lien_oblyk":null,"lien_camptocamp":null,"source_id":"escalade-cassis-ciotat-2025","topo_id":"escalade-cassis-ciotat-2025","topo_page":"224","hauteur_max_voie_m":null,"parking_associe":null,"approche_min":null,"approche_metre":null,"nb_voie_total":0,"nb_voie_sportive":0,"nb_voie_trad":0,"nb_voie_artificielle":0,"nb_voie_moulinette":0,"categorie":"falaise","nb_couenne":0,"nb_gv":0,"cotations":{},"routes":null,"routes_falaise":null},"geometry":{"type":"Point","coordinates":[5.576889,43.188988]}},{"type":"Feature","properties":{"nom":"Ilôt Central","site":"L’Étoile Noire","secteur":"Carotte","type_roche":null,"orientation":["NO"],"lien_oblyk":null,"lien_camptocamp":null,"source_id":"escalade-cassis-ciotat-2025","topo_id":"escalade-cassis-ciotat-2025","topo_page":"225","hauteur_max_voie_m":null,"parking_associe":null,"approche_min":null,"approche_metre":null,"nb_voie_total":0,"nb_voie_sportive":0,"nb_voie_trad":0,"nb_voie_artificielle":0,"nb_voie_moulinette":0,"categorie":"falaise","nb_couenne":0,"nb_gv":0,"cotations":{},"routes":null,"routes_falaise":null},"geometry":{"type":"Point","coordinates":[5.576725,43.188896]}},{"type":"Feature","properties":{"nom":"Ilôt Central","site":"L’Étoile Noire","secteur":"Ecorider","type_roche":null,"orientation":["N"],"lien_oblyk":null,"lien_camptocamp":null,"source_id":"escalade-cassis-ciotat-2025","topo_id":"escalade-cassis-ciotat-2025","topo_page":"226","hauteur_max_voie_m":null,"parking_associe":null,"approche_min":null,"approche_metre":null,"nb_voie_total":0,"nb_voie_sportive":0,"nb_voie_trad":0,"nb_voie_artificielle":0,"nb_voie_moulinette":0,"categorie":"falaise","nb_couenne":0,"nb_gv":0,"cotations":{},"routes":null,"routes_falaise":null},"geometry":{"type":"Point","coordinates":[5.576226,43.188789]}},{"type":"Feature","properties":{"nom":"Ilôt Central","site":"L’Étoile Noire","secteur":"Face Nord","type_roche":null,"orientation":["NO"],"lien_oblyk":null,"lien_camptocamp":null,"source_id":"escalade-cassis-ciotat-2025","topo_id":"escalade-cassis-ciotat-2025","topo_page":"227","hauteur_max_voie_m":null,"parking_associe":null,"approche_min":null,"approche_metre":null,"nb_voie_total":0,"nb_voie_sportive":0,"nb_voie_trad":0,"nb_voie_artificielle":0,"nb_voie_moulinette":0,"categorie":"falaise","nb_couenne":0,"nb_gv":0,"cotations":{},"routes":null,"routes_falaise":null},"geometry":{"type":"Point","coordinates":[5.575411,43.188411]}},{"type":"Feature","properties":{"nom":"Ilôt Central","site":"L’Étoile Noire","secteur":"Le Côté Obscur","type_roche":null,"orientation":["E"],"lien_oblyk":null,"lien_camptocamp":null,"source_id":"escalade-cassis-ciotat-2025","topo_id":"escalade-cassis-ciotat-2025","topo_page":"228","hauteur_max_voie_m":null,"parking_associe":null,"approche_min":null,"approche_metre":null,"nb_voie_total":0,"nb_voie_sportive":0,"nb_voie_trad":0,"nb_voie_artificielle":0,"nb_voie_moulinette":0,"categorie":"falaise","nb_couenne":0,"nb_gv":0,"cotations":{},"routes":null,"routes_falaise":null},"geometry":{"type":"Point","coordinates":[5.575266,43.188279]}},{"type":"Feature","properties":{"nom":"Ilôt Central","site":"L’Étoile Noire","secteur":"Avec Vue sur la Mer","type_roche":null,"orientation":["E"],"lien_oblyk":null,"lien_camptocamp":null,"source_id":"escalade-cassis-ciotat-2025","topo_id":"escalade-cassis-ciotat-2025","topo_page":"229","hauteur_max_voie_m":null,"parking_associe":null,"approche_min":null,"approche_metre":null,"nb_voie_total":0,"nb_voie_sportive":0,"nb_voie_trad":0,"nb_voie_artificielle":0,"nb_voie_moulinette":0,"categorie":"falaise","nb_couenne":0,"nb_gv":0,"cotations":{},"routes":null,"routes_falaise":null},"geometry":{"type":"Point","coordinates":[5.575132,43.188159]}},{"type":"Feature","properties":{"nom":"Ilôt Central","site":"L’Étoile Noire","secteur":"Avec Vue sur la Mer (droite)","type_roche":null,"orientation":["SE"],"lien_oblyk":null,"lien_camptocamp":null,"source_id":"escalade-cassis-ciotat-2025","topo_id":"escalade-cassis-ciotat-2025","topo_page":"230","hauteur_max_voie_m":null,"parking_associe":null,"approche_min":null,"approche_metre":null,"nb_voie_total":0,"nb_voie_sportive":0,"nb_voie_trad":0,"nb_voie_artificielle":0,"nb_voie_moulinette":0,"categorie":"falaise","nb_couenne":0,"nb_gv":0,"cotations":{},"routes":null,"routes_falaise":null},"geometry":{"type":"Point","coordinates":[5.574991,43.188138]}},{"type":"Feature","properties":{"nom":"Ilôt Central","site":"L’Étoile Noire","secteur":"Fissures","type_roche":null,"orientation":["S"],"lien_oblyk":null,"lien_camptocamp":null,"source_id":"escalade-cassis-ciotat-2025","topo_id":"escalade-cassis-ciotat-2025","topo_page":"231","hauteur_max_voie_m":null,"parking_associe":null,"approche_min":null,"approche_metre":null,"nb_voie_total":0,"nb_voie_sportive":0,"nb_voie_trad":0,"nb_voie_artificielle":0,"nb_voie_moulinette":0,"categorie":"falaise","nb_couenne":0,"nb_gv":0,"cotations":{},"routes":null,"routes_falaise":null},"geometry":{"type":"Point","coordinates":[5.575662,43.187991]}},{"type":"Feature","properties":{"nom":"Ilôt Central","site":"L’Étoile Noire","secteur":"Grisbi","type_roche":null,"orientation":["S"],"lien_oblyk":null,"lien_camptocamp":null,"source_id":"escalade-cassis-ciotat-2025","topo_id":"escalade-cassis-ciotat-2025","topo_page":"234","hauteur_max_voie_m":null,"parking_associe":null,"approche_min":null,"approche_metre":null,"nb_voie_total":0,"nb_voie_sportive":0,"nb_voie_trad":0,"nb_voie_artificielle":0,"nb_voie_moulinette":0,"categorie":"falaise","nb_couenne":0,"nb_gv":0,"cotations":{},"routes":null,"routes_falaise":null},"geometry":{"type":"Point","coordinates":[5.576198,43.188007]}},{"type":"Feature","properties":{"nom":"Ilôt Central","site":"L’Étoile Noire","secteur":"Trompe Oreille","type_roche":null,"orientation":["S"],"lien_oblyk":null,"lien_camptocamp":null,"source_id":"escalade-cassis-ciotat-2025","topo_id":"escalade-cassis-ciotat-2025","topo_page":"236","hauteur_max_voie_m":null,"parking_associe":null,"approche_min":null,"approche_metre":null,"nb_voie_total":0,"nb_voie_sportive":0,"nb_voie_trad":0,"nb_voie_artificielle":0,"nb_voie_moulinette":0,"categorie":"falaise","nb_couenne":0,"nb_gv":0,"cotations":{},"routes":null,"routes_falaise":null},"geometry":{"type":"Point","coordinates":[5.576658,43.188121]}},{"type":"Feature","properties":{"nom":"Ilôt Central","site":"L’Étoile Noire","secteur":"Yaka","type_roche":null,"orientation":["S"],"lien_oblyk":null,"lien_camptocamp":null,"source_id":"escalade-cassis-ciotat-2025","topo_id":"escalade-cassis-ciotat-2025","topo_page":"238","hauteur_max_voie_m":null,"parking_associe":null,"approche_min":null,"approche_metre":null,"nb_voie_total":0,"nb_voie_sportive":0,"nb_voie_trad":0,"nb_voie_artificielle":0,"nb_voie_moulinette":0,"categorie":"falaise","nb_couenne":0,"nb_gv":0,"cotations":{},"routes":null,"routes_falaise":null},"geometry":{"type":"Point","coordinates":[5.576942,43.188225]}},{"type":"Feature","properties":{"nom":"Ilôt Central","site":"L’Étoile Noire","secteur":"Blade","type_roche":null,"orientation":["S"],"lien_oblyk":null,"lien_camptocamp":null,"source_id":"escalade-cassis-ciotat-2025","topo_id":"escalade-cassis-ciotat-2025","topo_page":"239","hauteur_max_voie_m":null,"parking_associe":null,"approche_min":null,"approche_metre":null,"nb_voie_total":0,"nb_voie_sportive":0,"nb_voie_trad":0,"nb_voie_artificielle":0,"nb_voie_moulinette":0,"categorie":"falaise","nb_couenne":0,"nb_gv":0,"cotations":{},"routes":null,"routes_falaise":null},"geometry":{"type":"Point","coordinates":[5.576712,43.188122]}},{"type":"Feature","properties":{"nom":"Ilôt Central","site":"L’Étoile Noire","secteur":"Alien","type_roche":null,"orientation":["E","S"],"lien_oblyk":null,"lien_camptocamp":null,"source_id":"escalade-cassis-ciotat-2025","topo_id":"escalade-cassis-ciotat-2025","topo_page":"240","hauteur_max_voie_m":null,"parking_associe":null,"approche_min":null,"approche_metre":null,"nb_voie_total":0,"nb_voie_sportive":0,"nb_voie_trad":0,"nb_voie_artificielle":0,"nb_voie_moulinette":0,"categorie":"falaise","nb_couenne":0,"nb_gv":0,"cotations":{},"routes":null,"routes_falaise":null},"geometry":{"type":"Point","coordinates":[5.577236,43.188399]}},{"type":"Feature","properties":{"nom":"Ilôt Central","site":"L’Étoile Noire","secteur":"Dièdre","type_roche":null,"orientation":["SE"],"lien_oblyk":null,"lien_camptocamp":null,"source_id":"escalade-cassis-ciotat-2025","topo_id":"escalade-cassis-ciotat-2025","topo_page":"242","hauteur_max_voie_m":null,"parking_associe":null,"approche_min":null,"approche_metre":null,"nb_voie_total":0,"nb_voie_sportive":0,"nb_voie_trad":0,"nb_voie_artificielle":0,"nb_voie_moulinette":0,"categorie":"falaise","nb_couenne":0,"nb_gv":0,"cotations":{},"routes":null,"routes_falaise":null},"geometry":{"type":"Point","coordinates":[5.577598,43.188619]}},{"type":"Feature","properties":{"nom":"Carrière du Loin","site":"L’Étoile Noire","secteur":"Artistes","type_roche":null,"orientation":["E","NE"],"lien_oblyk":null,"lien_camptocamp":null,"source_id":"escalade-cassis-ciotat-2025","topo_id":"escalade-cassis-ciotat-2025","topo_page":"246","hauteur_max_voie_m":null,"parking_associe":null,"approche_min":null,"approche_metre":null,"nb_voie_total":0,"nb_voie_sportive":0,"nb_voie_trad":0,"nb_voie_artificielle":0,"nb_voie_moulinette":0,"categorie":"falaise","nb_couenne":0,"nb_gv":0,"cotations":{},"routes":null,"routes_falaise":null},"geometry":{"type":"Point","coordinates":[5.572768,43.186312]}},{"type":"Feature","properties":{"nom":"Carrière du Loin","site":"L’Étoile Noire","secteur":"So British","type_roche":null,"orientation":["E"],"lien_oblyk":null,"lien_camptocamp":null,"source_id":"escalade-cassis-ciotat-2025","topo_id":"escalade-cassis-ciotat-2025","topo_page":"247","hauteur_max_voie_m":null,"parking_associe":null,"approche_min":null,"approche_metre":null,"nb_voie_total":0,"nb_voie_sportive":0,"nb_voie_trad":0,"nb_voie_artificielle":0,"nb_voie_moulinette":0,"categorie":"falaise","nb_couenne":0,"nb_gv":0,"cotations":{},"routes":null,"routes_falaise":null},"geometry":{"type":"Point","coordinates":[5.572659,43.186892]}},{"type":"Feature","properties":{"nom":"Carrière du Loin","site":"L’Étoile Noire","secteur":"Carrière du Loin Face Nord","type_roche":null,"orientation":["NE","N"],"lien_oblyk":null,"lien_camptocamp":null,"source_id":"escalade-cassis-ciotat-2025","topo_id":"escalade-cassis-ciotat-2025","topo_page":"249","hauteur_max_voie_m":null,"parking_associe":null,"approche_min":null,"approche_metre":null,"nb_voie_total":0,"nb_voie_sportive":0,"nb_voie_trad":0,"nb_voie_artificielle":0,"nb_voie_moulinette":0,"categorie":"falaise","nb_couenne":0,"nb_gv":0,"cotations":{},"routes":null,"routes_falaise":null},"geometry":{"type":"Point","coordinates":[5.570886,43.188405]}},{"type":"Feature","properties":{"nom":"Carrière du Loin","site":"L’Étoile Noire","secteur":"Carrière du Loin Face Ouest","type_roche":null,"orientation":["O","N"],"lien_oblyk":null,"lien_camptocamp":null,"source_id":"escalade-cassis-ciotat-2025","topo_id":"escalade-cassis-ciotat-2025","topo_page":"250","hauteur_max_voie_m":null,"parking_associe":null,"approche_min":null,"approche_metre":null,"nb_voie_total":0,"nb_voie_sportive":0,"nb_voie_trad":0,"nb_voie_artificielle":0,"nb_voie_moulinette":0,"categorie":"falaise","nb_couenne":0,"nb_gv":0,"cotations":{},"routes":null,"routes_falaise":null},"geometry":{"type":"Point","coordinates":[5.571194,43.18854]}},{"type":"Feature","properties":{"nom":"Le Pilastre","site":"Roumagoua","secteur":"Le Pilastre","type_roche":null,"orientation":["E"],"lien_oblyk":null,"lien_camptocamp":null,"source_id":"escalade-cassis-ciotat-2025","topo_id":"escalade-cassis-ciotat-2025","topo_page":"255","hauteur_max_voie_m":null,"parking_associe":null,"approche_min":null,"approche_metre":null,"nb_voie_total":0,"nb_voie_sportive":0,"nb_voie_trad":0,"nb_voie_artificielle":0,"nb_voie_moulinette":0,"categorie":"falaise","nb_couenne":0,"nb_gv":0,"cotations":{},"routes":null,"routes_falaise":null},"geometry":{"type":"Point","coordinates":[5.602424,43.222211]}},{"type":"Feature","properties":{"nom":"Gébobola","site":"Roumagoua","secteur":"Gébobola","type_roche":null,"orientation":["E","SE"],"lien_oblyk":null,"lien_camptocamp":null,"source_id":"escalade-cassis-ciotat-2025","topo_id":"escalade-cassis-ciotat-2025","topo_page":"256","hauteur_max_voie_m":null,"parking_associe":null,"approche_min":null,"approche_metre":null,"nb_voie_total":0,"nb_voie_sportive":0,"nb_voie_trad":0,"nb_voie_artificielle":0,"nb_voie_moulinette":0,"categorie":"falaise","nb_couenne":0,"nb_gv":0,"cotations":{},"routes":null,"routes_falaise":null},"geometry":{"type":"Point","coordinates":[5.602196,43.222565]}},{"type":"Feature","properties":{"nom":"Panic","site":"Roumagoua","secteur":"Panic","type_roche":null,"orientation":["S","O"],"lien_oblyk":null,"lien_camptocamp":null,"source_id":"escalade-cassis-ciotat-2025","topo_id":"escalade-cassis-ciotat-2025","topo_page":"258","hauteur_max_voie_m":null,"parking_associe":null,"approche_min":null,"approche_metre":null,"nb_voie_total":0,"nb_voie_sportive":0,"nb_voie_trad":0,"nb_voie_artificielle":0,"nb_voie_moulinette":0,"categorie":"falaise","nb_couenne":0,"nb_gv":0,"cotations":{},"routes":null,"routes_falaise":null},"geometry":{"type":"Point","coordinates":[5.602387,43.222128]}},{"type":"Feature","properties":{"nom":"Cirque gauche","site":"Roumagoua","secteur":"Cirque gauche","type_roche":null,"orientation":["E"],"lien_oblyk":null,"lien_camptocamp":null,"source_id":"escalade-cassis-ciotat-2025","topo_id":"escalade-cassis-ciotat-2025","topo_page":"260","hauteur_max_voie_m":null,"parking_associe":null,"approche_min":null,"approche_metre":null,"nb_voie_total":0,"nb_voie_sportive":0,"nb_voie_trad":0,"nb_voie_artificielle":0,"nb_voie_moulinette":0,"categorie":"falaise","nb_couenne":0,"nb_gv":0,"cotations":{},"routes":null,"routes_falaise":null},"geometry":{"type":"Point","coordinates":[5.601841,43.223576]}},{"type":"Feature","properties":{"nom":"Cirque droite","site":"Roumagoua","secteur":"Cirque droite","type_roche":null,"orientation":["E"],"lien_oblyk":null,"lien_camptocamp":null,"source_id":"escalade-cassis-ciotat-2025","topo_id":"escalade-cassis-ciotat-2025","topo_page":"261","hauteur_max_voie_m":null,"parking_associe":null,"approche_min":null,"approche_metre":null,"nb_voie_total":0,"nb_voie_sportive":0,"nb_voie_trad":0,"nb_voie_artificielle":0,"nb_voie_moulinette":0,"categorie":"falaise","nb_couenne":0,"nb_gv":0,"cotations":{},"routes":null,"routes_falaise":null},"geometry":{"type":"Point","coordinates":[5.601981,43.223759]}},{"type":"Feature","properties":{"nom":"Cirque des Fours à Chaux","site":"Roumagoua","secteur":"Cirque des Fours à Chaux","type_roche":null,"orientation":["O"],"lien_oblyk":null,"lien_camptocamp":null,"source_id":"escalade-cassis-ciotat-2025","topo_id":"escalade-cassis-ciotat-2025","topo_page":"262","hauteur_max_voie_m":null,"parking_associe":null,"approche_min":null,"approche_metre":null,"nb_voie_total":0,"nb_voie_sportive":0,"nb_voie_trad":0,"nb_voie_artificielle":0,"nb_voie_moulinette":0,"categorie":"falaise","nb_couenne":0,"nb_gv":0,"cotations":{},"routes":null,"routes_falaise":null},"geometry":{"type":"Point","coordinates":[5.602383,43.22709]}},{"type":"Feature","properties":{"nom":"Oppidum","site":"Ceyreste","secteur":"Face Ouest et Sud-Ouest","type_roche":null,"orientation":["O","SO"],"lien_oblyk":null,"lien_camptocamp":null,"source_id":"escalade-cassis-ciotat-2025","topo_id":"escalade-cassis-ciotat-2025","topo_page":"266","hauteur_max_voie_m":null,"parking_associe":null,"approche_min":null,"approche_metre":null,"nb_voie_total":0,"nb_voie_sportive":0,"nb_voie_trad":0,"nb_voie_artificielle":0,"nb_voie_moulinette":0,"categorie":"falaise","nb_couenne":0,"nb_gv":0,"cotations":{},"routes":null,"routes_falaise":null},"geometry":{"type":"Point","coordinates":[5.615259,43.22694]}},{"type":"Feature","properties":{"nom":"Ceyreste","site":"Ceyreste","secteur":"La Forteresse","type_roche":null,"orientation":["NE"],"lien_oblyk":null,"lien_camptocamp":null,"source_id":"escalade-cassis-ciotat-2025","topo_id":"escalade-cassis-ciotat-2025","topo_page":"268;269","hauteur_max_voie_m":null,"parking_associe":null,"approche_min":null,"approche_metre":null,"nb_voie_total":0,"nb_voie_sportive":0,"nb_voie_trad":0,"nb_voie_artificielle":0,"nb_voie_moulinette":0,"categorie":"falaise","nb_couenne":0,"nb_gv":0,"cotations":{},"routes":null,"routes_falaise":null},"geometry":{"type":"Point","coordinates":[5.615505,43.225699]}},{"type":"Feature","properties":{"nom":"Légionnaire","site":"Carnoux en Provence","secteur":"Légionnaire","type_roche":null,"orientation":["O","SO"],"lien_oblyk":null,"lien_camptocamp":null,"source_id":"escalade-cassis-ciotat-2025","topo_id":"escalade-cassis-ciotat-2025","topo_page":"272","hauteur_max_voie_m":null,"parking_associe":null,"approche_min":null,"approche_metre":null,"nb_voie_total":0,"nb_voie_sportive":0,"nb_voie_trad":0,"nb_voie_artificielle":0,"nb_voie_moulinette":0,"categorie":"falaise","nb_couenne":0,"nb_gv":0,"cotations":{},"routes":null,"routes_falaise":null},"geometry":{"type":"Point","coordinates":[5.555737,43.262703]}},{"type":"Feature","properties":{"nom":"Fenestrelle d’Aubagne","site":"Carnoux en Provence","secteur":"Fenestrelle d’Aubagne","type_roche":null,"orientation":["N","NO"],"lien_oblyk":null,"lien_camptocamp":null,"source_id":"escalade-cassis-ciotat-2025","topo_id":"escalade-cassis-ciotat-2025","topo_page":"274","hauteur_max_voie_m":null,"parking_associe":null,"approche_min":null,"approche_metre":null,"nb_voie_total":0,"nb_voie_sportive":0,"nb_voie_trad":0,"nb_voie_artificielle":0,"nb_voie_moulinette":0,"categorie":"falaise","nb_couenne":0,"nb_gv":0,"cotations":{},"routes":null,"routes_falaise":null},"geometry":{"type":"Point","coordinates":[5.561105,43.266423]}},{"type":"Feature","properties":{"nom":"Brise de Mer","site":"Port Miou","secteur":"Brise de Mer","type_roche":null,"orientation":["SE"],"lien_oblyk":null,"lien_camptocamp":null,"source_id":"escalade-cassis-ciotat-2025","topo_id":"escalade-cassis-ciotat-2025","topo_page":"278","hauteur_max_voie_m":null,"parking_associe":null,"approche_min":null,"approche_metre":null,"nb_voie_total":0,"nb_voie_sportive":0,"nb_voie_trad":0,"nb_voie_artificielle":0,"nb_voie_moulinette":0,"categorie":"falaise","nb_couenne":0,"nb_gv":0,"cotations":{},"routes":null,"routes_falaise":null},"geometry":{"type":"Point","coordinates":[5.514122,43.206743]}},{"type":"Feature","properties":{"nom":"La Plage","site":"Port Miou","secteur":"La Plage","type_roche":null,"orientation":["SE"],"lien_oblyk":null,"lien_camptocamp":null,"source_id":"escalade-cassis-ciotat-2025","topo_id":"escalade-cassis-ciotat-2025","topo_page":"280","hauteur_max_voie_m":null,"parking_associe":null,"approche_min":null,"approche_metre":null,"nb_voie_total":0,"nb_voie_sportive":0,"nb_voie_trad":0,"nb_voie_artificielle":0,"nb_voie_moulinette":0,"categorie":"falaise","nb_couenne":0,"nb_gv":0,"cotations":{},"routes":null,"routes_falaise":null},"geometry":{"type":"Point","coordinates":[5.514771,43.20788]}},{"type":"Feature","properties":{"nom":"La Vie des Méduses","site":"Port Miou","secteur":"La Vie des Méduses","type_roche":null,"orientation":["SE"],"lien_oblyk":null,"lien_camptocamp":null,"source_id":"escalade-cassis-ciotat-2025","topo_id":"escalade-cassis-ciotat-2025","topo_page":"281","hauteur_max_voie_m":null,"parking_associe":null,"approche_min":null,"approche_metre":null,"nb_voie_total":0,"nb_voie_sportive":0,"nb_voie_trad":0,"nb_voie_artificielle":0,"nb_voie_moulinette":0,"categorie":"falaise","nb_couenne":0,"nb_gv":0,"cotations":{},"routes":null,"routes_falaise":null},"geometry":{"type":"Point","coordinates":[5.519679,43.211086]}},{"type":"Feature","properties":{"nom":"Initiation","site":"Port Miou","secteur":"Initiation","type_roche":null,"orientation":["S"],"lien_oblyk":null,"lien_camptocamp":null,"source_id":"escalade-cassis-ciotat-2025","topo_id":"escalade-cassis-ciotat-2025","topo_page":"282","hauteur_max_voie_m":null,"parking_associe":null,"approche_min":null,"approche_metre":null,"nb_voie_total":0,"nb_voie_sportive":0,"nb_voie_trad":0,"nb_voie_artificielle":0,"nb_voie_moulinette":0,"categorie":"falaise","nb_couenne":0,"nb_gv":0,"cotations":{},"routes":null,"routes_falaise":null},"geometry":{"type":"Point","coordinates":[5.520367,43.211307]}},{"type":"Feature","properties":{"nom":"Calendal","site":"Port Miou","secteur":"Calendal","type_roche":null,"orientation":["O"],"lien_oblyk":null,"lien_camptocamp":null,"source_id":"escalade-cassis-ciotat-2025","topo_id":"escalade-cassis-ciotat-2025","topo_page":"284","hauteur_max_voie_m":null,"parking_associe":null,"approche_min":null,"approche_metre":null,"nb_voie_total":0,"nb_voie_sportive":0,"nb_voie_trad":0,"nb_voie_artificielle":0,"nb_voie_moulinette":0,"categorie":"falaise","nb_couenne":0,"nb_gv":0,"cotations":{},"routes":null,"routes_falaise":null},"geometry":{"type":"Point","coordinates":[5.524338,43.213698]}},{"type":"Feature","properties":{"nom":"Le Vallon","site":"Port Miou","secteur":"Le Vallon","type_roche":null,"orientation":["SO"],"lien_oblyk":null,"lien_camptocamp":null,"source_id":"escalade-cassis-ciotat-2025","topo_id":"escalade-cassis-ciotat-2025","topo_page":"286","hauteur_max_voie_m":null,"parking_associe":null,"approche_min":null,"approche_metre":null,"nb_voie_total":0,"nb_voie_sportive":0,"nb_voie_trad":0,"nb_voie_artificielle":0,"nb_voie_moulinette":0,"categorie":"falaise","nb_couenne":0,"nb_gv":0,"cotations":{},"routes":null,"routes_falaise":null},"geometry":{"type":"Point","coordinates":[5.523306,43.216925]}}]}