{"type":"FeatureCollection","name":"data","crs":{"type":"name","properties":{"name":"urn:ogc:def:crs:OGC:1.3:CRS84"}},"sources":[{"id":"grimpe-dentelles3-2023","nom":"Grimpe aux Dentelles 3","auteur":"FFCAM Avignon","type":"topo payant","annee":"2023","url":"https://www.chullanka.com/fr/products/grimpe-aux-dentelles-3"}],"features":[{"type":"Feature","properties":{"nom":"Cascade de Lafare","site":"Cascade de Lafare","secteur":"La tyrolienne (droit)","type_roche":"calcaire","orientation":["SO"],"lien_oblyk":"https://oblyk.org/crags/868/la-cascade-de-lafare","lien_camptocamp":null,"source_id":"grimpe-dentelles3-2023","topo_id":"grimpe-dentelles3-2023","topo_page":"108","hauteur_max_voie_m":17,"parking_associe":["parking Cascade de Lafare","parking rocher St Christophe"],"approche_min":[1,1],"approche_metre":[null,null],"nb_voie_total":14,"nb_voie_sportive":14,"nb_voie_trad":0,"nb_voie_artificielle":0,"nb_voie_moulinette":0,"categorie":"falaise","nb_couenne":14,"nb_gv":0,"cotations":{"3b":2,"4a":1,"4c":2,"5a":2,"5b":1,"5c":1,"6a":1,"6a+":1,"6b":2,"6c+":1},"routes":"cascade-de-lafare","routes_falaise":172},"geometry":{"type":"Point","coordinates":[5.047236,44.15624]}},{"type":"Feature","properties":{"nom":"Cascade de Lafare","site":"Cascade de Lafare","secteur":"Couloir de la glisse","type_roche":"calcaire","orientation":["S"],"lien_oblyk":"https://oblyk.org/crags/868/la-cascade-de-lafare","lien_camptocamp":null,"source_id":"grimpe-dentelles3-2023","topo_id":"grimpe-dentelles3-2023","topo_page":"104","hauteur_max_voie_m":30,"parking_associe":["parking Cascade de Lafare","parking rocher St Christophe"],"approche_min":[3,3],"approche_metre":[null,null],"nb_voie_total":14,"nb_voie_sportive":14,"nb_voie_trad":0,"nb_voie_artificielle":0,"nb_voie_moulinette":0,"categorie":"falaise","nb_couenne":14,"nb_gv":0,"cotations":{"5b":2,"5c":2,"5c+":1,"6a":2,"6a+":2,"6b":1,"6b+":2,"6c":2},"routes":"cascade-de-lafare","routes_falaise":173},"geometry":{"type":"Point","coordinates":[5.04749,44.155681]}},{"type":"Feature","properties":{"nom":"Cascade de Lafare","site":"Cascade de Lafare","secteur":"Dièdre des cascades","type_roche":"calcaire","orientation":["SO"],"lien_oblyk":"https://oblyk.org/crags/868/la-cascade-de-lafare","lien_camptocamp":null,"source_id":"grimpe-dentelles3-2023","topo_id":"grimpe-dentelles3-2023","topo_page":"114","hauteur_max_voie_m":60,"parking_associe":["parking Cascade de Lafare","parking rocher St Christophe"],"approche_min":[5,5],"approche_metre":[null,null],"nb_voie_total":22,"nb_voie_sportive":21,"nb_voie_trad":1,"nb_voie_artificielle":0,"nb_voie_moulinette":0,"categorie":"falaise","nb_couenne":18,"nb_gv":3,"cotations":{"5b+":1,"5c+":1,"6b/6b+":1,"7a":2,"7a+":1,"7b":2,"7b+":2,"7c+":1,"8a+":2,"8b":3,"8b+":4,"9a":1},"routes":"cascade-de-lafare","routes_falaise":174},"geometry":{"type":"Point","coordinates":[5.047842,44.15623]}},{"type":"Feature","properties":{"nom":"Cascade de Lafare","site":"Cascade de Lafare","secteur":"Dièdre jaune","type_roche":"calcaire","orientation":["SO"],"lien_oblyk":"https://oblyk.org/crags/868/la-cascade-de-lafare","lien_camptocamp":null,"source_id":"grimpe-dentelles3-2023","topo_id":"grimpe-dentelles3-2023","topo_page":"116","hauteur_max_voie_m":70,"parking_associe":["parking Cascade de Lafare","parking rocher St Christophe"],"approche_min":[5,5],"approche_metre":[null,null],"nb_voie_total":4,"nb_voie_sportive":4,"nb_voie_trad":0,"nb_voie_artificielle":0,"nb_voie_moulinette":0,"categorie":"falaise","nb_couenne":2,"nb_gv":2,"cotations":{"6c":1,"7a+":3},"routes":"cascade-de-lafare","routes_falaise":175},"geometry":{"type":"Point","coordinates":[5.047991,44.156237]}},{"type":"Feature","properties":{"nom":"Cascade de Lafare","site":"Cascade de Lafare","secteur":"Grand toit (droit)","type_roche":"calcaire","orientation":["SO"],"lien_oblyk":"https://oblyk.org/crags/868/la-cascade-de-lafare","lien_camptocamp":null,"source_id":"grimpe-dentelles3-2023","topo_id":"grimpe-dentelles3-2023","topo_page":"120","hauteur_max_voie_m":30,"parking_associe":["parking Cascade de Lafare","parking rocher St Christophe"],"approche_min":[2,2],"approche_metre":[null,null],"nb_voie_total":10,"nb_voie_sportive":10,"nb_voie_trad":0,"nb_voie_artificielle":0,"nb_voie_moulinette":0,"categorie":"falaise","nb_couenne":10,"nb_gv":0,"cotations":{"6b+":2,"6b+/6c":1,"6c":1,"6c+":2,"6c/6c+":1,"7a":2,"7a/7a+":1},"routes":"cascade-de-lafare","routes_falaise":176},"geometry":{"type":"Point","coordinates":[5.049068,44.155914]}},{"type":"Feature","properties":{"nom":"Cascade de Lafare","site":"Cascade de Lafare","secteur":"Grand toit (gauche)","type_roche":"calcaire","orientation":["SO"],"lien_oblyk":"https://oblyk.org/crags/868/la-cascade-de-lafare","lien_camptocamp":null,"source_id":"grimpe-dentelles3-2023","topo_id":"grimpe-dentelles3-2023","topo_page":"118","hauteur_max_voie_m":32,"parking_associe":["parking Cascade de Lafare","parking rocher St Christophe"],"approche_min":[2,2],"approche_metre":[null,null],"nb_voie_total":14,"nb_voie_sportive":14,"nb_voie_trad":0,"nb_voie_artificielle":0,"nb_voie_moulinette":0,"categorie":"falaise","nb_couenne":14,"nb_gv":0,"cotations":{"6a":1,"6a+":1,"6c":1,"7+":1,"7a+/7b":2,"7b":3,"7b+":1,"7c+":1,"8a":1,"8b":2},"routes":"cascade-de-lafare","routes_falaise":177},"geometry":{"type":"Point","coordinates":[5.048603,44.156017]}},{"type":"Feature","properties":{"nom":"Cascade de Lafare","site":"Cascade de Lafare","secteur":"La tyrolienne (gauche)","type_roche":"calcaire","orientation":["SO"],"lien_oblyk":"https://oblyk.org/crags/868/la-cascade-de-lafare","lien_camptocamp":null,"source_id":"grimpe-dentelles3-2023","topo_id":"grimpe-dentelles3-2023","topo_page":"106","hauteur_max_voie_m":15,"parking_associe":["parking Cascade de Lafare","parking rocher St Christophe"],"approche_min":[2,2],"approche_metre":[null,null],"nb_voie_total":15,"nb_voie_sportive":15,"nb_voie_trad":0,"nb_voie_artificielle":0,"nb_voie_moulinette":0,"categorie":"falaise","nb_couenne":15,"nb_gv":0,"cotations":{"3b":1,"4c":1,"5a":2,"5b":2,"5b+":1,"5c":3,"5c+":1,"6a":2,"6a+":1,"6b":1},"routes":"cascade-de-lafare","routes_falaise":178},"geometry":{"type":"Point","coordinates":[5.046981,44.156202]}},{"type":"Feature","properties":{"nom":"Cascade de Lafare","site":"Cascade de Lafare","secteur":"Les canards de Cholon","type_roche":"calcaire","orientation":["SO"],"lien_oblyk":"https://oblyk.org/crags/868/la-cascade-de-lafare","lien_camptocamp":null,"source_id":"grimpe-dentelles3-2023","topo_id":"grimpe-dentelles3-2023","topo_page":"110","hauteur_max_voie_m":30,"parking_associe":["parking Cascade de Lafare","parking rocher St Christophe"],"approche_min":[3,3],"approche_metre":[null,null],"nb_voie_total":10,"nb_voie_sportive":10,"nb_voie_trad":0,"nb_voie_artificielle":0,"nb_voie_moulinette":0,"categorie":"falaise","nb_couenne":10,"nb_gv":0,"cotations":{"5b+":1,"6a":3,"6a+":1,"6b":1,"6b+":1,"6c+":1,"7a":1,"8b":1},"routes":"cascade-de-lafare","routes_falaise":179},"geometry":{"type":"Point","coordinates":[5.047207,44.156131]}},{"type":"Feature","properties":{"nom":"Cascade de Lafare","site":"Cascade de Lafare","secteur":"Vire câblée","type_roche":"calcaire","orientation":["SO"],"lien_oblyk":"https://oblyk.org/crags/868/la-cascade-de-lafare","lien_camptocamp":null,"source_id":"grimpe-dentelles3-2023","topo_id":"grimpe-dentelles3-2023","topo_page":"112","hauteur_max_voie_m":41,"parking_associe":["parking Cascade de Lafare","parking rocher St Christophe"],"approche_min":[5,5],"approche_metre":[null,null],"nb_voie_total":20,"nb_voie_sportive":20,"nb_voie_trad":0,"nb_voie_artificielle":0,"nb_voie_moulinette":0,"categorie":"falaise","nb_couenne":11,"nb_gv":9,"cotations":{"4a":1,"4b":1,"4c+":1,"5a":1,"5b":1,"5c":1,"6a":2,"6a+":2,"6c":1,"7a+":1,"7c/7c+":1,"8a":1,"8a+":2,"8a/8a+":2,"8c":1,"?":1},"routes":"cascade-de-lafare","routes_falaise":180},"geometry":{"type":"Point","coordinates":[5.047459,44.156156]}},{"type":"Feature","properties":{"nom":"Clapis Sud","site":"Clapis","secteur":"Bleu pétrole","type_roche":"calcaire","orientation":["S"],"lien_oblyk":"https://oblyk.org/crags/255/chaine-du-clapis","lien_camptocamp":"https://www.camptocamp.org/waypoints/43247/fr/dentelles-de-montmirail-chaine-du-clapis","source_id":"grimpe-dentelles3-2023","topo_id":"grimpe-dentelles3-2023","topo_page":"80","hauteur_max_voie_m":40,"parking_associe":["parking chaîne de Clapis"],"approche_min":[25],"approche_metre":[null],"nb_voie_total":19,"nb_voie_sportive":19,"nb_voie_trad":0,"nb_voie_artificielle":0,"nb_voie_moulinette":0,"categorie":"falaise","nb_couenne":3,"nb_gv":16,"cotations":{"5a":1,"5b+":1,"5c":1,"6b+":3,"6c":2,"6c+":4,"7a":6,"7a+/7b":1},"routes":"clapis","routes_falaise":181},"geometry":{"type":"Point","coordinates":[5.036194,44.151001]}},{"type":"Feature","properties":{"nom":"Clapis Sud","site":"Clapis","secteur":"Blocus","type_roche":"calcaire","orientation":["S"],"lien_oblyk":"https://oblyk.org/crags/255/chaine-du-clapis","lien_camptocamp":"https://www.camptocamp.org/waypoints/43247/fr/dentelles-de-montmirail-chaine-du-clapis","source_id":"grimpe-dentelles3-2023","topo_id":"grimpe-dentelles3-2023","topo_page":"94","hauteur_max_voie_m":95,"parking_associe":["parking chaîne de Clapis"],"approche_min":[30],"approche_metre":[null],"nb_voie_total":8,"nb_voie_sportive":8,"nb_voie_trad":0,"nb_voie_artificielle":0,"nb_voie_moulinette":0,"categorie":"falaise","nb_couenne":3,"nb_gv":5,"cotations":{"5c":2,"5c+":1,"6a":1,"6a+":1,"6b":1,"6c":1,"6c+":1},"routes":"clapis","routes_falaise":182},"geometry":{"type":"Point","coordinates":[5.04416,44.153882]}},{"type":"Feature","properties":{"nom":"Clapis Sud","site":"Clapis","secteur":"Gillou","type_roche":"calcaire","orientation":["S"],"lien_oblyk":"https://oblyk.org/crags/255/chaine-du-clapis","lien_camptocamp":"https://www.camptocamp.org/waypoints/43247/fr/dentelles-de-montmirail-chaine-du-clapis","source_id":"grimpe-dentelles3-2023","topo_id":"grimpe-dentelles3-2023","topo_page":"88","hauteur_max_voie_m":40,"parking_associe":["parking chaîne de Clapis"],"approche_min":[30],"approche_metre":[null],"nb_voie_total":25,"nb_voie_sportive":24,"nb_voie_trad":0,"nb_voie_artificielle":1,"nb_voie_moulinette":0,"categorie":"falaise","nb_couenne":20,"nb_gv":4,"cotations":{"7a+":2,"7b":2,"7b+":5,"7c":2,"7c+":4,"8a":2,"8a+":3,"8b":1,"8b+":2},"routes":"clapis","routes_falaise":183},"geometry":{"type":"Point","coordinates":[5.042384,44.153093]}},{"type":"Feature","properties":{"nom":"Clapis Sud","site":"Clapis","secteur":"Hadamard est","type_roche":"calcaire","orientation":["SE"],"lien_oblyk":"https://oblyk.org/crags/255/chaine-du-clapis","lien_camptocamp":"https://www.camptocamp.org/waypoints/43247/fr/dentelles-de-montmirail-chaine-du-clapis","source_id":"grimpe-dentelles3-2023","topo_id":"grimpe-dentelles3-2023","topo_page":"72","hauteur_max_voie_m":50,"parking_associe":["parking chaîne de Clapis"],"approche_min":[15],"approche_metre":[null],"nb_voie_total":13,"nb_voie_sportive":13,"nb_voie_trad":0,"nb_voie_artificielle":0,"nb_voie_moulinette":0,"categorie":"falaise","nb_couenne":5,"nb_gv":8,"cotations":{"5c":3,"6a":3,"6a+":3,"6b":2,"6b+":1,"7a":1},"routes":"clapis","routes_falaise":184},"geometry":{"type":"Point","coordinates":[5.03255,44.150681]}},{"type":"Feature","properties":{"nom":"Clapis Sud","site":"Clapis","secteur":"Hadamard ouest","type_roche":"calcaire","orientation":["S"],"lien_oblyk":"https://oblyk.org/crags/255/chaine-du-clapis","lien_camptocamp":"https://www.camptocamp.org/waypoints/43247/fr/dentelles-de-montmirail-chaine-du-clapis","source_id":"grimpe-dentelles3-2023","topo_id":"grimpe-dentelles3-2023","topo_page":"70","hauteur_max_voie_m":60,"parking_associe":["parking chaîne de Clapis"],"approche_min":[15],"approche_metre":[null],"nb_voie_total":24,"nb_voie_sportive":24,"nb_voie_trad":0,"nb_voie_artificielle":0,"nb_voie_moulinette":0,"categorie":"falaise","nb_couenne":10,"nb_gv":14,"cotations":{"5a+":1,"5c":2,"5c+":1,"6a":5,"6a+":2,"6b":6,"6b+":2,"6c":2,"7a":2,"7a+":1},"routes":"clapis","routes_falaise":185},"geometry":{"type":"Point","coordinates":[5.032003,44.15053]}},{"type":"Feature","properties":{"nom":"Clapis Sud","site":"Clapis","secteur":"L'enfer des roudoudous","type_roche":"calcaire","orientation":["S"],"lien_oblyk":"https://oblyk.org/crags/255/chaine-du-clapis","lien_camptocamp":"https://www.camptocamp.org/waypoints/43247/fr/dentelles-de-montmirail-chaine-du-clapis","source_id":"grimpe-dentelles3-2023","topo_id":"grimpe-dentelles3-2023","topo_page":"76","hauteur_max_voie_m":40,"parking_associe":["parking chaîne de Clapis"],"approche_min":[15],"approche_metre":[null],"nb_voie_total":25,"nb_voie_sportive":24,"nb_voie_trad":0,"nb_voie_artificielle":1,"nb_voie_moulinette":0,"categorie":"falaise","nb_couenne":19,"nb_gv":5,"cotations":{"5c+":2,"6a":1,"6b":2,"6b+":2,"6c":5,"6c+":5,"7a":3,"7a+":2,"7b":1},"routes":"clapis","routes_falaise":186},"geometry":{"type":"Point","coordinates":[5.033879,44.150683]}},{"type":"Feature","properties":{"nom":"Clapis Sud","site":"Clapis","secteur":"Lune de miel","type_roche":"calcaire","orientation":["S"],"lien_oblyk":"https://oblyk.org/crags/255/chaine-du-clapis","lien_camptocamp":"https://www.camptocamp.org/waypoints/43247/fr/dentelles-de-montmirail-chaine-du-clapis","source_id":"grimpe-dentelles3-2023","topo_id":"grimpe-dentelles3-2023","topo_page":"90","hauteur_max_voie_m":70,"parking_associe":["parking chaîne de Clapis"],"approche_min":[30],"approche_metre":[null],"nb_voie_total":24,"nb_voie_sportive":24,"nb_voie_trad":0,"nb_voie_artificielle":0,"nb_voie_moulinette":0,"categorie":"falaise","nb_couenne":14,"nb_gv":10,"cotations":{"6a+":1,"6b+":3,"6c":8,"6c+":3,"7a":1,"7a+":3,"7b":2,"7b+":2,"8a+":1},"routes":"clapis","routes_falaise":187},"geometry":{"type":"Point","coordinates":[5.043041,44.153361]}},{"type":"Feature","properties":{"nom":"Clapis Sud","site":"Clapis","secteur":"Mandragore","type_roche":"calcaire","orientation":["S"],"lien_oblyk":"https://oblyk.org/crags/255/chaine-du-clapis","lien_camptocamp":"https://www.camptocamp.org/waypoints/43247/fr/dentelles-de-montmirail-chaine-du-clapis","source_id":"grimpe-dentelles3-2023","topo_id":"grimpe-dentelles3-2023","topo_page":"92","hauteur_max_voie_m":80,"parking_associe":["parking chaîne de Clapis"],"approche_min":[30],"approche_metre":[null],"nb_voie_total":17,"nb_voie_sportive":17,"nb_voie_trad":0,"nb_voie_artificielle":0,"nb_voie_moulinette":0,"categorie":"falaise","nb_couenne":4,"nb_gv":13,"cotations":{"5c":2,"5c+":1,"6a":2,"6a+":2,"6b":2,"6b+":1,"6c":2,"6c+":5},"routes":"clapis","routes_falaise":188},"geometry":{"type":"Point","coordinates":[5.043643,44.153585]}},{"type":"Feature","properties":{"nom":"Clapis Sud","site":"Clapis","secteur":"Maryline","type_roche":"calcaire","orientation":["O","S"],"lien_oblyk":"https://oblyk.org/crags/255/chaine-du-clapis","lien_camptocamp":"https://www.camptocamp.org/waypoints/43247/fr/dentelles-de-montmirail-chaine-du-clapis","source_id":"grimpe-dentelles3-2023","topo_id":"grimpe-dentelles3-2023","topo_page":"74","hauteur_max_voie_m":50,"parking_associe":["parking chaîne de Clapis"],"approche_min":[15],"approche_metre":[null],"nb_voie_total":11,"nb_voie_sportive":11,"nb_voie_trad":0,"nb_voie_artificielle":0,"nb_voie_moulinette":0,"categorie":"falaise","nb_couenne":10,"nb_gv":1,"cotations":{"4c":1,"5a":2,"5b":2,"5c+":2,"6a":1,"6a+":1,"6c+":1,"7a":1},"routes":"clapis","routes_falaise":189},"geometry":{"type":"Point","coordinates":[5.032992,44.150792]}},{"type":"Feature","properties":{"nom":"Clapis Sud","site":"Clapis","secteur":"Nébuleuse","type_roche":"calcaire","orientation":["S"],"lien_oblyk":"https://oblyk.org/crags/255/chaine-du-clapis","lien_camptocamp":"https://www.camptocamp.org/waypoints/43247/fr/dentelles-de-montmirail-chaine-du-clapis","source_id":"grimpe-dentelles3-2023","topo_id":"grimpe-dentelles3-2023","topo_page":"84","hauteur_max_voie_m":35,"parking_associe":["parking chaîne de Clapis"],"approche_min":[25],"approche_metre":[null],"nb_voie_total":24,"nb_voie_sportive":24,"nb_voie_trad":0,"nb_voie_artificielle":0,"nb_voie_moulinette":0,"categorie":"falaise","nb_couenne":23,"nb_gv":1,"cotations":{"6a+":2,"6b+":3,"6b/6b+":1,"6b/c":1,"6c":2,"6c+":2,"7a":8,"7a+":2,"7a/7a+":3},"routes":"clapis","routes_falaise":190},"geometry":{"type":"Point","coordinates":[5.038397,44.151871]}},{"type":"Feature","properties":{"nom":"Clapis Sud","site":"Clapis","secteur":"Petit vérin","type_roche":"calcaire","orientation":["S"],"lien_oblyk":"https://oblyk.org/crags/255/chaine-du-clapis","lien_camptocamp":"https://www.camptocamp.org/waypoints/43247/fr/dentelles-de-montmirail-chaine-du-clapis","source_id":"grimpe-dentelles3-2023","topo_id":"grimpe-dentelles3-2023","topo_page":"86","hauteur_max_voie_m":40,"parking_associe":["parking chaîne de Clapis"],"approche_min":[25],"approche_metre":[null],"nb_voie_total":24,"nb_voie_sportive":24,"nb_voie_trad":0,"nb_voie_artificielle":0,"nb_voie_moulinette":0,"categorie":"falaise","nb_couenne":22,"nb_gv":2,"cotations":{"6c+":2,"7a":1,"7a+":1,"7b":5,"7b+":1,"7b+/7c":2,"7c":2,"7c+":1,"7c+/8a":1,"8a":2,"8a/8a+":1,"8b":1,"8b+":3,"?":1},"routes":"clapis","routes_falaise":191},"geometry":{"type":"Point","coordinates":[5.039714,44.152383]}},{"type":"Feature","properties":{"nom":"Clapis Sud","site":"Clapis","secteur":"Piste cyclable","type_roche":"calcaire","orientation":["S"],"lien_oblyk":"https://oblyk.org/crags/255/chaine-du-clapis","lien_camptocamp":"https://www.camptocamp.org/waypoints/43247/fr/dentelles-de-montmirail-chaine-du-clapis","source_id":"grimpe-dentelles3-2023","topo_id":"grimpe-dentelles3-2023","topo_page":"100","hauteur_max_voie_m":40,"parking_associe":["parking chaîne de Clapis"],"approche_min":[35],"approche_metre":[null],"nb_voie_total":6,"nb_voie_sportive":6,"nb_voie_trad":0,"nb_voie_artificielle":0,"nb_voie_moulinette":0,"categorie":"falaise","nb_couenne":5,"nb_gv":1,"cotations":{"6a":1,"6c":1,"7a":3,"7a+":1},"routes":"clapis","routes_falaise":192},"geometry":{"type":"Point","coordinates":[5.047092,44.155142]}},{"type":"Feature","properties":{"nom":"Clapis Sud","site":"Clapis","secteur":"Santémerga","type_roche":"calcaire","orientation":["S"],"lien_oblyk":"https://oblyk.org/crags/255/chaine-du-clapis","lien_camptocamp":"https://www.camptocamp.org/waypoints/43247/fr/dentelles-de-montmirail-chaine-du-clapis","source_id":"grimpe-dentelles3-2023","topo_id":"grimpe-dentelles3-2023","topo_page":"98","hauteur_max_voie_m":null,"parking_associe":["parking chaîne de Clapis"],"approche_min":[35],"approche_metre":[null],"nb_voie_total":14,"nb_voie_sportive":10,"nb_voie_trad":0,"nb_voie_artificielle":4,"nb_voie_moulinette":0,"categorie":"falaise","nb_couenne":2,"nb_gv":8,"cotations":{"6a+":2,"6b+":1,"7a":2,"7a+":1,"7b":3,"7b+":1},"routes":"clapis","routes_falaise":193},"geometry":{"type":"Point","coordinates":[5.046277,44.154741]}},{"type":"Feature","properties":{"nom":"Clapis Sud","site":"Clapis","secteur":"Vires rouges","type_roche":"calcaire","orientation":["S"],"lien_oblyk":"https://oblyk.org/crags/255/chaine-du-clapis","lien_camptocamp":"https://www.camptocamp.org/waypoints/43247/fr/dentelles-de-montmirail-chaine-du-clapis","source_id":"grimpe-dentelles3-2023","topo_id":"grimpe-dentelles3-2023","topo_page":"78","hauteur_max_voie_m":50,"parking_associe":["parking chaîne de Clapis"],"approche_min":[25],"approche_metre":[null],"nb_voie_total":16,"nb_voie_sportive":16,"nb_voie_trad":0,"nb_voie_artificielle":0,"nb_voie_moulinette":0,"categorie":"falaise","nb_couenne":7,"nb_gv":9,"cotations":{"5c":1,"6a+/6b":1,"6b":2,"6b+":3,"6b/c":1,"6c":2,"6c+":1,"7a":1,"7a+":4},"routes":"clapis","routes_falaise":194},"geometry":{"type":"Point","coordinates":[5.035584,44.150931]}},{"type":"Feature","properties":{"nom":"Clapis Sud","site":"Clapis","secteur":"Vistemboir","type_roche":"calcaire","orientation":["S"],"lien_oblyk":"https://oblyk.org/crags/255/chaine-du-clapis","lien_camptocamp":"https://www.camptocamp.org/waypoints/43247/fr/dentelles-de-montmirail-chaine-du-clapis","source_id":"grimpe-dentelles3-2023","topo_id":"grimpe-dentelles3-2023","topo_page":"82","hauteur_max_voie_m":110,"parking_associe":["parking chaîne de Clapis"],"approche_min":[25],"approche_metre":[null],"nb_voie_total":23,"nb_voie_sportive":21,"nb_voie_trad":2,"nb_voie_artificielle":0,"nb_voie_moulinette":0,"categorie":"falaise","nb_couenne":11,"nb_gv":10,"cotations":{"5c":1,"5c+":2,"6a":1,"6a+":3,"6b":4,"6b+":5,"6c+":1,"7a":2,"7a+":1,"7b":1},"routes":"clapis","routes_falaise":195},"geometry":{"type":"Point","coordinates":[5.0372,44.151231]}},{"type":"Feature","properties":{"nom":"Clapis Sud","site":"Clapis","secteur":"Zone piétonne","type_roche":"calcaire","orientation":["S"],"lien_oblyk":"https://oblyk.org/crags/255/chaine-du-clapis","lien_camptocamp":"https://www.camptocamp.org/waypoints/43247/fr/dentelles-de-montmirail-chaine-du-clapis","source_id":"grimpe-dentelles3-2023","topo_id":"grimpe-dentelles3-2023","topo_page":"96","hauteur_max_voie_m":null,"parking_associe":["parking chaîne de Clapis"],"approche_min":[35],"approche_metre":[null],"nb_voie_total":3,"nb_voie_sportive":2,"nb_voie_trad":0,"nb_voie_artificielle":1,"nb_voie_moulinette":0,"categorie":"falaise","nb_couenne":0,"nb_gv":2,"cotations":{"6b":1,"6c+":1},"routes":"clapis","routes_falaise":196},"geometry":{"type":"Point","coordinates":[5.045703,44.154431]}},{"type":"Feature","properties":{"nom":"Clapis Nord","site":"Clapis","secteur":"Brèche de la salle à manger","type_roche":"calcaire","orientation":["N"],"lien_oblyk":"https://oblyk.org/crags/255/chaine-du-clapis","lien_camptocamp":"https://www.camptocamp.org/waypoints/43247/fr/dentelles-de-montmirail-chaine-du-clapis","source_id":"grimpe-dentelles3-2023","topo_id":"grimpe-dentelles3-2023","topo_page":"64","hauteur_max_voie_m":35,"parking_associe":["parking chaîne de Clapis"],"approche_min":[20],"approche_metre":[null],"nb_voie_total":8,"nb_voie_sportive":8,"nb_voie_trad":0,"nb_voie_artificielle":0,"nb_voie_moulinette":0,"categorie":"falaise","nb_couenne":8,"nb_gv":0,"cotations":{"4b":1,"5b+":1,"5c":2,"6b+":1,"6c":1,"6c+":1,"7a+":1},"routes":"clapis","routes_falaise":197},"geometry":{"type":"Point","coordinates":[5.032999,44.150868]}},{"type":"Feature","properties":{"nom":"Clapis Nord","site":"Clapis","secteur":"Hadamard nord","type_roche":"calcaire","orientation":["N"],"lien_oblyk":"https://oblyk.org/crags/255/chaine-du-clapis","lien_camptocamp":"https://www.camptocamp.org/waypoints/43247/fr/dentelles-de-montmirail-chaine-du-clapis","source_id":"grimpe-dentelles3-2023","topo_id":"grimpe-dentelles3-2023","topo_page":"66","hauteur_max_voie_m":35,"parking_associe":["parking chaîne de Clapis"],"approche_min":[20],"approche_metre":[null],"nb_voie_total":6,"nb_voie_sportive":6,"nb_voie_trad":0,"nb_voie_artificielle":0,"nb_voie_moulinette":0,"categorie":"falaise","nb_couenne":5,"nb_gv":1,"cotations":{"4b":1,"5c+":1,"6a":1,"6a+":1,"6b":1,"6c":1},"routes":"clapis","routes_falaise":198},"geometry":{"type":"Point","coordinates":[5.032402,44.150861]}},{"type":"Feature","properties":{"nom":"Gigondas Nord","site":"Gigondas","secteur":"Aiguillette lagarde","type_roche":"calcaire","orientation":["N"],"lien_oblyk":"https://oblyk.org/crags/263/chaine-de-gigondas","lien_camptocamp":"https://www.camptocamp.org/waypoints/43128/fr/dentelles-de-montmirail-chaine-de-gigondas","source_id":"grimpe-dentelles3-2023","topo_id":"grimpe-dentelles3-2023","topo_page":"32","hauteur_max_voie_m":55,"parking_associe":["parking les Florets"],"approche_min":[25],"approche_metre":[null],"nb_voie_total":15,"nb_voie_sportive":14,"nb_voie_trad":1,"nb_voie_artificielle":0,"nb_voie_moulinette":0,"categorie":"falaise","nb_couenne":12,"nb_gv":2,"cotations":{"5b":1,"5c":1,"5c+":3,"6a":1,"6a+":1,"6b":1,"6b+":3,"6c":3},"routes":"gigondas","routes_falaise":199},"geometry":{"type":"Point","coordinates":[5.027118,44.156068]}},{"type":"Feature","properties":{"nom":"Gigondas Nord","site":"Gigondas","secteur":"Arête lagarde","type_roche":"calcaire","orientation":["N"],"lien_oblyk":"https://oblyk.org/crags/263/chaine-de-gigondas","lien_camptocamp":"https://www.camptocamp.org/waypoints/43128/fr/dentelles-de-montmirail-chaine-de-gigondas","source_id":"grimpe-dentelles3-2023","topo_id":"grimpe-dentelles3-2023","topo_page":"30","hauteur_max_voie_m":65,"parking_associe":["parking les Florets"],"approche_min":[25],"approche_metre":[null],"nb_voie_total":16,"nb_voie_sportive":16,"nb_voie_trad":0,"nb_voie_artificielle":0,"nb_voie_moulinette":0,"categorie":"falaise","nb_couenne":11,"nb_gv":5,"cotations":{"4c":1,"5b":5,"5b+":3,"5c":3,"6a":1,"6a/b":1,"6b":1,"6b+":1},"routes":"gigondas","routes_falaise":200},"geometry":{"type":"Point","coordinates":[5.027188,44.156114]}},{"type":"Feature","properties":{"nom":"Gigondas Nord","site":"Gigondas","secteur":"Dièdre de Provence","type_roche":"calcaire","orientation":["N"],"lien_oblyk":"https://oblyk.org/crags/263/chaine-de-gigondas","lien_camptocamp":"https://www.camptocamp.org/waypoints/43128/fr/dentelles-de-montmirail-chaine-de-gigondas","source_id":"grimpe-dentelles3-2023","topo_id":"grimpe-dentelles3-2023","topo_page":"26","hauteur_max_voie_m":80,"parking_associe":["parking les Florets"],"approche_min":[25],"approche_metre":[null],"nb_voie_total":15,"nb_voie_sportive":14,"nb_voie_trad":1,"nb_voie_artificielle":0,"nb_voie_moulinette":0,"categorie":"falaise","nb_couenne":8,"nb_gv":6,"cotations":{"5b":1,"5b+":1,"5c":1,"6a":2,"6a+":3,"6b":2,"6b+":1,"7a":1,"7b+":1,"7c+":1},"routes":"gigondas","routes_falaise":201},"geometry":{"type":"Point","coordinates":[5.029813,44.156429]}},{"type":"Feature","properties":{"nom":"Gigondas Nord","site":"Gigondas","secteur":"Dièdre des parisiens","type_roche":"calcaire","orientation":["N"],"lien_oblyk":"https://oblyk.org/crags/263/chaine-de-gigondas","lien_camptocamp":"https://www.camptocamp.org/waypoints/43128/fr/dentelles-de-montmirail-chaine-de-gigondas","source_id":"grimpe-dentelles3-2023","topo_id":"grimpe-dentelles3-2023","topo_page":"36","hauteur_max_voie_m":70,"parking_associe":["parking les Florets"],"approche_min":[25],"approche_metre":[null],"nb_voie_total":12,"nb_voie_sportive":12,"nb_voie_trad":0,"nb_voie_artificielle":0,"nb_voie_moulinette":0,"categorie":"falaise","nb_couenne":10,"nb_gv":2,"cotations":{"5c":1,"6b":1,"6c":2,"6c+":1,"7a":1,"7a+":1,"7b":1,"7b+":2,"7c":2},"routes":"gigondas","routes_falaise":202},"geometry":{"type":"Point","coordinates":[5.026065,44.155866]}},{"type":"Feature","properties":{"nom":"Gigondas Nord","site":"Gigondas","secteur":"Fissure en S","type_roche":"calcaire","orientation":["N"],"lien_oblyk":"https://oblyk.org/crags/263/chaine-de-gigondas","lien_camptocamp":"https://www.camptocamp.org/waypoints/43128/fr/dentelles-de-montmirail-chaine-de-gigondas","source_id":"grimpe-dentelles3-2023","topo_id":"grimpe-dentelles3-2023","topo_page":"42","hauteur_max_voie_m":60,"parking_associe":["parking les Florets"],"approche_min":[25],"approche_metre":[null],"nb_voie_total":25,"nb_voie_sportive":24,"nb_voie_trad":1,"nb_voie_artificielle":0,"nb_voie_moulinette":0,"categorie":"falaise","nb_couenne":22,"nb_gv":2,"cotations":{"5b+":1,"6a+":1,"6c+":1,"7a":2,"7b+":2,"7c":3,"7c+":1,"7c+/8a":1,"8a":3,"8a+":5,"8b":1,"8b+":2,"8c+":1},"routes":"gigondas","routes_falaise":203},"geometry":{"type":"Point","coordinates":[5.024285,44.155548]}},{"type":"Feature","properties":{"nom":"Gigondas Nord","site":"Gigondas","secteur":"Les florets","type_roche":"calcaire","orientation":["N"],"lien_oblyk":"https://oblyk.org/crags/263/chaine-de-gigondas","lien_camptocamp":"https://www.camptocamp.org/waypoints/43128/fr/dentelles-de-montmirail-chaine-de-gigondas","source_id":"grimpe-dentelles3-2023","topo_id":"grimpe-dentelles3-2023","topo_page":"44","hauteur_max_voie_m":65,"parking_associe":["parking les Florets"],"approche_min":[30],"approche_metre":[null],"nb_voie_total":12,"nb_voie_sportive":11,"nb_voie_trad":0,"nb_voie_artificielle":1,"nb_voie_moulinette":0,"categorie":"falaise","nb_couenne":5,"nb_gv":6,"cotations":{"4b":1,"4c":1,"5b":2,"5c":2,"6a+":1,"6b":1,"6c":2,"7a/7a+":1},"routes":"gigondas","routes_falaise":204},"geometry":{"type":"Point","coordinates":[5.021894,44.155232]}},{"type":"Feature","properties":{"nom":"Gigondas Nord","site":"Gigondas","secteur":"Martinetti","type_roche":"calcaire","orientation":["N"],"lien_oblyk":"https://oblyk.org/crags/263/chaine-de-gigondas","lien_camptocamp":"https://www.camptocamp.org/waypoints/43128/fr/dentelles-de-montmirail-chaine-de-gigondas","source_id":"grimpe-dentelles3-2023","topo_id":"grimpe-dentelles3-2023","topo_page":"28","hauteur_max_voie_m":60,"parking_associe":["parking les Florets"],"approche_min":[25],"approche_metre":[null],"nb_voie_total":20,"nb_voie_sportive":20,"nb_voie_trad":0,"nb_voie_artificielle":0,"nb_voie_moulinette":0,"categorie":"falaise","nb_couenne":10,"nb_gv":10,"cotations":{"5c":1,"5c+":2,"6a":2,"6a+":1,"6b":2,"6b+":4,"6c+":2,"7a":3,"7a+":1,"7c":2},"routes":"gigondas","routes_falaise":205},"geometry":{"type":"Point","coordinates":[5.02824,44.156024]}},{"type":"Feature","properties":{"nom":"Gigondas Nord","site":"Gigondas","secteur":"Mur du solitaire","type_roche":"calcaire","orientation":["N"],"lien_oblyk":"https://oblyk.org/crags/263/chaine-de-gigondas","lien_camptocamp":"https://www.camptocamp.org/waypoints/43128/fr/dentelles-de-montmirail-chaine-de-gigondas","source_id":"grimpe-dentelles3-2023","topo_id":"grimpe-dentelles3-2023","topo_page":"24","hauteur_max_voie_m":70,"parking_associe":["parking les Florets"],"approche_min":[35],"approche_metre":[null],"nb_voie_total":11,"nb_voie_sportive":4,"nb_voie_trad":4,"nb_voie_artificielle":3,"nb_voie_moulinette":0,"categorie":"falaise","nb_couenne":3,"nb_gv":1,"cotations":{"5b":1,"6b":3},"routes":"gigondas","routes_falaise":206},"geometry":{"type":"Point","coordinates":[5.036371,44.159271]}},{"type":"Feature","properties":{"nom":"Gigondas Nord","site":"Gigondas","secteur":"Petits moutons","type_roche":"calcaire","orientation":["N"],"lien_oblyk":"https://oblyk.org/crags/263/chaine-de-gigondas","lien_camptocamp":"https://www.camptocamp.org/waypoints/43128/fr/dentelles-de-montmirail-chaine-de-gigondas","source_id":"grimpe-dentelles3-2023","topo_id":"grimpe-dentelles3-2023","topo_page":"38","hauteur_max_voie_m":40,"parking_associe":["parking les Florets"],"approche_min":[25],"approche_metre":[null],"nb_voie_total":18,"nb_voie_sportive":18,"nb_voie_trad":0,"nb_voie_artificielle":0,"nb_voie_moulinette":0,"categorie":"falaise","nb_couenne":14,"nb_gv":4,"cotations":{"6a":1,"6c":3,"6c+":2,"7a":4,"7a+":1,"7a/7a+":1,"7b":1,"7b+":1,"7b+/7c":1,"7b/7b+":1,"7c":1},"routes":"gigondas","routes_falaise":207},"geometry":{"type":"Point","coordinates":[5.025589,44.155706]}},{"type":"Feature","properties":{"nom":"Gigondas Nord","site":"Gigondas","secteur":"Trois plaques","type_roche":"calcaire","orientation":["N"],"lien_oblyk":"https://oblyk.org/crags/263/chaine-de-gigondas","lien_camptocamp":"https://www.camptocamp.org/waypoints/43128/fr/dentelles-de-montmirail-chaine-de-gigondas","source_id":"grimpe-dentelles3-2023","topo_id":"grimpe-dentelles3-2023","topo_page":"34","hauteur_max_voie_m":85,"parking_associe":["parking les Florets"],"approche_min":[25],"approche_metre":[null],"nb_voie_total":21,"nb_voie_sportive":21,"nb_voie_trad":0,"nb_voie_artificielle":0,"nb_voie_moulinette":0,"categorie":"falaise","nb_couenne":10,"nb_gv":11,"cotations":{"5b":1,"5c":1,"5c+":2,"6a":1,"6b":1,"6b+":4,"6c":2,"6c+":2,"6c+/7a":1,"7a":2,"7a+":4},"routes":"gigondas","routes_falaise":208},"geometry":{"type":"Point","coordinates":[5.02635,44.156073]}},{"type":"Feature","properties":{"nom":"Gigondas Nord","site":"Gigondas","secteur":"Voie du trou","type_roche":"calcaire","orientation":["N"],"lien_oblyk":"https://oblyk.org/crags/263/chaine-de-gigondas","lien_camptocamp":"https://www.camptocamp.org/waypoints/43128/fr/dentelles-de-montmirail-chaine-de-gigondas","source_id":"grimpe-dentelles3-2023","topo_id":"grimpe-dentelles3-2023","topo_page":"40","hauteur_max_voie_m":90,"parking_associe":["parking les Florets"],"approche_min":[25],"approche_metre":[null],"nb_voie_total":18,"nb_voie_sportive":17,"nb_voie_trad":1,"nb_voie_artificielle":0,"nb_voie_moulinette":0,"categorie":"falaise","nb_couenne":9,"nb_gv":8,"cotations":{"5b":3,"6a":1,"6b":1,"6b+":2,"6c":1,"6c+":1,"7a+":1,"7b":3,"7b+/7c":1,"8a":1,"8a+":1,"8b+":1},"routes":"gigondas","routes_falaise":209},"geometry":{"type":"Point","coordinates":[5.024955,44.155711]}},{"type":"Feature","properties":{"nom":"Gigondas Sud","site":"Gigondas","secteur":"Brèche de la pousterle","type_roche":"calcaire","orientation":["S"],"lien_oblyk":"https://oblyk.org/crags/263/chaine-de-gigondas","lien_camptocamp":"https://www.camptocamp.org/waypoints/43128/fr/dentelles-de-montmirail-chaine-de-gigondas","source_id":"grimpe-dentelles3-2023","topo_id":"grimpe-dentelles3-2023","topo_page":"52","hauteur_max_voie_m":35,"parking_associe":["parking les Florets"],"approche_min":[25],"approche_metre":[null],"nb_voie_total":16,"nb_voie_sportive":16,"nb_voie_trad":0,"nb_voie_artificielle":0,"nb_voie_moulinette":0,"categorie":"falaise","nb_couenne":16,"nb_gv":0,"cotations":{"4b":1,"5b+":1,"5c":2,"5c+":1,"6a":3,"6a+":1,"6b":2,"6c":3,"6c+":1,"7a":1},"routes":"gigondas","routes_falaise":210},"geometry":{"type":"Point","coordinates":[5.028031,44.155886]}},{"type":"Feature","properties":{"nom":"Gigondas Sud","site":"Gigondas","secteur":"Pieds nickelés","type_roche":"calcaire","orientation":["S"],"lien_oblyk":"https://oblyk.org/crags/263/chaine-de-gigondas","lien_camptocamp":"https://www.camptocamp.org/waypoints/43128/fr/dentelles-de-montmirail-chaine-de-gigondas","source_id":"grimpe-dentelles3-2023","topo_id":"grimpe-dentelles3-2023","topo_page":"54","hauteur_max_voie_m":35,"parking_associe":["parking les Florets"],"approche_min":[25],"approche_metre":[null],"nb_voie_total":16,"nb_voie_sportive":16,"nb_voie_trad":0,"nb_voie_artificielle":0,"nb_voie_moulinette":0,"categorie":"falaise","nb_couenne":16,"nb_gv":0,"cotations":{"4b":3,"4c+":1,"5a":1,"5b":2,"5b+":3,"5c":2,"5c+":1,"6a+":2,"6b+":1},"routes":"gigondas","routes_falaise":211},"geometry":{"type":"Point","coordinates":[5.028871,44.155957]}},{"type":"Feature","properties":{"nom":"Gigondas Sud","site":"Gigondas","secteur":"Vague d'étrave","type_roche":"calcaire","orientation":["S"],"lien_oblyk":"https://oblyk.org/crags/263/chaine-de-gigondas","lien_camptocamp":"https://www.camptocamp.org/waypoints/43128/fr/dentelles-de-montmirail-chaine-de-gigondas","source_id":"grimpe-dentelles3-2023","topo_id":"grimpe-dentelles3-2023","topo_page":"50","hauteur_max_voie_m":35,"parking_associe":["parking les Florets"],"approche_min":[35],"approche_metre":[null],"nb_voie_total":14,"nb_voie_sportive":14,"nb_voie_trad":0,"nb_voie_artificielle":0,"nb_voie_moulinette":0,"categorie":"falaise","nb_couenne":14,"nb_gv":0,"cotations":{"5b":1,"5b+":3,"5c+":3,"6a":2,"6b":3,"6c":1,"7a+":1},"routes":"gigondas","routes_falaise":212},"geometry":{"type":"Point","coordinates":[5.020054,44.154498]}},{"type":"Feature","properties":{"nom":"Gigondas Sud","site":"Gigondas","secteur":"Vaisonnaise","type_roche":"calcaire","orientation":["S"],"lien_oblyk":"https://oblyk.org/crags/263/chaine-de-gigondas","lien_camptocamp":"https://www.camptocamp.org/waypoints/43128/fr/dentelles-de-montmirail-chaine-de-gigondas","source_id":"grimpe-dentelles3-2023","topo_id":"grimpe-dentelles3-2023","topo_page":"56","hauteur_max_voie_m":35,"parking_associe":["parking les Florets"],"approche_min":[25],"approche_metre":[null],"nb_voie_total":11,"nb_voie_sportive":11,"nb_voie_trad":0,"nb_voie_artificielle":0,"nb_voie_moulinette":0,"categorie":"falaise","nb_couenne":11,"nb_gv":0,"cotations":{"5b":1,"5b+":4,"5c":3,"5c+":1,"6a+":2},"routes":"gigondas","routes_falaise":213},"geometry":{"type":"Point","coordinates":[5.029428,44.1561]}},{"type":"Feature","properties":{"nom":"Gigondas Sud","site":"Gigondas","secteur":"Voie de gigondas","type_roche":"calcaire","orientation":["S"],"lien_oblyk":"https://oblyk.org/crags/263/chaine-de-gigondas","lien_camptocamp":"https://www.camptocamp.org/waypoints/43128/fr/dentelles-de-montmirail-chaine-de-gigondas","source_id":"grimpe-dentelles3-2023","topo_id":"grimpe-dentelles3-2023","topo_page":"58","hauteur_max_voie_m":35,"parking_associe":["parking les Florets"],"approche_min":[30],"approche_metre":[null],"nb_voie_total":19,"nb_voie_sportive":19,"nb_voie_trad":0,"nb_voie_artificielle":0,"nb_voie_moulinette":0,"categorie":"falaise","nb_couenne":19,"nb_gv":0,"cotations":{"5b+":2,"5c":2,"5c+":2,"6a":3,"6a+":4,"6b":1,"6b+":1,"6c":1,"6c+":1,"7a+":1,"7b":1},"routes":"gigondas","routes_falaise":214},"geometry":{"type":"Point","coordinates":[5.03222,44.157202]}},{"type":"Feature","properties":{"nom":"Grand Travers","site":"Grand Travers","secteur":"Rocher du Cayron (droit)","type_roche":"calcaire","orientation":["S"],"lien_oblyk":null,"lien_camptocamp":"https://www.camptocamp.org/waypoints/125356/fr/dentelles-de-montmirail-rocher-du-grand-travers","source_id":"grimpe-dentelles3-2023","topo_id":"grimpe-dentelles3-2023","topo_page":"16","hauteur_max_voie_m":30,"parking_associe":["parking les Florets"],"approche_min":[15],"approche_metre":[null],"nb_voie_total":9,"nb_voie_sportive":9,"nb_voie_trad":0,"nb_voie_artificielle":0,"nb_voie_moulinette":0,"categorie":"falaise","nb_couenne":9,"nb_gv":0,"cotations":{"5a":1,"5b+":2,"5c":1,"5c+":1,"6a":3,"6a+":1},"routes":"grand-travers","routes_falaise":215},"geometry":{"type":"Point","coordinates":[5.02294,44.162238]}},{"type":"Feature","properties":{"nom":"Grand Travers","site":"Grand Travers","secteur":"Rocher du Cayron (gauche)","type_roche":"calcaire","orientation":["S"],"lien_oblyk":null,"lien_camptocamp":"https://www.camptocamp.org/waypoints/125356/fr/dentelles-de-montmirail-rocher-du-grand-travers","source_id":"grimpe-dentelles3-2023","topo_id":"grimpe-dentelles3-2023","topo_page":"14","hauteur_max_voie_m":40,"parking_associe":["parking les Florets"],"approche_min":[15],"approche_metre":[null],"nb_voie_total":20,"nb_voie_sportive":20,"nb_voie_trad":0,"nb_voie_artificielle":0,"nb_voie_moulinette":0,"categorie":"falaise","nb_couenne":19,"nb_gv":1,"cotations":{"5c":1,"5c+":1,"6a":2,"6a+":3,"6b":3,"6b+":3,"6c":2,"6c+":1,"7a":3,"7a+":1},"routes":"grand-travers","routes_falaise":216},"geometry":{"type":"Point","coordinates":[5.021199,44.16174]}},{"type":"Feature","properties":{"nom":"Grand Travers","site":"Grand Travers","secteur":"Rocher école (droit)","type_roche":"calcaire","orientation":["S"],"lien_oblyk":"https://oblyk.org/crags/2441/rocher-ecole","lien_camptocamp":"https://www.camptocamp.org/waypoints/125356/fr/dentelles-de-montmirail-rocher-du-grand-travers","source_id":"grimpe-dentelles3-2023","topo_id":"grimpe-dentelles3-2023","topo_page":"20","hauteur_max_voie_m":30,"parking_associe":["parking les Florets"],"approche_min":[20],"approche_metre":[null],"nb_voie_total":24,"nb_voie_sportive":24,"nb_voie_trad":0,"nb_voie_artificielle":0,"nb_voie_moulinette":0,"categorie":"falaise","nb_couenne":24,"nb_gv":0,"cotations":{"3b":1,"3c":2,"4c":3,"4c+":1,"5a":2,"5a+":3,"5b":2,"5b+":2,"5c":1,"5c+":3,"6a":1,"6a+":1,"6b":1,"6b+":1},"routes":"grand-travers","routes_falaise":217},"geometry":{"type":"Point","coordinates":[5.02657,44.161691]}},{"type":"Feature","properties":{"nom":"Grand Travers","site":"Grand Travers","secteur":"Rocher école (gauche)","type_roche":"calcaire","orientation":["S","SE"],"lien_oblyk":"https://oblyk.org/crags/2441/rocher-ecole","lien_camptocamp":"https://www.camptocamp.org/waypoints/125356/fr/dentelles-de-montmirail-rocher-du-grand-travers","source_id":"grimpe-dentelles3-2023","topo_id":"grimpe-dentelles3-2023","topo_page":"18","hauteur_max_voie_m":30,"parking_associe":["parking les Florets"],"approche_min":[20],"approche_metre":[null],"nb_voie_total":19,"nb_voie_sportive":19,"nb_voie_trad":0,"nb_voie_artificielle":0,"nb_voie_moulinette":0,"categorie":"falaise","nb_couenne":19,"nb_gv":0,"cotations":{"3b":1,"4b":1,"4c":3,"5b":8,"5b+":2,"5c":4},"routes":"grand-travers","routes_falaise":218},"geometry":{"type":"Point","coordinates":[5.02602,44.161355]}},{"type":"Feature","properties":{"nom":"Rocher de Saint Christophe","site":"Rocher de Saint Christophe","secteur":"Face nord ouest","type_roche":"calcaire","orientation":["NO"],"lien_oblyk":"https://oblyk.org/crags/2341/rocher-st-christophe","lien_camptocamp":"https://www.camptocamp.org/waypoints/209183/fr/dentelles-de-montmirail-rocher-saint-christophe","source_id":"grimpe-dentelles3-2023","topo_id":"grimpe-dentelles3-2023","topo_page":"126","hauteur_max_voie_m":40,"parking_associe":["parking rocher St Christophe"],"approche_min":[4],"approche_metre":[null],"nb_voie_total":18,"nb_voie_sportive":18,"nb_voie_trad":0,"nb_voie_artificielle":0,"nb_voie_moulinette":0,"categorie":"falaise","nb_couenne":18,"nb_gv":0,"cotations":{"4b":2,"5b":1,"6a":1,"6a+":2,"6b":2,"6c":2,"6c+":1,"7a+":2,"7b+":1,"7c+":1,"8a":1,"8a+":1},"routes":"rocher-de-saint-christophe","routes_falaise":219},"geometry":{"type":"Point","coordinates":[5.048537,44.15823]}},{"type":"Feature","properties":{"nom":"Rocher de Saint Christophe","site":"Rocher de Saint Christophe","secteur":"Face ouest","type_roche":"calcaire","orientation":["O"],"lien_oblyk":"https://oblyk.org/crags/2341/rocher-st-christophe","lien_camptocamp":"https://www.camptocamp.org/waypoints/209183/fr/dentelles-de-montmirail-rocher-saint-christophe","source_id":"grimpe-dentelles3-2023","topo_id":"grimpe-dentelles3-2023","topo_page":"128","hauteur_max_voie_m":40,"parking_associe":["parking rocher St Christophe"],"approche_min":[2],"approche_metre":[null],"nb_voie_total":21,"nb_voie_sportive":21,"nb_voie_trad":0,"nb_voie_artificielle":0,"nb_voie_moulinette":0,"categorie":"falaise","nb_couenne":17,"nb_gv":4,"cotations":{"5a":1,"5b+":1,"6a":1,"6a+":2,"6b":4,"6b+":2,"6c":3,"6c+":2,"7a":3,"7a+":1,"7b":1},"routes":"rocher-de-saint-christophe","routes_falaise":220},"geometry":{"type":"Point","coordinates":[5.047412,44.157346]}},{"type":"Feature","properties":{"nom":"Rocher de Saint Christophe","site":"Rocher de Saint Christophe","secteur":"Face sud","type_roche":"calcaire","orientation":["SE"],"lien_oblyk":"https://oblyk.org/crags/2341/rocher-st-christophe","lien_camptocamp":"https://www.camptocamp.org/waypoints/209183/fr/dentelles-de-montmirail-rocher-saint-christophe","source_id":"grimpe-dentelles3-2023","topo_id":"grimpe-dentelles3-2023","topo_page":"130","hauteur_max_voie_m":38,"parking_associe":["parking rocher St Christophe"],"approche_min":[2],"approche_metre":[null],"nb_voie_total":24,"nb_voie_sportive":24,"nb_voie_trad":0,"nb_voie_artificielle":0,"nb_voie_moulinette":0,"categorie":"falaise","nb_couenne":24,"nb_gv":0,"cotations":{"5c":1,"6a":3,"6b":1,"6b+":1,"6c":3,"6c+":1,"7a":2,"7a+":3,"7b":4,"7b+":1,"7c":1,"8b":1},"routes":"rocher-de-saint-christophe","routes_falaise":221},"geometry":{"type":"Point","coordinates":[5.048075,44.157347]}},{"type":"Feature","properties":{"nom":"Rocher de Saint Christophe","site":"Rocher de Saint Christophe","secteur":"Secteur école","type_roche":"calcaire","orientation":["N"],"lien_oblyk":"https://oblyk.org/crags/2341/rocher-st-christophe","lien_camptocamp":"https://www.camptocamp.org/waypoints/209183/fr/dentelles-de-montmirail-rocher-saint-christophe","source_id":"grimpe-dentelles3-2023","topo_id":"grimpe-dentelles3-2023","topo_page":"124","hauteur_max_voie_m":20,"parking_associe":["parking rocher St Christophe"],"approche_min":[5],"approche_metre":[null],"nb_voie_total":12,"nb_voie_sportive":12,"nb_voie_trad":0,"nb_voie_artificielle":0,"nb_voie_moulinette":0,"categorie":"falaise","nb_couenne":12,"nb_gv":0,"cotations":{"3b":2,"4a":1,"4b":1,"4c":2,"4c+":1,"5b":1,"5b+":1,"5c":1,"6a":2},"routes":"rocher-de-saint-christophe","routes_falaise":222},"geometry":{"type":"Point","coordinates":[5.04901,44.158771]}},{"type":"Feature","properties":{"nom":"parking les Florets","trajet_gite_min":null,"categorie":"parking"},"geometry":{"type":"Point","coordinates":[5.017339,44.160868]}},{"type":"Feature","properties":{"nom":"parking chaîne de Clapis","trajet_gite_min":null,"categorie":"parking"},"geometry":{"type":"Point","coordinates":[5.033772,44.147009]}},{"type":"Feature","properties":{"nom":"parking Cascade de Lafare","trajet_gite_min":null,"categorie":"parking"},"geometry":{"type":"Point","coordinates":[5.049077,44.155108]}},{"type":"Feature","properties":{"nom":"parking rocher St Christophe","trajet_gite_min":null,"categorie":"parking"},"geometry":{"type":"Point","coordinates":[5.047139,44.156522]}}]}