{"type":"FeatureCollection","name":"data","crs":{"type":"name","properties":{"name":"urn:ogc:def:crs:OGC:1.3:CRS84"}},"sources":[{"id":"crest-les-roches-2020","nom":"Le site d’escalade « Les Roches » à Crest","auteur":"CAF Crest Val de Drôme","type":"brochure_gratuite","annee":"2020","url":"https://crest.ffcam.fr/csx/scripts/downloader2.php?filename=T004/fichier/a3/f3/4u8bpctz22nf&mime=application%2Fpdf&originalname=Brochure_Les_Roches.pdf"},{"id":"escalade-drome-2020","nom":"Escalade en Drôme – Vallée de la Drôme & Diois","auteur":"CT26 FFME","type":"topo payant","annee":"2020","url":"https://www.decitre.fr/livres/escalade-en-drome-9782357711174.html"},{"id":"escalade-drome-silex-2023","nom":"Escalade en Drôme provençale ","auteur":"Club Silex","type":"topo payant","annee":"2023","url":"https://www.naturagrimpe.com/post/la-r%C3%A9%C3%A9dition-du-topo-silex-escalade-en-dr%C3%B4me-proven%C3%A7ale-enfin-disponible"},{"id":"oblyk","nom":"Communauté d’escalade Oblyk","auteur":"Oblyk","type":"site_collaboratif","annee":null,"url":"https://oblyk.org/"},{"id":"the-crag","nom":"Communauté d’escalade the Crag","auteur":"the Crag","type":"site_collaboratif","annee":null,"url":"https://www.thecrag.com/"}],"features":[{"type":"Feature","properties":{"nom":"Col des Aiguilles","site":"Col des Aiguilles","secteur":"Col des Aiguilles","type_roche":"calcaire","orientation":["SO"],"lien_oblyk":"https://oblyk.org/crags/2680/col-des-aiguilles","lien_camptocamp":null,"source_id":"escalade-drome-2020","topo_id":"escalade-drome-2020","topo_page":"224","hauteur_max_voie_m":40,"parking_associe":["parking devant épingle à cheveux"],"approche_min":[50],"approche_metre":[1300],"nb_voie_total":14,"nb_voie_sportive":14,"nb_voie_trad":0,"nb_voie_artificielle":0,"nb_voie_moulinette":0,"categorie":"falaise","nb_couenne":14,"nb_gv":0,"cotations":{"6b+":2,"6c":3,"6c+":4,"7a":1,"7a+":3,"7b":1},"routes":"col-des-aiguilles","routes_falaise":1},"geometry":{"type":"Point","coordinates":[5.622314,44.68437]}},{"type":"Feature","properties":{"nom":"Les Roches","site":"Crest","secteur":"Les Roches","type_roche":"calcaire","orientation":["E"],"lien_oblyk":"https://oblyk.org/crags/1884/les-roches","lien_camptocamp":"https://www.camptocamp.org/waypoints/102850/fr/crest-les-roches","source_id":"escalade-drome-2020","topo_id":"escalade-drome-2020","topo_page":"34","hauteur_max_voie_m":20,"parking_associe":["parking de la Tour"],"approche_min":[15],"approche_metre":[950],"nb_voie_total":44,"nb_voie_sportive":44,"nb_voie_trad":0,"nb_voie_artificielle":0,"nb_voie_moulinette":0,"categorie":"falaise","nb_couenne":44,"nb_gv":0,"cotations":{"4":5,"4-":2,"4a":4,"4c":6,"5":2,"5a":5,"5b+":1,"5c":8,"5c+":1,"6":1,"6a":4,"6a+":1,"6b+":1,"6c":2,"7a+":1},"routes":"crest","routes_falaise":2},"geometry":{"type":"Point","coordinates":[5.029573,44.738108]}},{"type":"Feature","properties":{"nom":"Dèvers à Mauk","site":"Dèvers à Mauk","secteur":"Dèvers à Mauk","type_roche":"calcaire","orientation":["O"],"lien_oblyk":"https://oblyk.org/crags/2679/devers-a-mauk","lien_camptocamp":null,"source_id":"escalade-drome-2020","topo_id":"escalade-drome-2020","topo_page":"218","hauteur_max_voie_m":25,"parking_associe":["parking Rio Sourd"],"approche_min":[15],"approche_metre":[900],"nb_voie_total":30,"nb_voie_sportive":30,"nb_voie_trad":0,"nb_voie_artificielle":0,"nb_voie_moulinette":0,"categorie":"falaise","nb_couenne":29,"nb_gv":1,"cotations":{"5b":1,"5c+":1,"6a+":2,"6b":1,"6c":3,"6c+":2,"7a":5,"7a+":3,"7b":2,"7b+":3,"7c":1,"8a":1,"8a+":3,"8b":1},"routes":"devers-a-mauk","routes_falaise":3},"geometry":{"type":"Point","coordinates":[5.571296,44.683538]}},{"type":"Feature","properties":{"nom":"Gorges de Saint-Moirans","site":"Gorges de Saint-Moirans","secteur":"Bado","type_roche":"calcaire","orientation":["S","SO"],"lien_oblyk":"https://oblyk.org/crags/2677/gorges-de-saint-moirans","lien_camptocamp":"https://www.camptocamp.org/waypoints/276521/fr/saint-moirans","source_id":"escalade-drome-2020","topo_id":"escalade-drome-2020","topo_page":"148","hauteur_max_voie_m":40,"parking_associe":["bordure de route Chastel-Arnaud","chemin communal Chastel-Arnaud","dégagement poubelles Chastel-Arnaud"],"approche_min":[5,5,10],"approche_metre":[null,null,null],"nb_voie_total":9,"nb_voie_sportive":9,"nb_voie_trad":0,"nb_voie_artificielle":0,"nb_voie_moulinette":0,"categorie":"falaise","nb_couenne":7,"nb_gv":2,"cotations":{"5b":1,"6a":1,"6a+":2,"6b+":2,"6c":1,"6c+":1,"7a+":1},"routes":"gorges-de-saint-moirans","routes_falaise":4},"geometry":{"type":"Point","coordinates":[5.206077,44.666483]}},{"type":"Feature","properties":{"nom":"Gorges de Saint-Moirans","site":"Gorges de Saint-Moirans","secteur":"Cirque","type_roche":"calcaire","orientation":["S","SO"],"lien_oblyk":"https://oblyk.org/crags/2677/gorges-de-saint-moirans","lien_camptocamp":"https://www.camptocamp.org/waypoints/276521/fr/saint-moirans","source_id":"escalade-drome-2020","topo_id":"escalade-drome-2020","topo_page":"148","hauteur_max_voie_m":35,"parking_associe":["bordure de route Chastel-Arnaud","chemin communal Chastel-Arnaud","dégagement poubelles Chastel-Arnaud"],"approche_min":[5,5,10],"approche_metre":[null,null,null],"nb_voie_total":12,"nb_voie_sportive":9,"nb_voie_trad":1,"nb_voie_artificielle":2,"nb_voie_moulinette":0,"categorie":"falaise","nb_couenne":8,"nb_gv":1,"cotations":{"6a+":2,"6b":2,"6b+":1,"6c":1,"7a":1,"7a+":1,"7b":1},"routes":"gorges-de-saint-moirans","routes_falaise":5},"geometry":{"type":"Point","coordinates":[5.206581,44.666736]}},{"type":"Feature","properties":{"nom":"Gorges de Saint-Moirans","site":"Gorges de Saint-Moirans","secteur":"Dalle de la Baume","type_roche":"calcaire","orientation":["S","E"],"lien_oblyk":"https://oblyk.org/crags/2677/gorges-de-saint-moirans","lien_camptocamp":"https://www.camptocamp.org/waypoints/276521/fr/saint-moirans","source_id":"escalade-drome-2020","topo_id":"escalade-drome-2020","topo_page":"144","hauteur_max_voie_m":40,"parking_associe":["bordure de route Chastel-Arnaud","chemin communal Chastel-Arnaud","dégagement poubelles Chastel-Arnaud"],"approche_min":[10,10,20],"approche_metre":[null,null,null],"nb_voie_total":17,"nb_voie_sportive":17,"nb_voie_trad":0,"nb_voie_artificielle":0,"nb_voie_moulinette":0,"categorie":"falaise","nb_couenne":6,"nb_gv":11,"cotations":{"4c":1,"5a+":1,"5b":1,"5c+":1,"6a":1,"6b":2,"6b+":2,"6c":2,"6c+":1,"7a":2,"7a+":1,"7b":1,"7b+":1},"routes":"gorges-de-saint-moirans","routes_falaise":6},"geometry":{"type":"Point","coordinates":[5.204404,44.666293]}},{"type":"Feature","properties":{"nom":"Gorges de Saint-Moirans","site":"Gorges de Saint-Moirans","secteur":"Dent du Cafiste","type_roche":"calcaire","orientation":["S","SO"],"lien_oblyk":"https://oblyk.org/crags/2677/gorges-de-saint-moirans","lien_camptocamp":"https://www.camptocamp.org/waypoints/276521/fr/saint-moirans","source_id":"escalade-drome-2020","topo_id":"escalade-drome-2020","topo_page":"148","hauteur_max_voie_m":40,"parking_associe":["bordure de route Chastel-Arnaud","chemin communal Chastel-Arnaud","dégagement poubelles Chastel-Arnaud"],"approche_min":[5,5,10],"approche_metre":[null,null,null],"nb_voie_total":5,"nb_voie_sportive":5,"nb_voie_trad":0,"nb_voie_artificielle":0,"nb_voie_moulinette":0,"categorie":"falaise","nb_couenne":4,"nb_gv":1,"cotations":{"4b":1,"5a":1,"5b":1,"6a":1,"6c+":1},"routes":"gorges-de-saint-moirans","routes_falaise":7},"geometry":{"type":"Point","coordinates":[5.206293,44.666495]}},{"type":"Feature","properties":{"nom":"Gorges de Saint-Moirans","site":"Gorges de Saint-Moirans","secteur":"Grande Aiguille","type_roche":"calcaire","orientation":["SO"],"lien_oblyk":"https://oblyk.org/crags/2677/gorges-de-saint-moirans","lien_camptocamp":"https://www.camptocamp.org/waypoints/276521/fr/saint-moirans","source_id":"escalade-drome-2020","topo_id":"escalade-drome-2020","topo_page":"150","hauteur_max_voie_m":50,"parking_associe":["bordure de route Chastel-Arnaud","chemin communal Chastel-Arnaud","dégagement poubelles Chastel-Arnaud"],"approche_min":[5,5,10],"approche_metre":[null,null,null],"nb_voie_total":7,"nb_voie_sportive":6,"nb_voie_trad":0,"nb_voie_artificielle":1,"nb_voie_moulinette":0,"categorie":"falaise","nb_couenne":6,"nb_gv":0,"cotations":{"4c":2,"5c":1,"6a":1,"7c+":1},"routes":"gorges-de-saint-moirans","routes_falaise":8},"geometry":{"type":"Point","coordinates":[5.207692,44.666504]}},{"type":"Feature","properties":{"nom":"Gorges de Saint-Moirans","site":"Gorges de Saint-Moirans","secteur":"Initiation","type_roche":"calcaire","orientation":["S","E"],"lien_oblyk":"https://oblyk.org/crags/2677/gorges-de-saint-moirans","lien_camptocamp":"https://www.camptocamp.org/waypoints/276521/fr/saint-moirans","source_id":"escalade-drome-2020","topo_id":"escalade-drome-2020","topo_page":"144","hauteur_max_voie_m":20,"parking_associe":["bordure de route Chastel-Arnaud","chemin communal Chastel-Arnaud","dégagement poubelles Chastel-Arnaud"],"approche_min":[10,10,20],"approche_metre":[null,null,null],"nb_voie_total":5,"nb_voie_sportive":5,"nb_voie_trad":0,"nb_voie_artificielle":0,"nb_voie_moulinette":0,"categorie":"falaise","nb_couenne":5,"nb_gv":0,"cotations":{"3c":1,"4a":2,"4b":1,"4c":1},"routes":"gorges-de-saint-moirans","routes_falaise":9},"geometry":{"type":"Point","coordinates":[5.204296,44.666425]}},{"type":"Feature","properties":{"nom":"Gorges de Saint-Moirans","site":"Gorges de Saint-Moirans","secteur":"Millenium","type_roche":"calcaire","orientation":["O"],"lien_oblyk":"https://oblyk.org/crags/2677/gorges-de-saint-moirans","lien_camptocamp":"https://www.camptocamp.org/waypoints/276521/fr/saint-moirans","source_id":"escalade-drome-2020","topo_id":"escalade-drome-2020","topo_page":"152","hauteur_max_voie_m":25,"parking_associe":["bordure de route Chastel-Arnaud","chemin communal Chastel-Arnaud","dégagement poubelles Chastel-Arnaud"],"approche_min":[10,10,20],"approche_metre":[null,null,null],"nb_voie_total":14,"nb_voie_sportive":14,"nb_voie_trad":0,"nb_voie_artificielle":0,"nb_voie_moulinette":0,"categorie":"falaise","nb_couenne":14,"nb_gv":0,"cotations":{"4c":1,"5a":1,"5c":3,"6a":2,"6a+":1,"6b":2,"6c":3,"7a":1},"routes":"gorges-de-saint-moirans","routes_falaise":10},"geometry":{"type":"Point","coordinates":[5.209403,44.666349]}},{"type":"Feature","properties":{"nom":"Gorges de Saint-Moirans","site":"Gorges de Saint-Moirans","secteur":"Souvenir","type_roche":"calcaire","orientation":["SO"],"lien_oblyk":"https://oblyk.org/crags/2677/gorges-de-saint-moirans","lien_camptocamp":"https://www.camptocamp.org/waypoints/276521/fr/saint-moirans","source_id":"escalade-drome-2020","topo_id":"escalade-drome-2020","topo_page":"150","hauteur_max_voie_m":37,"parking_associe":["bordure de route Chastel-Arnaud","chemin communal Chastel-Arnaud","dégagement poubelles Chastel-Arnaud"],"approche_min":[5,5,10],"approche_metre":[null,null,null],"nb_voie_total":5,"nb_voie_sportive":5,"nb_voie_trad":0,"nb_voie_artificielle":0,"nb_voie_moulinette":0,"categorie":"falaise","nb_couenne":4,"nb_gv":1,"cotations":{"6b+":1,"6c+":1,"7a":1,"7a+":1},"routes":"gorges-de-saint-moirans","routes_falaise":11},"geometry":{"type":"Point","coordinates":[5.208743,44.666395]}},{"type":"Feature","properties":{"nom":"Gorges de Saint-Moirans","site":"Gorges de Saint-Moirans","secteur":"Tilleul","type_roche":"calcaire","orientation":["S","E"],"lien_oblyk":"https://oblyk.org/crags/2677/gorges-de-saint-moirans","lien_camptocamp":"https://www.camptocamp.org/waypoints/276521/fr/saint-moirans","source_id":"escalade-drome-2020","topo_id":"escalade-drome-2020","topo_page":"146","hauteur_max_voie_m":60,"parking_associe":["bordure de route Chastel-Arnaud","chemin communal Chastel-Arnaud","dégagement poubelles Chastel-Arnaud"],"approche_min":[5,5,10],"approche_metre":[null,null,null],"nb_voie_total":15,"nb_voie_sportive":14,"nb_voie_trad":0,"nb_voie_artificielle":1,"nb_voie_moulinette":0,"categorie":"falaise","nb_couenne":11,"nb_gv":3,"cotations":{"3a":1,"5a":1,"5c":3,"6a":3,"6b+":1,"6c":2,"7a":2,"7a+":1},"routes":"gorges-de-saint-moirans","routes_falaise":12},"geometry":{"type":"Point","coordinates":[5.20461,44.666362]}},{"type":"Feature","properties":{"nom":"Gorges de Saint-Moirans","site":"Gorges de Saint-Moirans","secteur":"Voile lactée","type_roche":"calcaire","orientation":["SO"],"lien_oblyk":"https://oblyk.org/crags/2677/gorges-de-saint-moirans","lien_camptocamp":"https://www.camptocamp.org/waypoints/276521/fr/saint-moirans","source_id":"escalade-drome-2020","topo_id":"escalade-drome-2020","topo_page":"150","hauteur_max_voie_m":25,"parking_associe":["bordure de route Chastel-Arnaud","chemin communal Chastel-Arnaud","dégagement poubelles Chastel-Arnaud"],"approche_min":[5,5,10],"approche_metre":[null,null,null],"nb_voie_total":26,"nb_voie_sportive":26,"nb_voie_trad":0,"nb_voie_artificielle":0,"nb_voie_moulinette":0,"categorie":"falaise","nb_couenne":26,"nb_gv":0,"cotations":{"4b":1,"5a":2,"5b":2,"5c":2,"5c+":2,"6a":3,"6a+":1,"6b":2,"6b+":2,"6c":3,"7a":1,"7a+":1},"routes":"gorges-de-saint-moirans","routes_falaise":13},"geometry":{"type":"Point","coordinates":[5.208463,44.66643]}},{"type":"Feature","properties":{"nom":"La Berche","site":"La Berche","secteur":"La Berche","type_roche":"calcaire","orientation":["S"],"lien_oblyk":"https://oblyk.org/crags/2888/rochers-de-la-berche","lien_camptocamp":null,"source_id":"escalade-drome-2020","topo_id":"escalade-drome-2020","topo_page":"250","hauteur_max_voie_m":25,"parking_associe":["parking D505"],"approche_min":[1],"approche_metre":[null],"nb_voie_total":32,"nb_voie_sportive":32,"nb_voie_trad":0,"nb_voie_artificielle":0,"nb_voie_moulinette":0,"categorie":"falaise","nb_couenne":32,"nb_gv":0,"cotations":{"3b":5,"3c":7,"4a":7,"4b":3,"4c":2,"5a":3,"5b":3,"5c":1,"6b":1},"routes":"la-berche","routes_falaise":14},"geometry":{"type":"Point","coordinates":[5.732304,44.662104]}},{"type":"Feature","properties":{"nom":"Le Devès","site":"Le Devès","secteur":"Principal","type_roche":"calcaire","orientation":["O"],"lien_oblyk":"https://oblyk.org/crags/2325/volvent-le-deves","lien_camptocamp":null,"source_id":"escalade-drome-2020","topo_id":"escalade-drome-2020","topo_page":"284;286","hauteur_max_voie_m":20,"parking_associe":["parking Devès"],"approche_min":[5],"approche_metre":[300],"nb_voie_total":19,"nb_voie_sportive":19,"nb_voie_trad":0,"nb_voie_artificielle":0,"nb_voie_moulinette":0,"categorie":"falaise","nb_couenne":19,"nb_gv":0,"cotations":{"6a+":1,"6c":1,"7a":1,"7a+":2,"7b":3,"7b+":4,"7c":4,"7c+":2,"8a":1},"routes":"le-deves","routes_falaise":15},"geometry":{"type":"Point","coordinates":[5.336323,44.57073]}},{"type":"Feature","properties":{"nom":"Le Devès","site":"Le Devès","secteur":"Sylvèstre","type_roche":"calcaire","orientation":["O"],"lien_oblyk":"https://oblyk.org/crags/2325/volvent-le-deves","lien_camptocamp":null,"source_id":"escalade-drome-2020","topo_id":"escalade-drome-2020","topo_page":"284","hauteur_max_voie_m":20,"parking_associe":["parking Devès"],"approche_min":[5],"approche_metre":[300],"nb_voie_total":11,"nb_voie_sportive":11,"nb_voie_trad":0,"nb_voie_artificielle":0,"nb_voie_moulinette":0,"categorie":"falaise","nb_couenne":11,"nb_gv":0,"cotations":{"5c":1,"6a":1,"6b":1,"6b+":1,"6c":1,"7a":3,"7a+":1,"7b":1,"7b+":1},"routes":"le-deves","routes_falaise":16},"geometry":{"type":"Point","coordinates":[5.336372,44.570979]}},{"type":"Feature","properties":{"nom":"Les Auberts","site":"Les Auberts","secteur":"Bas","type_roche":"calcaire","orientation":["O"],"lien_oblyk":"https://oblyk.org/crags/772/les-auberts","lien_camptocamp":"https://www.camptocamp.org/waypoints/102706/fr/les-auberts","source_id":"escalade-drome-2020","topo_id":"escalade-drome-2020","topo_page":"158","hauteur_max_voie_m":20,"parking_associe":["dégagement gravier proche Auberts"],"approche_min":[20],"approche_metre":[1300],"nb_voie_total":5,"nb_voie_sportive":5,"nb_voie_trad":0,"nb_voie_artificielle":0,"nb_voie_moulinette":0,"categorie":"falaise","nb_couenne":5,"nb_gv":0,"cotations":{"6a+":1,"6b+":1,"6c":1,"7a":2},"routes":"les-auberts","routes_falaise":17},"geometry":{"type":"Point","coordinates":[5.193303,44.669948]}},{"type":"Feature","properties":{"nom":"Les Auberts","site":"Les Auberts","secteur":"Haut","type_roche":"calcaire","orientation":["O"],"lien_oblyk":"https://oblyk.org/crags/772/les-auberts","lien_camptocamp":"https://www.camptocamp.org/waypoints/102706/fr/les-auberts","source_id":"escalade-drome-2020","topo_id":"escalade-drome-2020","topo_page":"158","hauteur_max_voie_m":25,"parking_associe":["dégagement gravier proche Auberts"],"approche_min":[20],"approche_metre":[1300],"nb_voie_total":7,"nb_voie_sportive":7,"nb_voie_trad":0,"nb_voie_artificielle":0,"nb_voie_moulinette":0,"categorie":"falaise","nb_couenne":7,"nb_gv":0,"cotations":{"6a":2,"6b":1,"6b+":1,"6c":1,"7b":2},"routes":"les-auberts","routes_falaise":18},"geometry":{"type":"Point","coordinates":[5.193855,44.669776]}},{"type":"Feature","properties":{"nom":"Les Auberts","site":"Les Auberts","secteur":"L'Arbre","type_roche":"calcaire","orientation":["O"],"lien_oblyk":"https://oblyk.org/crags/772/les-auberts","lien_camptocamp":"https://www.camptocamp.org/waypoints/102706/fr/les-auberts","source_id":"escalade-drome-2020","topo_id":"escalade-drome-2020","topo_page":"160","hauteur_max_voie_m":40,"parking_associe":["dégagement gravier proche Auberts"],"approche_min":[20],"approche_metre":[1300],"nb_voie_total":12,"nb_voie_sportive":12,"nb_voie_trad":0,"nb_voie_artificielle":0,"nb_voie_moulinette":0,"categorie":"falaise","nb_couenne":12,"nb_gv":0,"cotations":{"6b":1,"6b+":1,"7a+":2,"7c":2,"8a":4,"8b+":1,"8c":1},"routes":"les-auberts","routes_falaise":19},"geometry":{"type":"Point","coordinates":[5.193739,44.669649]}},{"type":"Feature","properties":{"nom":"Les Auberts","site":"Les Auberts","secteur":"Mascarade","type_roche":"calcaire","orientation":["O"],"lien_oblyk":"https://oblyk.org/crags/772/les-auberts","lien_camptocamp":"https://www.camptocamp.org/waypoints/102706/fr/les-auberts","source_id":"escalade-drome-2020","topo_id":"escalade-drome-2020","topo_page":"158","hauteur_max_voie_m":20,"parking_associe":["dégagement gravier proche Auberts"],"approche_min":[20],"approche_metre":[1300],"nb_voie_total":16,"nb_voie_sportive":16,"nb_voie_trad":0,"nb_voie_artificielle":0,"nb_voie_moulinette":0,"categorie":"falaise","nb_couenne":15,"nb_gv":1,"cotations":{"5b":1,"6a+":1,"6b+":3,"6c+":1,"7a":3,"7a+":2,"7b":1,"7b+":3,"7c":1},"routes":"les-auberts","routes_falaise":20},"geometry":{"type":"Point","coordinates":[5.193473,44.669792]}},{"type":"Feature","properties":{"nom":"Les Auberts","site":"Les Auberts","secteur":"Tapis Volant","type_roche":"calcaire","orientation":["O"],"lien_oblyk":"https://oblyk.org/crags/772/les-auberts","lien_camptocamp":"https://www.camptocamp.org/waypoints/102706/fr/les-auberts","source_id":"escalade-drome-2020","topo_id":"escalade-drome-2020","topo_page":"160","hauteur_max_voie_m":35,"parking_associe":["dégagement gravier proche Auberts"],"approche_min":[20],"approche_metre":[1300],"nb_voie_total":18,"nb_voie_sportive":18,"nb_voie_trad":0,"nb_voie_artificielle":0,"nb_voie_moulinette":0,"categorie":"falaise","nb_couenne":15,"nb_gv":3,"cotations":{"6c":1,"6c+":1,"7a":1,"7a+":1,"7b":1,"8a":3,"8a+":3,"8b":3,"8c":2,"8c+":2},"routes":"les-auberts","routes_falaise":21},"geometry":{"type":"Point","coordinates":[5.19399,44.66965]}},{"type":"Feature","properties":{"nom":"Les Sucettes de Borne","site":"Les Sucettes de Borne","secteur":"Beausapin","type_roche":"calcaire","orientation":["N"],"lien_oblyk":"https://oblyk.org/crags/2466/sucettes-de-borne","lien_camptocamp":"https://www.camptocamp.org/waypoints/102991/fr/sucettes-de-borne","source_id":"escalade-drome-2020","topo_id":"escalade-drome-2020","topo_page":"242","hauteur_max_voie_m":15,"parking_associe":["parking après Borne"],"approche_min":[25],"approche_metre":[1500],"nb_voie_total":3,"nb_voie_sportive":3,"nb_voie_trad":0,"nb_voie_artificielle":0,"nb_voie_moulinette":0,"categorie":"falaise","nb_couenne":3,"nb_gv":0,"cotations":{"4b+":1,"5b+":1,"6b+":1},"routes":"les-sucettes-de-borne","routes_falaise":22},"geometry":{"type":"Point","coordinates":[5.616914,44.719704]}},{"type":"Feature","properties":{"nom":"Les Sucettes de Borne","site":"Les Sucettes de Borne","secteur":"Kusmendko","type_roche":"calcaire","orientation":["O","S","E"],"lien_oblyk":"https://oblyk.org/crags/2466/sucettes-de-borne","lien_camptocamp":"https://www.camptocamp.org/waypoints/102991/fr/sucettes-de-borne","source_id":"escalade-drome-2020","topo_id":"escalade-drome-2020","topo_page":"234","hauteur_max_voie_m":25,"parking_associe":["parking après Borne"],"approche_min":[18],"approche_metre":[null],"nb_voie_total":5,"nb_voie_sportive":5,"nb_voie_trad":0,"nb_voie_artificielle":0,"nb_voie_moulinette":0,"categorie":"falaise","nb_couenne":4,"nb_gv":1,"cotations":{"6a":1,"6a+":1,"6b+":1,"6c":2},"routes":"les-sucettes-de-borne","routes_falaise":23},"geometry":{"type":"Point","coordinates":[5.611847,44.720699]}},{"type":"Feature","properties":{"nom":"Les Sucettes de Borne","site":"Les Sucettes de Borne","secteur":"La Barbe de Papy","type_roche":"calcaire","orientation":["N","S","E"],"lien_oblyk":"https://oblyk.org/crags/2466/sucettes-de-borne","lien_camptocamp":"https://www.camptocamp.org/waypoints/102991/fr/sucettes-de-borne","source_id":"escalade-drome-2020","topo_id":"escalade-drome-2020","topo_page":"238","hauteur_max_voie_m":55,"parking_associe":["parking après Borne"],"approche_min":[25],"approche_metre":[1500],"nb_voie_total":10,"nb_voie_sportive":10,"nb_voie_trad":0,"nb_voie_artificielle":0,"nb_voie_moulinette":0,"categorie":"falaise","nb_couenne":8,"nb_gv":2,"cotations":{"4c":1,"5c":2,"6a":1,"6a+":1,"6b":1,"6b+":1,"6c":1,"6c+":1,"7b":1},"routes":"les-sucettes-de-borne","routes_falaise":24},"geometry":{"type":"Point","coordinates":[5.616218,44.720232]}},{"type":"Feature","properties":{"nom":"Les Sucettes de Borne","site":"Les Sucettes de Borne","secteur":"La Brèche","type_roche":"calcaire","orientation":["S"],"lien_oblyk":"https://oblyk.org/crags/2466/sucettes-de-borne","lien_camptocamp":"https://www.camptocamp.org/waypoints/102991/fr/sucettes-de-borne","source_id":"escalade-drome-2020","topo_id":"escalade-drome-2020","topo_page":"242","hauteur_max_voie_m":35,"parking_associe":["parking après Borne"],"approche_min":[25],"approche_metre":[1500],"nb_voie_total":1,"nb_voie_sportive":1,"nb_voie_trad":0,"nb_voie_artificielle":0,"nb_voie_moulinette":0,"categorie":"falaise","nb_couenne":1,"nb_gv":0,"cotations":{"7b+":1},"routes":"les-sucettes-de-borne","routes_falaise":25},"geometry":{"type":"Point","coordinates":[5.616431,44.720291]}},{"type":"Feature","properties":{"nom":"Les Sucettes de Borne","site":"Les Sucettes de Borne","secteur":"Le Pavé","type_roche":"calcaire","orientation":["S"],"lien_oblyk":"https://oblyk.org/crags/2466/sucettes-de-borne","lien_camptocamp":"https://www.camptocamp.org/waypoints/102991/fr/sucettes-de-borne","source_id":"escalade-drome-2020","topo_id":"escalade-drome-2020","topo_page":"242","hauteur_max_voie_m":30,"parking_associe":["parking après Borne"],"approche_min":[25],"approche_metre":[1500],"nb_voie_total":1,"nb_voie_sportive":1,"nb_voie_trad":0,"nb_voie_artificielle":0,"nb_voie_moulinette":0,"categorie":"falaise","nb_couenne":1,"nb_gv":0,"cotations":{"5a":1},"routes":"les-sucettes-de-borne","routes_falaise":26},"geometry":{"type":"Point","coordinates":[5.616188,44.720109]}},{"type":"Feature","properties":{"nom":"Les Sucettes de Borne","site":"Les Sucettes de Borne","secteur":"Le Rasoir","type_roche":"calcaire","orientation":["N","S","E"],"lien_oblyk":"https://oblyk.org/crags/2466/sucettes-de-borne","lien_camptocamp":"https://www.camptocamp.org/waypoints/102991/fr/sucettes-de-borne","source_id":"escalade-drome-2020","topo_id":"escalade-drome-2020","topo_page":"236","hauteur_max_voie_m":30,"parking_associe":["parking après Borne"],"approche_min":[20],"approche_metre":[null],"nb_voie_total":13,"nb_voie_sportive":13,"nb_voie_trad":0,"nb_voie_artificielle":0,"nb_voie_moulinette":0,"categorie":"falaise","nb_couenne":12,"nb_gv":1,"cotations":{"5a":1,"5c":1,"6a":3,"6a+":1,"6b+":1,"6c":3,"7a":1,"8b":1},"routes":"les-sucettes-de-borne","routes_falaise":27},"geometry":{"type":"Point","coordinates":[5.616151,44.720022]}},{"type":"Feature","properties":{"nom":"Les Sucettes de Borne","site":"Les Sucettes de Borne","secteur":"Marteau de Dieu","type_roche":"calcaire","orientation":["O","S","E"],"lien_oblyk":"https://oblyk.org/crags/2466/sucettes-de-borne","lien_camptocamp":"https://www.camptocamp.org/waypoints/102991/fr/sucettes-de-borne","source_id":"escalade-drome-2020","topo_id":"escalade-drome-2020","topo_page":"234","hauteur_max_voie_m":25,"parking_associe":["parking après Borne"],"approche_min":[18],"approche_metre":[null],"nb_voie_total":12,"nb_voie_sportive":12,"nb_voie_trad":0,"nb_voie_artificielle":0,"nb_voie_moulinette":0,"categorie":"falaise","nb_couenne":11,"nb_gv":1,"cotations":{"5a":1,"5b":2,"5c":2,"6a":3,"6a+":1,"6b":1,"6c":1,"7a":1},"routes":"les-sucettes-de-borne","routes_falaise":28},"geometry":{"type":"Point","coordinates":[5.6122,44.720748]}},{"type":"Feature","properties":{"nom":"Les Sucettes de Borne","site":"Les Sucettes de Borne","secteur":"Moaï Est","type_roche":"calcaire","orientation":["E"],"lien_oblyk":"https://oblyk.org/crags/2466/sucettes-de-borne","lien_camptocamp":"https://www.camptocamp.org/waypoints/102991/fr/sucettes-de-borne","source_id":"escalade-drome-2020","topo_id":"escalade-drome-2020","topo_page":"230","hauteur_max_voie_m":90,"parking_associe":["parking après Borne"],"approche_min":[15],"approche_metre":[800],"nb_voie_total":1,"nb_voie_sportive":1,"nb_voie_trad":0,"nb_voie_artificielle":0,"nb_voie_moulinette":0,"categorie":"falaise","nb_couenne":0,"nb_gv":1,"cotations":{"6c+":1},"routes":"les-sucettes-de-borne","routes_falaise":29},"geometry":{"type":"Point","coordinates":[5.610733,44.720835]}},{"type":"Feature","properties":{"nom":"Les Sucettes de Borne","site":"Les Sucettes de Borne","secteur":"Moaï Nord","type_roche":"calcaire","orientation":["N"],"lien_oblyk":"https://oblyk.org/crags/2466/sucettes-de-borne","lien_camptocamp":"https://www.camptocamp.org/waypoints/102991/fr/sucettes-de-borne","source_id":"escalade-drome-2020","topo_id":"escalade-drome-2020","topo_page":"230","hauteur_max_voie_m":100,"parking_associe":["parking après Borne"],"approche_min":[15],"approche_metre":[800],"nb_voie_total":5,"nb_voie_sportive":5,"nb_voie_trad":0,"nb_voie_artificielle":0,"nb_voie_moulinette":0,"categorie":"falaise","nb_couenne":0,"nb_gv":5,"cotations":{"5b+":1,"6b":2,"7a":2},"routes":"les-sucettes-de-borne","routes_falaise":30},"geometry":{"type":"Point","coordinates":[5.610435,44.720913]}},{"type":"Feature","properties":{"nom":"Les Sucettes de Borne","site":"Les Sucettes de Borne","secteur":"Moaï Sud","type_roche":"calcaire","orientation":["S"],"lien_oblyk":"https://oblyk.org/crags/2466/sucettes-de-borne","lien_camptocamp":"https://www.camptocamp.org/waypoints/102991/fr/sucettes-de-borne","source_id":"escalade-drome-2020","topo_id":"escalade-drome-2020","topo_page":"232","hauteur_max_voie_m":60,"parking_associe":["parking après Borne"],"approche_min":[18],"approche_metre":[null],"nb_voie_total":8,"nb_voie_sportive":7,"nb_voie_trad":1,"nb_voie_artificielle":0,"nb_voie_moulinette":0,"categorie":"falaise","nb_couenne":2,"nb_gv":5,"cotations":{"6a":1,"6b":1,"6c":1,"7a+":2,"7b":1,"7c":1},"routes":"les-sucettes-de-borne","routes_falaise":31},"geometry":{"type":"Point","coordinates":[5.610589,44.720735]}},{"type":"Feature","properties":{"nom":"Les Sucettes de Borne","site":"Les Sucettes de Borne","secteur":"Notilus","type_roche":"calcaire","orientation":["O","N","E","S"],"lien_oblyk":"https://oblyk.org/crags/2466/sucettes-de-borne","lien_camptocamp":"https://www.camptocamp.org/waypoints/102991/fr/sucettes-de-borne","source_id":"escalade-drome-2020","topo_id":"escalade-drome-2020","topo_page":"240","hauteur_max_voie_m":25,"parking_associe":["parking après Borne"],"approche_min":[25],"approche_metre":[1500],"nb_voie_total":17,"nb_voie_sportive":17,"nb_voie_trad":0,"nb_voie_artificielle":0,"nb_voie_moulinette":0,"categorie":"falaise","nb_couenne":17,"nb_gv":0,"cotations":{"5c":1,"6a+":2,"6b":1,"6c":1,"6c+":1,"7a":3,"7b":2,"7b+":1,"7c+":1,"8a":1,"8a+":1,"8b":1,"8b+":1},"routes":"les-sucettes-de-borne","routes_falaise":32},"geometry":{"type":"Point","coordinates":[5.615673,44.720323]}},{"type":"Feature","properties":{"nom":"Omblèze Les Gorges","site":"Omblèze Les Gorges","secteur":"Aqualand","type_roche":"calcaire","orientation":["N"],"lien_oblyk":"https://oblyk.org/crags/173/ombleze-gorges","lien_camptocamp":"https://www.camptocamp.org/waypoints/102186/fr/ombleze-les-gorges","source_id":"escalade-drome-2020","topo_id":"escalade-drome-2020","topo_page":"28","hauteur_max_voie_m":30,"parking_associe":["parking Omblèze"],"approche_min":[5],"approche_metre":[null],"nb_voie_total":10,"nb_voie_sportive":10,"nb_voie_trad":0,"nb_voie_artificielle":0,"nb_voie_moulinette":0,"categorie":"falaise","nb_couenne":8,"nb_gv":2,"cotations":{"6a+":2,"6b+":1,"6c":2,"6c+":1,"7a":1,"7b":1,"7b+":2},"routes":"ombleze-les-gorges","routes_falaise":33},"geometry":{"type":"Point","coordinates":[5.190707,44.84196]}},{"type":"Feature","properties":{"nom":"Pennes-le-Sec","site":"Pennes-le-Sec","secteur":"L’Initiation","type_roche":"calcaire","orientation":["N","S","E"],"lien_oblyk":"https://oblyk.org/crags/1563/pennes-le-sec","lien_camptocamp":"https://www.camptocamp.org/waypoints/102791/fr/pennes-le-sec","source_id":"escalade-drome-2020","topo_id":"escalade-drome-2020","topo_page":"274","hauteur_max_voie_m":65,"parking_associe":["parking long de route D595"],"approche_min":[15],"approche_metre":[null],"nb_voie_total":12,"nb_voie_sportive":12,"nb_voie_trad":0,"nb_voie_artificielle":0,"nb_voie_moulinette":0,"categorie":"falaise","nb_couenne":8,"nb_gv":4,"cotations":{"4b":1,"4c":1,"5a":1,"6b":4,"6b+":1,"6c":3,"6c+":1},"routes":"pennes-le-sec","routes_falaise":34},"geometry":{"type":"Point","coordinates":[5.311987,44.64278]}},{"type":"Feature","properties":{"nom":"Pennes-le-Sec","site":"Pennes-le-Sec","secteur":"La Tour","type_roche":"calcaire","orientation":["N","S","E"],"lien_oblyk":"https://oblyk.org/crags/1563/pennes-le-sec","lien_camptocamp":"https://www.camptocamp.org/waypoints/102791/fr/pennes-le-sec","source_id":"escalade-drome-2020","topo_id":"escalade-drome-2020","topo_page":"274","hauteur_max_voie_m":20,"parking_associe":["parking long de route D595"],"approche_min":[15],"approche_metre":[null],"nb_voie_total":5,"nb_voie_sportive":5,"nb_voie_trad":0,"nb_voie_artificielle":0,"nb_voie_moulinette":0,"categorie":"falaise","nb_couenne":4,"nb_gv":1,"cotations":{"5c":1,"6a":1,"6a+":1,"6b":1,"6c":1},"routes":"pennes-le-sec","routes_falaise":35},"geometry":{"type":"Point","coordinates":[5.311599,44.642948]}},{"type":"Feature","properties":{"nom":"Pennes-le-Sec","site":"Pennes-le-Sec","secteur":"Lame inférieure","type_roche":"calcaire","orientation":["S"],"lien_oblyk":"https://oblyk.org/crags/1563/pennes-le-sec","lien_camptocamp":"https://www.camptocamp.org/waypoints/102791/fr/pennes-le-sec","source_id":"escalade-drome-2020","topo_id":"escalade-drome-2020","topo_page":"278","hauteur_max_voie_m":40,"parking_associe":["parking long de route D595"],"approche_min":[12],"approche_metre":[null],"nb_voie_total":15,"nb_voie_sportive":15,"nb_voie_trad":0,"nb_voie_artificielle":0,"nb_voie_moulinette":0,"categorie":"falaise","nb_couenne":15,"nb_gv":0,"cotations":{"6a":1,"6a+":3,"6b+":1,"6c":1,"6c+":2,"7a":1,"7a+":1,"7b":4,"7b+":1},"routes":"pennes-le-sec","routes_falaise":36},"geometry":{"type":"Point","coordinates":[5.31594,44.643171]}},{"type":"Feature","properties":{"nom":"Pennes-le-Sec","site":"Pennes-le-Sec","secteur":"Lame supérieure","type_roche":"calcaire","orientation":["N"],"lien_oblyk":"https://oblyk.org/crags/1563/pennes-le-sec","lien_camptocamp":"https://www.camptocamp.org/waypoints/102791/fr/pennes-le-sec","source_id":"escalade-drome-2020","topo_id":"escalade-drome-2020","topo_page":"278","hauteur_max_voie_m":25,"parking_associe":["parking long de route D595"],"approche_min":[12],"approche_metre":[null],"nb_voie_total":8,"nb_voie_sportive":8,"nb_voie_trad":0,"nb_voie_artificielle":0,"nb_voie_moulinette":0,"categorie":"falaise","nb_couenne":8,"nb_gv":0,"cotations":{"5c":1,"6a":1,"6b":2,"6b+":1,"6c":1,"7a":1,"7b":1},"routes":"pennes-le-sec","routes_falaise":37},"geometry":{"type":"Point","coordinates":[5.31531,44.643145]}},{"type":"Feature","properties":{"nom":"Pennes-le-Sec","site":"Pennes-le-Sec","secteur":"Le Château","type_roche":"calcaire","orientation":["N","S","E"],"lien_oblyk":"https://oblyk.org/crags/1563/pennes-le-sec","lien_camptocamp":"https://www.camptocamp.org/waypoints/102791/fr/pennes-le-sec","source_id":"escalade-drome-2020","topo_id":"escalade-drome-2020","topo_page":"274","hauteur_max_voie_m":70,"parking_associe":["parking long de route D595"],"approche_min":[15],"approche_metre":[null],"nb_voie_total":6,"nb_voie_sportive":6,"nb_voie_trad":0,"nb_voie_artificielle":0,"nb_voie_moulinette":0,"categorie":"falaise","nb_couenne":0,"nb_gv":6,"cotations":{"6b":1,"6c":4,"7a":1},"routes":"pennes-le-sec","routes_falaise":38},"geometry":{"type":"Point","coordinates":[5.312163,44.642901]}},{"type":"Feature","properties":{"nom":"Pennes-le-Sec","site":"Pennes-le-Sec","secteur":"Les Barnavois","type_roche":"calcaire","orientation":["N","S","E"],"lien_oblyk":"https://oblyk.org/crags/1563/pennes-le-sec","lien_camptocamp":"https://www.camptocamp.org/waypoints/102791/fr/pennes-le-sec","source_id":"escalade-drome-2020","topo_id":"escalade-drome-2020","topo_page":"274","hauteur_max_voie_m":null,"parking_associe":["parking long de route D595"],"approche_min":[15],"approche_metre":[null],"nb_voie_total":2,"nb_voie_sportive":2,"nb_voie_trad":0,"nb_voie_artificielle":0,"nb_voie_moulinette":0,"categorie":"falaise","nb_couenne":2,"nb_gv":0,"cotations":{"7a+":1,"7b":1},"routes":"pennes-le-sec","routes_falaise":39},"geometry":{"type":"Point","coordinates":[5.311259,44.643015]}},{"type":"Feature","properties":{"nom":"Pennes-le-Sec","site":"Pennes-le-Sec","secteur":"Rochers des Blaches","type_roche":"calcaire","orientation":["S"],"lien_oblyk":"https://oblyk.org/crags/1563/pennes-le-sec","lien_camptocamp":"https://www.camptocamp.org/waypoints/102791/fr/pennes-le-sec","source_id":"escalade-drome-2020","topo_id":"escalade-drome-2020","topo_page":"280","hauteur_max_voie_m":40,"parking_associe":["parking bande de gravier D595"],"approche_min":[23],"approche_metre":[null],"nb_voie_total":1,"nb_voie_sportive":1,"nb_voie_trad":0,"nb_voie_artificielle":0,"nb_voie_moulinette":0,"categorie":"falaise","nb_couenne":1,"nb_gv":0,"cotations":{"6b+":1},"routes":"pennes-le-sec","routes_falaise":40},"geometry":{"type":"Point","coordinates":[5.302772,44.642823]}},{"type":"Feature","properties":{"nom":"Pennes-le-Sec","site":"Pennes-le-Sec","secteur":"Saint Michel","type_roche":"calcaire","orientation":["S","O"],"lien_oblyk":"https://oblyk.org/crags/1563/pennes-le-sec","lien_camptocamp":"https://www.camptocamp.org/waypoints/102791/fr/pennes-le-sec","source_id":"escalade-drome-2020","topo_id":"escalade-drome-2020","topo_page":"276","hauteur_max_voie_m":80,"parking_associe":["parking long de route D595"],"approche_min":[15],"approche_metre":[null],"nb_voie_total":18,"nb_voie_sportive":18,"nb_voie_trad":0,"nb_voie_artificielle":0,"nb_voie_moulinette":0,"categorie":"falaise","nb_couenne":14,"nb_gv":4,"cotations":{"5c":2,"6a":1,"6a+":1,"6b+":3,"6c":2,"6c+":2,"7a":3,"7a+":2,"7b":2},"routes":"pennes-le-sec","routes_falaise":41},"geometry":{"type":"Point","coordinates":[5.313465,44.643123]}},{"type":"Feature","properties":{"nom":"Eson","site":"Pont-de-Barret","secteur":"Face Ouest","type_roche":"calcaire","orientation":["E","S"],"lien_oblyk":"https://oblyk.org/crags/46/eson","lien_camptocamp":"https://www.camptocamp.org/waypoints/114498/fr/pont-de-barret-eson","source_id":"oblyk","topo_id":"escalade-drome-silex-2023","topo_page":null,"hauteur_max_voie_m":null,"parking_associe":["parking Pont-du-Barret proche Roubion"],"approche_min":[35],"approche_metre":[null],"nb_voie_total":32,"nb_voie_sportive":32,"nb_voie_trad":0,"nb_voie_artificielle":0,"nb_voie_moulinette":0,"categorie":"falaise","nb_couenne":32,"nb_gv":0,"cotations":{"5a":1,"5b":1,"5c":1,"6a":3,"6a+":2,"6b":1,"6b+":2,"6c":4,"6c+":3,"7a":4,"7a+":5,"7b":1,"7b+":3,"7c":1},"routes":"pont-de-barret","routes_falaise":42},"geometry":{"type":"Point","coordinates":[5.015492,44.610234]}},{"type":"Feature","properties":{"nom":"Eson","site":"Pont-de-Barret","secteur":"Grande face Sud","type_roche":"calcaire","orientation":["E","S"],"lien_oblyk":"https://oblyk.org/crags/46/eson","lien_camptocamp":"https://www.camptocamp.org/waypoints/114498/fr/pont-de-barret-eson","source_id":"oblyk","topo_id":"escalade-drome-silex-2023","topo_page":null,"hauteur_max_voie_m":null,"parking_associe":["parking Pont-du-Barret proche Roubion"],"approche_min":[35],"approche_metre":[null],"nb_voie_total":53,"nb_voie_sportive":53,"nb_voie_trad":0,"nb_voie_artificielle":0,"nb_voie_moulinette":0,"categorie":"falaise","nb_couenne":53,"nb_gv":0,"cotations":{"4c":1,"5b+":1,"5c":6,"5c+":1,"6a":3,"6a+":3,"6b":5,"6b+":5,"6c":8,"6c+":1,"7a":6,"7a+":4,"7b":4,"7b+":1,"7c":1,"7c+":3},"routes":"pont-de-barret","routes_falaise":43},"geometry":{"type":"Point","coordinates":[5.018528,44.608576]}},{"type":"Feature","properties":{"nom":"Le Bec qui se Tend","site":"Pont-de-Barret","secteur":"Le Bec qui se Tend","type_roche":"calcaire","orientation":["N"],"lien_oblyk":"https://oblyk.org/crags/48/le-bec-qui-se-tend","lien_camptocamp":"https://www.camptocamp.org/waypoints/114498/fr/pont-de-barret-eson","source_id":"oblyk","topo_id":"escalade-drome-silex-2023","topo_page":null,"hauteur_max_voie_m":null,"parking_associe":["parking Pont-du-Barret proche Roubion"],"approche_min":[25],"approche_metre":[null],"nb_voie_total":17,"nb_voie_sportive":17,"nb_voie_trad":0,"nb_voie_artificielle":0,"nb_voie_moulinette":0,"categorie":"falaise","nb_couenne":17,"nb_gv":0,"cotations":{"6a+":1,"6b":2,"6b+":5,"6c":2,"6c+":3,"7a":2,"7b+":2},"routes":"pont-de-barret","routes_falaise":44},"geometry":{"type":"Point","coordinates":[5.014514,44.611083]}},{"type":"Feature","properties":{"nom":"Les Appories","site":"Pont-de-Barret","secteur":"Les Appories","type_roche":"calcaire","orientation":["O"],"lien_oblyk":"https://oblyk.org/crags/47/les-appories","lien_camptocamp":"https://www.camptocamp.org/waypoints/114498/fr/pont-de-barret-eson","source_id":"oblyk","topo_id":"escalade-drome-silex-2023","topo_page":null,"hauteur_max_voie_m":null,"parking_associe":["parking Pont-du-Barret proche Roubion"],"approche_min":[20],"approche_metre":[null],"nb_voie_total":11,"nb_voie_sportive":11,"nb_voie_trad":0,"nb_voie_artificielle":0,"nb_voie_moulinette":0,"categorie":"falaise","nb_couenne":11,"nb_gv":0,"cotations":{"5b":1,"6a":1,"6b":1,"6b+":1,"6c":2,"6c+":3,"7a":1,"7b":1},"routes":"pont-de-barret","routes_falaise":45},"geometry":{"type":"Point","coordinates":[5.016358,44.608452]}},{"type":"Feature","properties":{"nom":"Les Corybantes","site":"Pont-de-Barret","secteur":"Les Corybantes","type_roche":"calcaire","orientation":["O"],"lien_oblyk":"https://oblyk.org/crags/49/les-corybantes","lien_camptocamp":"https://www.camptocamp.org/waypoints/114498/fr/pont-de-barret-eson","source_id":"oblyk","topo_id":"escalade-drome-silex-2023","topo_page":null,"hauteur_max_voie_m":null,"parking_associe":["parking rue du commandant Chaix"],"approche_min":[21],"approche_metre":[null],"nb_voie_total":15,"nb_voie_sportive":15,"nb_voie_trad":0,"nb_voie_artificielle":0,"nb_voie_moulinette":0,"categorie":"falaise","nb_couenne":15,"nb_gv":0,"cotations":{"5a":1,"5b":1,"6a":1,"6a+":1,"6b":1,"6b+":1,"6c":1,"6c+":1,"7a+":4,"7b+":1,"7c+":1,"8a":1},"routes":"pont-de-barret","routes_falaise":46},"geometry":{"type":"Point","coordinates":[5.01905,44.606631]}},{"type":"Feature","properties":{"nom":"Les Rangs de Mars","site":"Pont-de-Barret","secteur":"Les Rangs de Mars","type_roche":"calcaire","orientation":["N"],"lien_oblyk":"https://oblyk.org/crags/3/les-rangs-de-mars","lien_camptocamp":"https://www.camptocamp.org/waypoints/114498/fr/pont-de-barret-eson","source_id":"oblyk","topo_id":"escalade-drome-silex-2023","topo_page":null,"hauteur_max_voie_m":null,"parking_associe":["parking rue du commandant Chaix"],"approche_min":[5],"approche_metre":[null],"nb_voie_total":19,"nb_voie_sportive":19,"nb_voie_trad":0,"nb_voie_artificielle":0,"nb_voie_moulinette":0,"categorie":"falaise","nb_couenne":19,"nb_gv":0,"cotations":{"6a":1,"6b":1,"7b":1,"7c":2,"7c+":5,"8a":4,"8a+":3,"8b":1,"8c":1},"routes":"pont-de-barret","routes_falaise":47},"geometry":{"type":"Point","coordinates":[5.015057,44.604234]}},{"type":"Feature","properties":{"nom":"Suzette flipo et Ricky banlieue","site":"Pont-de-Barret","secteur":"Suzette flipo et Ricky banlieue","type_roche":"calcaire","orientation":["S","SE"],"lien_oblyk":"https://oblyk.org/crags/30/suzette-flipo-et-ricky-banlieue","lien_camptocamp":"https://www.camptocamp.org/waypoints/139878/fr/pont-de-barret-suzette-flipo-et-ricky-banlieue","source_id":"oblyk","topo_id":"escalade-drome-silex-2023","topo_page":null,"hauteur_max_voie_m":null,"parking_associe":["parking Pont-du-Barret proche Roubion"],"approche_min":[7],"approche_metre":[null],"nb_voie_total":40,"nb_voie_sportive":40,"nb_voie_trad":0,"nb_voie_artificielle":0,"nb_voie_moulinette":0,"categorie":"falaise","nb_couenne":40,"nb_gv":0,"cotations":{"4b":2,"4c":3,"5a":4,"5b":6,"5c":6,"6a":6,"6a+":4,"6a-":4,"6b":1,"6b+":1,"6c":1,"7a+":1,"7c":1},"routes":"pont-de-barret","routes_falaise":48},"geometry":{"type":"Point","coordinates":[5.012852,44.607356]}},{"type":"Feature","properties":{"nom":"Rocher de Chironne","site":"Rocher de Chironne","secteur":"Rocher de Chironne","type_roche":"calcaire","orientation":["E"],"lien_oblyk":"https://oblyk.org/crags/2197/rocher-de-chironne","lien_camptocamp":null,"source_id":"escalade-drome-2020","topo_id":"escalade-drome-silex-2023","topo_page":null,"hauteur_max_voie_m":130,"parking_associe":["parking avant tunnel col du Rousset"],"approche_min":[10],"approche_metre":[550],"nb_voie_total":13,"nb_voie_sportive":13,"nb_voie_trad":0,"nb_voie_artificielle":0,"nb_voie_moulinette":0,"categorie":"falaise","nb_couenne":6,"nb_gv":7,"cotations":{"4c":2,"5a":1,"5b":3,"5b+":1,"5c":1,"6b":1,"6c":1,"7b+":2},"routes":"rocher-de-chironne","routes_falaise":49},"geometry":{"type":"Point","coordinates":[5.391514,44.840549]}},{"type":"Feature","properties":{"nom":"Rocher des Amayères","site":"Rocher des Amayères","secteur":"Les Amayères","type_roche":"calcaire","orientation":["SE"],"lien_oblyk":null,"lien_camptocamp":null,"source_id":"escalade-drome-2020","topo_id":"escalade-drome-silex-2023","topo_page":null,"hauteur_max_voie_m":15,"parking_associe":["parking Grisail"],"approche_min":[10],"approche_metre":[400],"nb_voie_total":18,"nb_voie_sportive":18,"nb_voie_trad":0,"nb_voie_artificielle":0,"nb_voie_moulinette":0,"categorie":"falaise","nb_couenne":18,"nb_gv":0,"cotations":{"3c":1,"4a":3,"4b":1,"4c":2,"5a":4,"5b":2,"5c":2,"6a":1,"6b":1,"6c":1},"routes":"rocher-des-amayeres","routes_falaise":50},"geometry":{"type":"Point","coordinates":[5.704579,44.686544]}},{"type":"Feature","properties":{"nom":"Romeyer","site":"Romeyer","secteur":"Fou 1","type_roche":"calcaire","orientation":["O"],"lien_oblyk":"https://oblyk.org/crags/200/romeyer","lien_camptocamp":"https://www.camptocamp.org/waypoints/114500/fr/romeyer","source_id":"escalade-drome-2020","topo_id":"escalade-drome-2020","topo_page":"198","hauteur_max_voie_m":35,"parking_associe":["parking entre canal et rivière D742"],"approche_min":[10],"approche_metre":[null],"nb_voie_total":12,"nb_voie_sportive":12,"nb_voie_trad":0,"nb_voie_artificielle":0,"nb_voie_moulinette":0,"categorie":"falaise","nb_couenne":11,"nb_gv":1,"cotations":{"6c":1,"6c+":1,"7a":1,"7a+":2,"7b":2,"7b+":2,"7c":2,"8":1},"routes":"romeyer","routes_falaise":51},"geometry":{"type":"Point","coordinates":[5.40138,44.770483]}},{"type":"Feature","properties":{"nom":"Romeyer","site":"Romeyer","secteur":"Fous 2","type_roche":"calcaire","orientation":["O"],"lien_oblyk":"https://oblyk.org/crags/200/romeyer","lien_camptocamp":"https://www.camptocamp.org/waypoints/114500/fr/romeyer","source_id":"escalade-drome-2020","topo_id":"escalade-drome-2020","topo_page":"200","hauteur_max_voie_m":36,"parking_associe":["parking entre canal et rivière D742"],"approche_min":[15],"approche_metre":[null],"nb_voie_total":34,"nb_voie_sportive":34,"nb_voie_trad":0,"nb_voie_artificielle":0,"nb_voie_moulinette":0,"categorie":"falaise","nb_couenne":30,"nb_gv":4,"cotations":{"7b+":2,"7c":2,"7c+":4,"8a":5,"8a+":12,"8b":4,"8b+":3,"8c":2},"routes":"romeyer","routes_falaise":52},"geometry":{"type":"Point","coordinates":[5.40147,44.770029]}},{"type":"Feature","properties":{"nom":"Romeyer","site":"Romeyer","secteur":"Grand Duc","type_roche":"calcaire","orientation":["O"],"lien_oblyk":"https://oblyk.org/crags/200/romeyer","lien_camptocamp":"https://www.camptocamp.org/waypoints/114500/fr/romeyer","source_id":"escalade-drome-2020","topo_id":"escalade-drome-2020","topo_page":"196","hauteur_max_voie_m":50,"parking_associe":["parking entre canal et rivière D742"],"approche_min":[5],"approche_metre":[null],"nb_voie_total":18,"nb_voie_sportive":18,"nb_voie_trad":0,"nb_voie_artificielle":0,"nb_voie_moulinette":0,"categorie":"falaise","nb_couenne":13,"nb_gv":5,"cotations":{"5c":1,"6a":1,"6a+":1,"6b+":2,"6c":3,"6c+":2,"7a":6,"7a+":1,"7b+":1},"routes":"romeyer","routes_falaise":53},"geometry":{"type":"Point","coordinates":[5.401058,44.771366]}},{"type":"Feature","properties":{"nom":"Romeyer","site":"Romeyer","secteur":"Jardin","type_roche":"calcaire","orientation":["O"],"lien_oblyk":"https://oblyk.org/crags/200/romeyer","lien_camptocamp":"https://www.camptocamp.org/waypoints/114500/fr/romeyer","source_id":"escalade-drome-2020","topo_id":"escalade-drome-2020","topo_page":"198","hauteur_max_voie_m":45,"parking_associe":["parking entre canal et rivière D742"],"approche_min":[10],"approche_metre":[null],"nb_voie_total":13,"nb_voie_sportive":13,"nb_voie_trad":0,"nb_voie_artificielle":0,"nb_voie_moulinette":0,"categorie":"falaise","nb_couenne":7,"nb_gv":6,"cotations":{"5a+":2,"5b":3,"5b+":1,"5c":1,"6a":1,"6b":1,"6c+":1,"7b":1,"7b+":1,"7c+":1},"routes":"romeyer","routes_falaise":54},"geometry":{"type":"Point","coordinates":[5.401154,44.771095]}},{"type":"Feature","properties":{"nom":"Romeyer","site":"Romeyer","secteur":"L’Observatoire","type_roche":"calcaire","orientation":["S"],"lien_oblyk":"https://oblyk.org/crags/200/romeyer","lien_camptocamp":"https://www.camptocamp.org/waypoints/114500/fr/romeyer","source_id":"escalade-drome-2020","topo_id":"escalade-drome-2020","topo_page":"186","hauteur_max_voie_m":40,"parking_associe":["parking entre canal et rivière D742"],"approche_min":[30],"approche_metre":[null],"nb_voie_total":10,"nb_voie_sportive":10,"nb_voie_trad":0,"nb_voie_artificielle":0,"nb_voie_moulinette":0,"categorie":"falaise","nb_couenne":7,"nb_gv":3,"cotations":{"6c":1,"7a+":1,"7c":1,"8":1,"8a":1,"8a+":1,"8b":4},"routes":"romeyer","routes_falaise":55},"geometry":{"type":"Point","coordinates":[5.396119,44.772774]}},{"type":"Feature","properties":{"nom":"Romeyer","site":"Romeyer","secteur":"Matuvu","type_roche":"calcaire","orientation":["SE"],"lien_oblyk":"https://oblyk.org/crags/200/romeyer","lien_camptocamp":"https://www.camptocamp.org/waypoints/114500/fr/romeyer","source_id":"escalade-drome-2020","topo_id":"escalade-drome-2020","topo_page":"192","hauteur_max_voie_m":30,"parking_associe":["parking entre canal et rivière D742"],"approche_min":[1],"approche_metre":[null],"nb_voie_total":13,"nb_voie_sportive":13,"nb_voie_trad":0,"nb_voie_artificielle":0,"nb_voie_moulinette":0,"categorie":"falaise","nb_couenne":12,"nb_gv":1,"cotations":{"4b":1,"4c":1,"5c":1,"6c":1,"7a":1,"7b":2,"7b+":1,"8a":2,"8a+":2,"8b":1},"routes":"romeyer","routes_falaise":56},"geometry":{"type":"Point","coordinates":[5.400685,44.772506]}},{"type":"Feature","properties":{"nom":"Romeyer","site":"Romeyer","secteur":"Meyrosse","type_roche":"calcaire","orientation":["SO"],"lien_oblyk":"https://oblyk.org/crags/200/romeyer","lien_camptocamp":"https://www.camptocamp.org/waypoints/114500/fr/romeyer","source_id":"escalade-drome-2020","topo_id":"escalade-drome-2020","topo_page":"190","hauteur_max_voie_m":35,"parking_associe":["parking entre canal et rivière D742"],"approche_min":[12],"approche_metre":[null],"nb_voie_total":27,"nb_voie_sportive":27,"nb_voie_trad":0,"nb_voie_artificielle":0,"nb_voie_moulinette":0,"categorie":"falaise","nb_couenne":25,"nb_gv":2,"cotations":{"5a":1,"5b":2,"6a":1,"6a+":2,"6b":1,"6b+":1,"6c":1,"6c+":1,"7a":2,"7a+":2,"7b":3,"7c":2,"7c+":2,"8a":2,"8a+":2,"8b":1,"8b+":1},"routes":"romeyer","routes_falaise":57},"geometry":{"type":"Point","coordinates":[5.400024,44.772555]}},{"type":"Feature","properties":{"nom":"Romeyer","site":"Romeyer","secteur":"Small Crack","type_roche":"calcaire","orientation":["SE"],"lien_oblyk":"https://oblyk.org/crags/200/romeyer","lien_camptocamp":"https://www.camptocamp.org/waypoints/114500/fr/romeyer","source_id":"escalade-drome-2020","topo_id":"escalade-drome-2020","topo_page":"194","hauteur_max_voie_m":50,"parking_associe":["parking entre canal et rivière D742"],"approche_min":[1],"approche_metre":[null],"nb_voie_total":27,"nb_voie_sportive":27,"nb_voie_trad":0,"nb_voie_artificielle":0,"nb_voie_moulinette":0,"categorie":"falaise","nb_couenne":24,"nb_gv":3,"cotations":{"6a":1,"6b+":1,"6c":1,"6c+":3,"7a":1,"7a+":1,"7b":1,"7b+":3,"7c":3,"7c+":4,"8a":3,"8a+":1,"8b":3,"8c+":1},"routes":"romeyer","routes_falaise":58},"geometry":{"type":"Point","coordinates":[5.40081,44.772035]}},{"type":"Feature","properties":{"nom":"Romeyer","site":"Romeyer","secteur":"Usine à gaz","type_roche":"calcaire","orientation":["S"],"lien_oblyk":"https://oblyk.org/crags/200/romeyer","lien_camptocamp":"https://www.camptocamp.org/waypoints/114500/fr/romeyer","source_id":"escalade-drome-2020","topo_id":"escalade-drome-2020","topo_page":"188","hauteur_max_voie_m":50,"parking_associe":["parking entre canal et rivière D742"],"approche_min":[14],"approche_metre":[null],"nb_voie_total":27,"nb_voie_sportive":24,"nb_voie_trad":1,"nb_voie_artificielle":2,"nb_voie_moulinette":0,"categorie":"falaise","nb_couenne":21,"nb_gv":3,"cotations":{"6b":1,"7b":1,"7b+":2,"7c":2,"7c+":5,"8a":2,"8a+":2,"8b":2,"8b+":2,"8c":1,"8c+":3,"9b":1},"routes":"romeyer","routes_falaise":59},"geometry":{"type":"Point","coordinates":[5.398187,44.772714]}},{"type":"Feature","properties":{"nom":"La Poupoune","site":"Saoû I","secteur":"Attentat au Picodon","type_roche":"calcaire","orientation":["S"],"lien_oblyk":"https://oblyk.org/crags/40/la-poupoune","lien_camptocamp":"https://www.camptocamp.org/waypoints/128546/fr/saou-la-poupoune","source_id":"escalade-drome-2020","topo_id":"escalade-drome-2020","topo_page":"60","hauteur_max_voie_m":45,"parking_associe":["parking Roche Colombe"],"approche_min":[20],"approche_metre":[null],"nb_voie_total":10,"nb_voie_sportive":10,"nb_voie_trad":0,"nb_voie_artificielle":0,"nb_voie_moulinette":0,"categorie":"falaise","nb_couenne":9,"nb_gv":1,"cotations":{"5a":1,"5c":1,"6a":1,"6b":1,"6b+":1,"6c":1,"7b":1,"7b+":1,"7c":1,"8a+":1},"routes":"saou-i","routes_falaise":60},"geometry":{"type":"Point","coordinates":[5.049031,44.656083]}},{"type":"Feature","properties":{"nom":"La Poupoune","site":"Saoû I","secteur":"Champagne pour tout le monde","type_roche":"calcaire","orientation":["S"],"lien_oblyk":"https://oblyk.org/crags/40/la-poupoune","lien_camptocamp":"https://www.camptocamp.org/waypoints/128546/fr/saou-la-poupoune","source_id":"escalade-drome-2020","topo_id":"escalade-drome-2020","topo_page":"58","hauteur_max_voie_m":100,"parking_associe":["parking Roche Colombe"],"approche_min":[30],"approche_metre":[null],"nb_voie_total":23,"nb_voie_sportive":23,"nb_voie_trad":0,"nb_voie_artificielle":0,"nb_voie_moulinette":0,"categorie":"falaise","nb_couenne":22,"nb_gv":1,"cotations":{"5b":1,"5c":2,"6a":1,"6a+":1,"6b":2,"6b+":2,"6c":2,"7a+":3,"7b":3,"7b+":3,"7c":2,"8a":1},"routes":"saou-i","routes_falaise":61},"geometry":{"type":"Point","coordinates":[5.049679,44.656249]}},{"type":"Feature","properties":{"nom":"La Poupoune","site":"Saoû I","secteur":"Choucas","type_roche":"calcaire","orientation":["S"],"lien_oblyk":"https://oblyk.org/crags/40/la-poupoune","lien_camptocamp":"https://www.camptocamp.org/waypoints/128546/fr/saou-la-poupoune","source_id":"escalade-drome-2020","topo_id":"escalade-drome-2020","topo_page":"60","hauteur_max_voie_m":50,"parking_associe":["parking Roche Colombe"],"approche_min":[20],"approche_metre":[null],"nb_voie_total":18,"nb_voie_sportive":18,"nb_voie_trad":0,"nb_voie_artificielle":0,"nb_voie_moulinette":0,"categorie":"falaise","nb_couenne":11,"nb_gv":7,"cotations":{"4c":3,"6a":3,"6a+":2,"6b":6,"6b+":3,"7a":1},"routes":"saou-i","routes_falaise":62},"geometry":{"type":"Point","coordinates":[5.049717,44.655882]}},{"type":"Feature","properties":{"nom":"Mur des Étoiles","site":"Saoû I","secteur":"Mur des Étoiles","type_roche":"calcaire","orientation":["S"],"lien_oblyk":"https://oblyk.org/crags/26/le-mur-des-etoiles","lien_camptocamp":"https://www.camptocamp.org/waypoints/191966/fr/saou-mur-des-etoiles","source_id":"escalade-drome-2020","topo_id":"escalade-drome-2020","topo_page":"64","hauteur_max_voie_m":20,"parking_associe":["grand parking Le Clos"],"approche_min":[15],"approche_metre":[1000],"nb_voie_total":15,"nb_voie_sportive":15,"nb_voie_trad":0,"nb_voie_artificielle":0,"nb_voie_moulinette":0,"categorie":"falaise","nb_couenne":15,"nb_gv":0,"cotations":{"6a":1,"6b+":2,"6c":1,"6c+":1,"7a":2,"7a+":2,"7b":2,"7b+":2,"7c":1,"7c+":1},"routes":"saou-i","routes_falaise":63},"geometry":{"type":"Point","coordinates":[5.064889,44.65282]}},{"type":"Feature","properties":{"nom":"Mur du Son","site":"Saoû I","secteur":"Mur du Son","type_roche":"calcaire","orientation":["S"],"lien_oblyk":"https://oblyk.org/crags/34/mur-du-son","lien_camptocamp":"https://www.camptocamp.org/waypoints/173315/fr/saou-falaise-de-la-barre-mur-du-son","source_id":"escalade-drome-2020","topo_id":"escalade-drome-2020","topo_page":"62","hauteur_max_voie_m":25,"parking_associe":["petit parking sur chemin goudronné de Roche Colombe"],"approche_min":[30],"approche_metre":[650],"nb_voie_total":36,"nb_voie_sportive":36,"nb_voie_trad":0,"nb_voie_artificielle":0,"nb_voie_moulinette":0,"categorie":"falaise","nb_couenne":36,"nb_gv":0,"cotations":{"5a":1,"5b":4,"5c":1,"5c+":2,"6a":5,"6a+":8,"6b":6,"6b+":3,"6c":3,"6c+":1,"7a":1,"7b+":1},"routes":"saou-i","routes_falaise":64},"geometry":{"type":"Point","coordinates":[5.057669,44.655367]}},{"type":"Feature","properties":{"nom":"Mur du Vent","site":"Saoû I","secteur":"Mur du Vent","type_roche":"calcaire","orientation":["S"],"lien_oblyk":"https://oblyk.org/crags/2761/mur-du-vent","lien_camptocamp":null,"source_id":"escalade-drome-2020","topo_id":"escalade-drome-2020","topo_page":"64","hauteur_max_voie_m":20,"parking_associe":["grand parking Le Clos"],"approche_min":[15],"approche_metre":[1000],"nb_voie_total":25,"nb_voie_sportive":25,"nb_voie_trad":0,"nb_voie_artificielle":0,"nb_voie_moulinette":0,"categorie":"falaise","nb_couenne":25,"nb_gv":0,"cotations":{"5b":2,"5c":1,"6a":1,"6a+":2,"6b":3,"6b+":2,"6c+":3,"7a":2,"7a+":2,"7b":2,"7b+":1,"7c":2,"7c+":2},"routes":"saou-i","routes_falaise":65},"geometry":{"type":"Point","coordinates":[5.067907,44.652198]}},{"type":"Feature","properties":{"nom":"Roche Colombe","site":"Saoû I","secteur":"Échafaudage volant","type_roche":"calcaire","orientation":["S"],"lien_oblyk":"https://oblyk.org/crags/39/roche-colombe","lien_camptocamp":"https://www.camptocamp.org/waypoints/191964/fr/saou-roche-colombe","source_id":"escalade-drome-2020","topo_id":"escalade-drome-2020","topo_page":"52","hauteur_max_voie_m":25,"parking_associe":["parking Roche Colombe"],"approche_min":[35],"approche_metre":[null],"nb_voie_total":18,"nb_voie_sportive":18,"nb_voie_trad":0,"nb_voie_artificielle":0,"nb_voie_moulinette":0,"categorie":"falaise","nb_couenne":18,"nb_gv":0,"cotations":{"5b":1,"6a":2,"6a+":3,"6b":3,"6b+":1,"6c":1,"6c+":3,"7a":3,"7a+":1},"routes":"saou-i","routes_falaise":66},"geometry":{"type":"Point","coordinates":[5.046197,44.657227]}},{"type":"Feature","properties":{"nom":"Roche Colombe","site":"Saoû I","secteur":"Lézard qui danse","type_roche":"calcaire","orientation":["S"],"lien_oblyk":"https://oblyk.org/crags/39/roche-colombe","lien_camptocamp":"https://www.camptocamp.org/waypoints/191964/fr/saou-roche-colombe","source_id":"escalade-drome-2020","topo_id":"escalade-drome-2020","topo_page":"52","hauteur_max_voie_m":70,"parking_associe":["parking Roche Colombe"],"approche_min":[35],"approche_metre":[null],"nb_voie_total":15,"nb_voie_sportive":13,"nb_voie_trad":2,"nb_voie_artificielle":0,"nb_voie_moulinette":0,"categorie":"falaise","nb_couenne":12,"nb_gv":1,"cotations":{"5b":2,"5c":1,"6a":1,"6a+":1,"6b":1,"6c":1,"6c+":1,"7a":1,"7a+":1,"7b":1,"7b+":1,"7c":1},"routes":"saou-i","routes_falaise":67},"geometry":{"type":"Point","coordinates":[5.046679,44.657073]}},{"type":"Feature","properties":{"nom":"Roche Colombe","site":"Saoû I","secteur":"Opéra","type_roche":"calcaire","orientation":["S"],"lien_oblyk":"https://oblyk.org/crags/39/roche-colombe","lien_camptocamp":"https://www.camptocamp.org/waypoints/191964/fr/saou-roche-colombe","source_id":"escalade-drome-2020","topo_id":"escalade-drome-2020","topo_page":"54","hauteur_max_voie_m":70,"parking_associe":["parking Roche Colombe"],"approche_min":[25],"approche_metre":[null],"nb_voie_total":8,"nb_voie_sportive":8,"nb_voie_trad":0,"nb_voie_artificielle":0,"nb_voie_moulinette":0,"categorie":"falaise","nb_couenne":4,"nb_gv":4,"cotations":{"6b+":1,"6c":3,"6c+":1,"7a":1,"7a+":1,"7b+":1},"routes":"saou-i","routes_falaise":68},"geometry":{"type":"Point","coordinates":[5.047468,44.656922]}},{"type":"Feature","properties":{"nom":"Roche Colombe","site":"Saoû I","secteur":"Pyramania","type_roche":"calcaire","orientation":["S"],"lien_oblyk":"https://oblyk.org/crags/39/roche-colombe","lien_camptocamp":"https://www.camptocamp.org/waypoints/107114/fr/saou-roche-colombe","source_id":"escalade-drome-2020","topo_id":"escalade-drome-2020","topo_page":"56","hauteur_max_voie_m":70,"parking_associe":["parking Roche Colombe"],"approche_min":[20],"approche_metre":[null],"nb_voie_total":22,"nb_voie_sportive":22,"nb_voie_trad":0,"nb_voie_artificielle":0,"nb_voie_moulinette":0,"categorie":"falaise","nb_couenne":21,"nb_gv":1,"cotations":{"5a":2,"5b":1,"5c":1,"6a":2,"6b":2,"6b+":4,"6c":2,"6c+":2,"7a":2,"7b":1,"7c":1,"8a":1,"8b":1},"routes":"saou-i","routes_falaise":69},"geometry":{"type":"Point","coordinates":[5.048231,44.656712]}},{"type":"Feature","properties":{"nom":"Grand Regardé","site":"Saoû II","secteur":"Drayas","type_roche":"calcaire","orientation":["SE"],"lien_oblyk":"https://oblyk.org/crags/37/le-grand-regarde","lien_camptocamp":null,"source_id":"escalade-drome-2020","topo_id":"escalade-drome-2020","topo_page":"76","hauteur_max_voie_m":70,"parking_associe":["grand parking aménagé D136"],"approche_min":[20],"approche_metre":[null],"nb_voie_total":5,"nb_voie_sportive":5,"nb_voie_trad":0,"nb_voie_artificielle":0,"nb_voie_moulinette":0,"categorie":"falaise","nb_couenne":1,"nb_gv":4,"cotations":{"6c":1,"6c+":1,"7a":2,"7b":1},"routes":"saou-ii","routes_falaise":70},"geometry":{"type":"Point","coordinates":[5.071864,44.652038]}},{"type":"Feature","properties":{"nom":"Grand Regardé","site":"Saoû II","secteur":"Histoire sans fin","type_roche":"calcaire","orientation":["SE"],"lien_oblyk":"https://oblyk.org/crags/37/le-grand-regarde","lien_camptocamp":null,"source_id":"escalade-drome-2020","topo_id":"escalade-drome-2020","topo_page":"76","hauteur_max_voie_m":30,"parking_associe":["grand parking aménagé D136"],"approche_min":[20],"approche_metre":[null],"nb_voie_total":4,"nb_voie_sportive":4,"nb_voie_trad":0,"nb_voie_artificielle":0,"nb_voie_moulinette":0,"categorie":"falaise","nb_couenne":4,"nb_gv":0,"cotations":{"6b+":2,"6c":1,"6c+":1},"routes":"saou-ii","routes_falaise":71},"geometry":{"type":"Point","coordinates":[5.071968,44.652115]}},{"type":"Feature","properties":{"nom":"Grand Regardé","site":"Saoû II","secteur":"Mur des Primates","type_roche":"calcaire","orientation":["S"],"lien_oblyk":"https://oblyk.org/crags/37/le-grand-regarde","lien_camptocamp":"https://www.camptocamp.org/waypoints/265813/fr/saou-mur-des-primates","source_id":"escalade-drome-2020","topo_id":"escalade-drome-2020","topo_page":"74","hauteur_max_voie_m":10,"parking_associe":["grand parking aménagé D136"],"approche_min":[15],"approche_metre":[null],"nb_voie_total":10,"nb_voie_sportive":10,"nb_voie_trad":0,"nb_voie_artificielle":0,"nb_voie_moulinette":0,"categorie":"falaise","nb_couenne":10,"nb_gv":0,"cotations":{"5b":1,"5c":2,"6a":2,"6a+":2,"6b":1,"6b+":1,"6c":1},"routes":"saou-ii","routes_falaise":72},"geometry":{"type":"Point","coordinates":[5.071591,44.651867]}},{"type":"Feature","properties":{"nom":"Grand Regardé","site":"Saoû II","secteur":"Nuages","type_roche":"calcaire","orientation":["S"],"lien_oblyk":"https://oblyk.org/crags/37/le-grand-regarde","lien_camptocamp":null,"source_id":"escalade-drome-2020","topo_id":"escalade-drome-2020","topo_page":"74","hauteur_max_voie_m":18,"parking_associe":["grand parking aménagé D136"],"approche_min":[15],"approche_metre":[null],"nb_voie_total":11,"nb_voie_sportive":11,"nb_voie_trad":0,"nb_voie_artificielle":0,"nb_voie_moulinette":0,"categorie":"falaise","nb_couenne":11,"nb_gv":0,"cotations":{"6a":1,"6a+":1,"6b":1,"6c":1,"6c+":1,"7a":1,"7b":1,"7b+":1,"8a":1,"8a+":2},"routes":"saou-ii","routes_falaise":73},"geometry":{"type":"Point","coordinates":[5.071718,44.651925]}},{"type":"Feature","properties":{"nom":"Grand Regardé","site":"Saoû II","secteur":"Photo Souvenir","type_roche":"calcaire","orientation":["SE"],"lien_oblyk":"https://oblyk.org/crags/37/le-grand-regarde","lien_camptocamp":null,"source_id":"escalade-drome-2020","topo_id":"escalade-drome-2020","topo_page":"76","hauteur_max_voie_m":30,"parking_associe":["grand parking aménagé D136"],"approche_min":[20],"approche_metre":[null],"nb_voie_total":4,"nb_voie_sportive":4,"nb_voie_trad":0,"nb_voie_artificielle":0,"nb_voie_moulinette":0,"categorie":"falaise","nb_couenne":4,"nb_gv":0,"cotations":{"6b":2,"6b+":1,"6c+":1},"routes":"saou-ii","routes_falaise":74},"geometry":{"type":"Point","coordinates":[5.072247,44.652243]}},{"type":"Feature","properties":{"nom":"Grand Regardé","site":"Saoû II","secteur":"Pixote","type_roche":"calcaire","orientation":["SE"],"lien_oblyk":"https://oblyk.org/crags/37/le-grand-regarde","lien_camptocamp":null,"source_id":"escalade-drome-2020","topo_id":"escalade-drome-2020","topo_page":"76","hauteur_max_voie_m":45,"parking_associe":["grand parking aménagé D136"],"approche_min":[20],"approche_metre":[null],"nb_voie_total":7,"nb_voie_sportive":7,"nb_voie_trad":0,"nb_voie_artificielle":0,"nb_voie_moulinette":0,"categorie":"falaise","nb_couenne":4,"nb_gv":3,"cotations":{"5b":2,"5c":2,"6a+":1,"6b":1,"7a+":1},"routes":"saou-ii","routes_falaise":75},"geometry":{"type":"Point","coordinates":[5.072062,44.652174]}},{"type":"Feature","properties":{"nom":"La Ceyte","site":"Saoû II","secteur":"Grand Roux","type_roche":"calcaire","orientation":["S"],"lien_oblyk":"https://oblyk.org/crags/1939/la-ceyte","lien_camptocamp":null,"source_id":"escalade-drome-2020","topo_id":"escalade-drome-2020","topo_page":"98","hauteur_max_voie_m":null,"parking_associe":["parking sous un champ D136"],"approche_min":[50],"approche_metre":[null],"nb_voie_total":20,"nb_voie_sportive":18,"nb_voie_trad":2,"nb_voie_artificielle":0,"nb_voie_moulinette":0,"categorie":"falaise","nb_couenne":12,"nb_gv":6,"cotations":{"5b":1,"5c":1,"6a":6,"6a+":2,"6b":2,"6b+":2,"6c":2,"7a":1,"7b":1},"routes":"saou-ii","routes_falaise":76},"geometry":{"type":"Point","coordinates":[5.088149,44.65426]}},{"type":"Feature","properties":{"nom":"La Ceyte","site":"Saoû II","secteur":"Pantomime","type_roche":"calcaire","orientation":["S"],"lien_oblyk":"https://oblyk.org/crags/1939/la-ceyte","lien_camptocamp":"https://www.camptocamp.org/waypoints/139986/fr/saou-la-ceyte-w","source_id":"escalade-drome-2020","topo_id":"escalade-drome-2020","topo_page":"92","hauteur_max_voie_m":50,"parking_associe":["parking sous un champ D136"],"approche_min":[20],"approche_metre":[null],"nb_voie_total":6,"nb_voie_sportive":6,"nb_voie_trad":0,"nb_voie_artificielle":0,"nb_voie_moulinette":0,"categorie":"falaise","nb_couenne":6,"nb_gv":0,"cotations":{"5b":1,"6a+":2,"6b":2,"7a":1},"routes":"saou-ii","routes_falaise":77},"geometry":{"type":"Point","coordinates":[5.077934,44.653541]}},{"type":"Feature","properties":{"nom":"La Ceyte","site":"Saoû II","secteur":"Rêve orange","type_roche":"calcaire","orientation":["S"],"lien_oblyk":"https://oblyk.org/crags/1939/la-ceyte","lien_camptocamp":"https://www.camptocamp.org/waypoints/139986/fr/saou-la-ceyte-w","source_id":"escalade-drome-2020","topo_id":"escalade-drome-2020","topo_page":"92","hauteur_max_voie_m":45,"parking_associe":["parking sous un champ D136"],"approche_min":[20],"approche_metre":[null],"nb_voie_total":4,"nb_voie_sportive":4,"nb_voie_trad":0,"nb_voie_artificielle":0,"nb_voie_moulinette":0,"categorie":"falaise","nb_couenne":4,"nb_gv":0,"cotations":{"5c":1,"6a+":1,"6b":1,"6c":1},"routes":"saou-ii","routes_falaise":78},"geometry":{"type":"Point","coordinates":[5.079384,44.653755]}},{"type":"Feature","properties":{"nom":"La Ceyte","site":"Saoû II","secteur":"Soleil","type_roche":"calcaire","orientation":["S"],"lien_oblyk":"https://oblyk.org/crags/1939/la-ceyte","lien_camptocamp":"https://www.camptocamp.org/waypoints/139986/fr/saou-la-ceyte-w","source_id":"escalade-drome-2020","topo_id":"escalade-drome-2020","topo_page":"94;96","hauteur_max_voie_m":300,"parking_associe":["parking sous un champ D136"],"approche_min":[15],"approche_metre":[null],"nb_voie_total":18,"nb_voie_sportive":18,"nb_voie_trad":0,"nb_voie_artificielle":0,"nb_voie_moulinette":0,"categorie":"falaise","nb_couenne":14,"nb_gv":4,"cotations":{"5b":4,"5c":8,"6a":4,"6a+":1,"6b":1},"routes":"saou-ii","routes_falaise":79},"geometry":{"type":"Point","coordinates":[5.082035,44.653922]}},{"type":"Feature","properties":{"nom":"La Ceyte","site":"Saoû II","secteur":"Tête en l'air","type_roche":"calcaire","orientation":["S"],"lien_oblyk":"https://oblyk.org/crags/1939/la-ceyte","lien_camptocamp":"https://www.camptocamp.org/waypoints/139986/fr/saou-la-ceyte-w","source_id":"escalade-drome-2020","topo_id":"escalade-drome-2020","topo_page":"94;96","hauteur_max_voie_m":45,"parking_associe":["parking sous un champ D136"],"approche_min":[15],"approche_metre":[null],"nb_voie_total":11,"nb_voie_sportive":11,"nb_voie_trad":0,"nb_voie_artificielle":0,"nb_voie_moulinette":0,"categorie":"falaise","nb_couenne":10,"nb_gv":1,"cotations":{"4b":1,"5b+":1,"5c":3,"6a":1,"6a+":2,"6c+":1,"7a":1,"7b+":1},"routes":"saou-ii","routes_falaise":80},"geometry":{"type":"Point","coordinates":[5.080629,44.653894]}},{"type":"Feature","properties":{"nom":"La Graville","site":"Saoû II","secteur":"La Graville Est 1","type_roche":"calcaire","orientation":["NE"],"lien_oblyk":"https://oblyk.org/crags/25/la-graville","lien_camptocamp":"https://www.camptocamp.org/waypoints/114494/fr/saou-la-graville","source_id":"escalade-drome-2020","topo_id":"escalade-drome-2020","topo_page":"100","hauteur_max_voie_m":25,"parking_associe":["parking au milieu des pins"],"approche_min":[4],"approche_metre":[null],"nb_voie_total":12,"nb_voie_sportive":12,"nb_voie_trad":0,"nb_voie_artificielle":0,"nb_voie_moulinette":0,"categorie":"falaise","nb_couenne":12,"nb_gv":0,"cotations":{"4c":2,"5a":1,"5b":2,"5c+":1,"6a":2,"6b":2,"6b+":1,"7a":1},"routes":"saou-ii","routes_falaise":81},"geometry":{"type":"Point","coordinates":[5.079654,44.648588]}},{"type":"Feature","properties":{"nom":"La Graville","site":"Saoû II","secteur":"La Graville Est 2","type_roche":"calcaire","orientation":["NE"],"lien_oblyk":"https://oblyk.org/crags/25/la-graville","lien_camptocamp":"https://www.camptocamp.org/waypoints/114494/fr/saou-la-graville","source_id":"escalade-drome-2020","topo_id":"escalade-drome-2020","topo_page":"102","hauteur_max_voie_m":20,"parking_associe":["parking au milieu des pins"],"approche_min":[4],"approche_metre":[null],"nb_voie_total":7,"nb_voie_sportive":7,"nb_voie_trad":0,"nb_voie_artificielle":0,"nb_voie_moulinette":0,"categorie":"falaise","nb_couenne":7,"nb_gv":0,"cotations":{"4b":2,"4c":2,"5a":1,"5b+":1,"6a+":1},"routes":"saou-ii","routes_falaise":82},"geometry":{"type":"Point","coordinates":[5.079394,44.648663]}},{"type":"Feature","properties":{"nom":"La Graville","site":"Saoû II","secteur":"La Graville Est 3","type_roche":"calcaire","orientation":["NE"],"lien_oblyk":"https://oblyk.org/crags/25/la-graville","lien_camptocamp":"https://www.camptocamp.org/waypoints/114494/fr/saou-la-graville","source_id":"escalade-drome-2020","topo_id":"escalade-drome-2020","topo_page":"104","hauteur_max_voie_m":25,"parking_associe":["parking au milieu des pins"],"approche_min":[4],"approche_metre":[null],"nb_voie_total":6,"nb_voie_sportive":6,"nb_voie_trad":0,"nb_voie_artificielle":0,"nb_voie_moulinette":0,"categorie":"falaise","nb_couenne":6,"nb_gv":0,"cotations":{"3b":1,"4c":1,"5b":1,"5c":1,"6a":1,"6b":1},"routes":"saou-ii","routes_falaise":83},"geometry":{"type":"Point","coordinates":[5.079218,44.648725]}},{"type":"Feature","properties":{"nom":"La Graville","site":"Saoû II","secteur":"La Graville Est 4","type_roche":"calcaire","orientation":["NE"],"lien_oblyk":"https://oblyk.org/crags/25/la-graville","lien_camptocamp":"https://www.camptocamp.org/waypoints/114494/fr/saou-la-graville","source_id":"escalade-drome-2020","topo_id":"escalade-drome-2020","topo_page":"106","hauteur_max_voie_m":25,"parking_associe":["parking au milieu des pins"],"approche_min":[4],"approche_metre":[null],"nb_voie_total":11,"nb_voie_sportive":11,"nb_voie_trad":0,"nb_voie_artificielle":0,"nb_voie_moulinette":0,"categorie":"falaise","nb_couenne":11,"nb_gv":0,"cotations":{"4a":1,"5b":1,"5c":4,"5c+":2,"6a":2,"6a+":1},"routes":"saou-ii","routes_falaise":84},"geometry":{"type":"Point","coordinates":[5.07903,44.648823]}},{"type":"Feature","properties":{"nom":"La Graville","site":"Saoû II","secteur":"La Graville Nord","type_roche":"calcaire","orientation":["N","NE","NO"],"lien_oblyk":"https://oblyk.org/crags/25/la-graville","lien_camptocamp":"https://www.camptocamp.org/waypoints/114494/fr/saou-la-graville","source_id":"escalade-drome-2020","topo_id":"escalade-drome-2020","topo_page":"108","hauteur_max_voie_m":25,"parking_associe":["parking au milieu des pins"],"approche_min":[4],"approche_metre":[null],"nb_voie_total":22,"nb_voie_sportive":22,"nb_voie_trad":0,"nb_voie_artificielle":0,"nb_voie_moulinette":0,"categorie":"falaise","nb_couenne":22,"nb_gv":0,"cotations":{"3b":3,"4a":1,"4b":1,"4c":2,"5b":3,"5c":6,"6a":1,"6a+":1,"6b":1,"6b+":1,"6c":1,"7b":1},"routes":"saou-ii","routes_falaise":85},"geometry":{"type":"Point","coordinates":[5.078649,44.648915]}},{"type":"Feature","properties":{"nom":"La Graville","site":"Saoû II","secteur":"La Graville Ouest","type_roche":"calcaire","orientation":["NO"],"lien_oblyk":"https://oblyk.org/crags/25/la-graville","lien_camptocamp":"https://www.camptocamp.org/waypoints/114494/fr/saou-la-graville","source_id":"escalade-drome-2020","topo_id":"escalade-drome-2020","topo_page":"110","hauteur_max_voie_m":15,"parking_associe":["parking au milieu des pins"],"approche_min":[4],"approche_metre":[null],"nb_voie_total":20,"nb_voie_sportive":20,"nb_voie_trad":0,"nb_voie_artificielle":0,"nb_voie_moulinette":0,"categorie":"falaise","nb_couenne":19,"nb_gv":1,"cotations":{"3b":2,"4b":2,"4c":1,"5b":3,"5c":3,"6a":3,"6a+":1,"6b":2,"6b+":1,"7a":1,"8":1},"routes":"saou-ii","routes_falaise":86},"geometry":{"type":"Point","coordinates":[5.078333,44.648701]}},{"type":"Feature","properties":{"nom":"La Tour","site":"Saoû II","secteur":"Arête","type_roche":"calcaire","orientation":["S"],"lien_oblyk":"https://oblyk.org/crags/4322/la-tour","lien_camptocamp":"https://www.camptocamp.org/waypoints/192934/fr/saou-aiguille-de-la-tour","source_id":"escalade-drome-2020","topo_id":"escalade-drome-2020","topo_page":"82;84","hauteur_max_voie_m":200,"parking_associe":["grand parking aménagé D136"],"approche_min":[10],"approche_metre":[null],"nb_voie_total":28,"nb_voie_sportive":26,"nb_voie_trad":2,"nb_voie_artificielle":0,"nb_voie_moulinette":0,"categorie":"falaise","nb_couenne":21,"nb_gv":5,"cotations":{"4c":1,"5b":1,"5c":4,"6a":4,"6a+":9,"6b":4,"6c+":2,"7a+":1},"routes":"saou-ii","routes_falaise":87},"geometry":{"type":"Point","coordinates":[5.072536,44.650478]}},{"type":"Feature","properties":{"nom":"La Tour","site":"Saoû II","secteur":"Cathy","type_roche":"calcaire","orientation":["S","SE"],"lien_oblyk":"https://oblyk.org/crags/4322/la-tour","lien_camptocamp":"https://www.camptocamp.org/waypoints/192934/fr/saou-aiguille-de-la-tour","source_id":"escalade-drome-2020","topo_id":"escalade-drome-2020","topo_page":"86;88;90","hauteur_max_voie_m":200,"parking_associe":["grand parking aménagé D136"],"approche_min":[20],"approche_metre":[null],"nb_voie_total":28,"nb_voie_sportive":24,"nb_voie_trad":4,"nb_voie_artificielle":0,"nb_voie_moulinette":0,"categorie":"falaise","nb_couenne":17,"nb_gv":7,"cotations":{"5b":1,"5b+":1,"5c":1,"6a":3,"6a+":3,"6b":2,"6b+":2,"6c":4,"6c+":1,"7a":1,"7a+":1,"7b":4},"routes":"saou-ii","routes_falaise":88},"geometry":{"type":"Point","coordinates":[5.07346,44.65128]}},{"type":"Feature","properties":{"nom":"La Tour","site":"Saoû II","secteur":"Guet Apens","type_roche":"calcaire","orientation":["O"],"lien_oblyk":"https://oblyk.org/crags/4322/la-tour","lien_camptocamp":"https://www.camptocamp.org/waypoints/192934/fr/saou-aiguille-de-la-tour","source_id":"escalade-drome-2020","topo_id":"escalade-drome-2020","topo_page":"78","hauteur_max_voie_m":130,"parking_associe":["grand parking aménagé D136"],"approche_min":[15],"approche_metre":[null],"nb_voie_total":21,"nb_voie_sportive":21,"nb_voie_trad":0,"nb_voie_artificielle":0,"nb_voie_moulinette":0,"categorie":"falaise","nb_couenne":16,"nb_gv":5,"cotations":{"6":1,"6a":1,"6b+":1,"6c":2,"6c+":5,"7a":2,"7a+":3,"7b":2,"7b+":2,"7c":2},"routes":"saou-ii","routes_falaise":89},"geometry":{"type":"Point","coordinates":[5.071919,44.651288]}},{"type":"Feature","properties":{"nom":"La Tour","site":"Saoû II","secteur":"Voyage et du Vent","type_roche":"calcaire","orientation":["O"],"lien_oblyk":"https://oblyk.org/crags/4322/la-tour","lien_camptocamp":"https://www.camptocamp.org/waypoints/192934/fr/saou-aiguille-de-la-tour","source_id":"escalade-drome-2020","topo_id":"escalade-drome-2020","topo_page":"80","hauteur_max_voie_m":120,"parking_associe":["grand parking aménagé D136"],"approche_min":[15],"approche_metre":[null],"nb_voie_total":8,"nb_voie_sportive":8,"nb_voie_trad":0,"nb_voie_artificielle":0,"nb_voie_moulinette":0,"categorie":"falaise","nb_couenne":1,"nb_gv":7,"cotations":{"5c":2,"6a":1,"6a+":1,"6b":1,"6c":2,"7a":1},"routes":"saou-ii","routes_falaise":90},"geometry":{"type":"Point","coordinates":[5.071687,44.650643]}},{"type":"Feature","properties":{"nom":"Le Palloir","site":"Saoû II","secteur":"Bousodrome","type_roche":"calcaire","orientation":["N"],"lien_oblyk":"https://oblyk.org/crags/45/le-palloir","lien_camptocamp":"https://www.camptocamp.org/waypoints/114499/fr/saou-baume-du-palloir","source_id":"escalade-drome-2020","topo_id":"escalade-drome-2020","topo_page":"112","hauteur_max_voie_m":35,"parking_associe":["parking au milieu des pins"],"approche_min":[10],"approche_metre":[null],"nb_voie_total":14,"nb_voie_sportive":13,"nb_voie_trad":0,"nb_voie_artificielle":1,"nb_voie_moulinette":0,"categorie":"falaise","nb_couenne":11,"nb_gv":2,"cotations":{"6c":2,"7a":1,"7a+":1,"7b":1,"7b+":1,"7c+":3,"8":1,"8a+":1,"8b":1,"8b+":1},"routes":"saou-ii","routes_falaise":91},"geometry":{"type":"Point","coordinates":[5.076234,44.647569]}},{"type":"Feature","properties":{"nom":"Le Palloir","site":"Saoû II","secteur":"La Vire du suicide","type_roche":"calcaire","orientation":["N"],"lien_oblyk":"https://oblyk.org/crags/45/le-palloir","lien_camptocamp":"https://www.camptocamp.org/waypoints/114499/fr/saou-baume-du-palloir","source_id":"escalade-drome-2020","topo_id":"escalade-drome-2020","topo_page":"112","hauteur_max_voie_m":35,"parking_associe":["parking au milieu des pins"],"approche_min":[10],"approche_metre":[null],"nb_voie_total":4,"nb_voie_sportive":4,"nb_voie_trad":0,"nb_voie_artificielle":0,"nb_voie_moulinette":0,"categorie":"falaise","nb_couenne":4,"nb_gv":0,"cotations":{"6b":1,"6c":1,"7a+":1,"7c+":1},"routes":"saou-ii","routes_falaise":92},"geometry":{"type":"Point","coordinates":[5.076612,44.647548]}},{"type":"Feature","properties":{"nom":"Pas de Lauzun","site":"Saoû II","secteur":"Pas de Lauzun","type_roche":"calcaire","orientation":["NO","NE","E"],"lien_oblyk":"https://oblyk.org/crags/66/pas-de-lauzun","lien_camptocamp":"https://www.camptocamp.org/waypoints/170134/fr/saou-pas-de-lauzun","source_id":"escalade-drome-2020","topo_id":"escalade-drome-2020","topo_page":"114","hauteur_max_voie_m":25,"parking_associe":["petite bande de gravier en surplomb de la roche"],"approche_min":[10],"approche_metre":[null],"nb_voie_total":20,"nb_voie_sportive":20,"nb_voie_trad":0,"nb_voie_artificielle":0,"nb_voie_moulinette":0,"categorie":"falaise","nb_couenne":20,"nb_gv":0,"cotations":{"5a":2,"5c":2,"6a":2,"6a+":1,"6b":4,"6b+":1,"6c":1,"6c+":2,"7a":3,"7b":1,"8a+":1},"routes":"saou-ii","routes_falaise":93},"geometry":{"type":"Point","coordinates":[5.069037,44.665929]}},{"type":"Feature","properties":{"nom":"Les Trois Becs","site":"Saoû III","secteur":"Le Signal 1","type_roche":"calcaire","orientation":["SO","E","NO","E"],"lien_oblyk":"https://oblyk.org/crags/771/les-3-becs","lien_camptocamp":"https://www.camptocamp.org/waypoints/40452/fr/les-trois-becs-le-signal","source_id":"escalade-drome-2020","topo_id":"escalade-drome-2020","topo_page":"128","hauteur_max_voie_m":350,"parking_associe":["parking de Picourère"],"approche_min":[60],"approche_metre":[null],"nb_voie_total":5,"nb_voie_sportive":0,"nb_voie_trad":5,"nb_voie_artificielle":0,"nb_voie_moulinette":0,"categorie":"falaise","nb_couenne":0,"nb_gv":0,"cotations":{},"routes":null,"routes_falaise":null},"geometry":{"type":"Point","coordinates":[5.202993,44.642159]}},{"type":"Feature","properties":{"nom":"Les Trois Becs","site":"Saoû III","secteur":"Le Signal 2","type_roche":"calcaire","orientation":["E"],"lien_oblyk":"https://oblyk.org/crags/771/les-3-becs","lien_camptocamp":"https://www.camptocamp.org/waypoints/40452/fr/les-trois-becs-le-signal","source_id":"escalade-drome-2020","topo_id":"escalade-drome-2020","topo_page":"130","hauteur_max_voie_m":350,"parking_associe":["parking de Picourère"],"approche_min":[60],"approche_metre":[null],"nb_voie_total":2,"nb_voie_sportive":0,"nb_voie_trad":2,"nb_voie_artificielle":0,"nb_voie_moulinette":0,"categorie":"falaise","nb_couenne":0,"nb_gv":0,"cotations":{},"routes":null,"routes_falaise":null},"geometry":{"type":"Point","coordinates":[5.202922,44.643154]}},{"type":"Feature","properties":{"nom":"Les Trois Becs","site":"Saoû III","secteur":"Le Veyou","type_roche":"calcaire","orientation":["SE"],"lien_oblyk":"https://oblyk.org/crags/771/les-3-becs","lien_camptocamp":"https://www.camptocamp.org/waypoints/39719/fr/les-trois-becs-le-veyou","source_id":"escalade-drome-2020","topo_id":"escalade-drome-2020","topo_page":"126","hauteur_max_voie_m":250,"parking_associe":["parking de Siara"],"approche_min":[60],"approche_metre":[null],"nb_voie_total":3,"nb_voie_sportive":0,"nb_voie_trad":3,"nb_voie_artificielle":0,"nb_voie_moulinette":0,"categorie":"falaise","nb_couenne":0,"nb_gv":0,"cotations":{},"routes":null,"routes_falaise":null},"geometry":{"type":"Point","coordinates":[5.20268,44.63605]}},{"type":"Feature","properties":{"nom":"Les Trois Becs","site":"Saoû III","secteur":"Roche Courbe 1 (La Pelle 1)","type_roche":"calcaire","orientation":["E","NE"],"lien_oblyk":"https://oblyk.org/crags/771/les-3-becs","lien_camptocamp":"https://www.camptocamp.org/waypoints/40564/fr/les-trois-becs-la-pelle-roche-courbe-","source_id":"escalade-drome-2020","topo_id":"escalade-drome-2020","topo_page":"132","hauteur_max_voie_m":250,"parking_associe":["parking de Picourère"],"approche_min":[60],"approche_metre":[null],"nb_voie_total":8,"nb_voie_sportive":5,"nb_voie_trad":3,"nb_voie_artificielle":0,"nb_voie_moulinette":0,"categorie":"falaise","nb_couenne":0,"nb_gv":5,"cotations":{"6b":2,"6c+/A0":1,"7a/A0":1,"7b/A0":1},"routes":"saou-iii","routes_falaise":97},"geometry":{"type":"Point","coordinates":[5.201421,44.645945]}},{"type":"Feature","properties":{"nom":"Les Trois Becs","site":"Saoû III","secteur":"Roche Courbe 2 (La Pelle 2)","type_roche":"calcaire","orientation":["NE"],"lien_oblyk":"https://oblyk.org/crags/771/les-3-becs","lien_camptocamp":"https://www.camptocamp.org/waypoints/40564/fr/les-trois-becs-la-pelle-roche-courbe-","source_id":"escalade-drome-2020","topo_id":"escalade-drome-2020","topo_page":"134","hauteur_max_voie_m":250,"parking_associe":["parking de Picourère"],"approche_min":[60],"approche_metre":[null],"nb_voie_total":8,"nb_voie_sportive":4,"nb_voie_trad":4,"nb_voie_artificielle":0,"nb_voie_moulinette":0,"categorie":"falaise","nb_couenne":0,"nb_gv":4,"cotations":{"6b+":1,"7b+":1,"7c":1,"VI-":1},"routes":"saou-iii","routes_falaise":98},"geometry":{"type":"Point","coordinates":[5.200251,44.647558]}},{"type":"Feature","properties":{"nom":"Les Trois Becs","site":"Saoû III","secteur":"Roche Rousse","type_roche":"calcaire","orientation":["S"],"lien_oblyk":"https://oblyk.org/crags/771/les-3-becs","lien_camptocamp":"https://www.camptocamp.org/waypoints/43158/fr/roche-rousse-saou-","source_id":"escalade-drome-2020","topo_id":"escalade-drome-2020","topo_page":"124","hauteur_max_voie_m":200,"parking_associe":["parking de Siara"],"approche_min":[60],"approche_metre":[null],"nb_voie_total":0,"nb_voie_sportive":0,"nb_voie_trad":0,"nb_voie_artificielle":0,"nb_voie_moulinette":0,"categorie":"falaise","nb_couenne":0,"nb_gv":0,"cotations":{},"routes":null,"routes_falaise":null},"geometry":{"type":"Point","coordinates":[5.193068,44.630238]}},{"type":"Feature","properties":{"nom":"La Borne de Jeanne","site":"Soyans","secteur":"La Borne de Jeanne","type_roche":"calcaire","orientation":["S"],"lien_oblyk":"https://oblyk.org/crags/31/la-borne-de-jeanne","lien_camptocamp":"https://www.camptocamp.org/waypoints/114529/fr/soyans-la-borne-de-jeanne","source_id":"escalade-drome-2020","topo_id":"escalade-drome-2020","topo_page":"44","hauteur_max_voie_m":20,"parking_associe":["petit parking surplombant le Roubion"],"approche_min":[2],"approche_metre":[50],"nb_voie_total":2,"nb_voie_sportive":2,"nb_voie_trad":0,"nb_voie_artificielle":0,"nb_voie_moulinette":0,"categorie":"falaise","nb_couenne":2,"nb_gv":0,"cotations":{"6b":1,"7b":1},"routes":"soyans","routes_falaise":100},"geometry":{"type":"Point","coordinates":[5.016939,44.625271]}},{"type":"Feature","properties":{"nom":"Le Petit Cirque","site":"Soyans","secteur":"Le Petit Cirque","type_roche":"calcaire","orientation":["S"],"lien_oblyk":"https://oblyk.org/crags/32/le-petit-cirque","lien_camptocamp":"https://www.camptocamp.org/waypoints/114528/fr/soyans-le-petit-cirque","source_id":"escalade-drome-2020","topo_id":"escalade-drome-2020","topo_page":"44","hauteur_max_voie_m":15,"parking_associe":["petit parking D136"],"approche_min":[2],"approche_metre":[50],"nb_voie_total":9,"nb_voie_sportive":9,"nb_voie_trad":0,"nb_voie_artificielle":0,"nb_voie_moulinette":0,"categorie":"falaise","nb_couenne":9,"nb_gv":0,"cotations":{"5c":1,"6a":1,"6b+":2,"6c":1,"6c+":1,"7a+":1,"7b":1,"7c+":1},"routes":"soyans","routes_falaise":101},"geometry":{"type":"Point","coordinates":[5.03055,44.627105]}},{"type":"Feature","properties":{"nom":"Rocher des Abeilles","site":"Soyans","secteur":"Chasseur de Miel","type_roche":"calcaire","orientation":["S","SO"],"lien_oblyk":"https://oblyk.org/crags/33/rocher-des-abeilles","lien_camptocamp":"https://www.camptocamp.org/waypoints/103006/fr/soyans-rocher-des-abeilles","source_id":"escalade-drome-2020","topo_id":"escalade-drome-2020","topo_page":"42","hauteur_max_voie_m":20,"parking_associe":["grand Parking avant Vieux Village"],"approche_min":[10],"approche_metre":[300],"nb_voie_total":26,"nb_voie_sportive":26,"nb_voie_trad":0,"nb_voie_artificielle":0,"nb_voie_moulinette":0,"categorie":"falaise","nb_couenne":26,"nb_gv":0,"cotations":{"4b":1,"4c":4,"5b":3,"5c":6,"6a":1,"6a+":4,"6b":1,"6b+":1,"6c":2,"6c+":1,"7a":1,"7b":1},"routes":"soyans","routes_falaise":102},"geometry":{"type":"Point","coordinates":[5.021387,44.627192]}},{"type":"Feature","properties":{"nom":"Rocher des Abeilles","site":"Soyans","secteur":"Demi Lune","type_roche":"calcaire","orientation":["S","SO"],"lien_oblyk":"https://oblyk.org/crags/33/rocher-des-abeilles","lien_camptocamp":"https://www.camptocamp.org/waypoints/103006/fr/soyans-rocher-des-abeilles","source_id":"escalade-drome-2020","topo_id":"escalade-drome-2020","topo_page":"40","hauteur_max_voie_m":15,"parking_associe":["grand Parking avant Vieux Village"],"approche_min":[10],"approche_metre":[300],"nb_voie_total":17,"nb_voie_sportive":17,"nb_voie_trad":0,"nb_voie_artificielle":0,"nb_voie_moulinette":0,"categorie":"falaise","nb_couenne":17,"nb_gv":0,"cotations":{"3c":1,"4b":5,"4c":2,"5a":1,"5b":1,"5c":2,"6a":1,"6a+":4},"routes":"soyans","routes_falaise":103},"geometry":{"type":"Point","coordinates":[5.022829,44.627679]}},{"type":"Feature","properties":{"nom":"Valcroissant","site":"Valcroissant","secteur":"L’Éperon","type_roche":"calcaire","orientation":["E"],"lien_oblyk":"https://oblyk.org/crags/773/valcroissant","lien_camptocamp":"https://www.camptocamp.org/waypoints/114502/fr/valcroissant","source_id":"escalade-drome-2020","topo_id":"escalade-drome-2020","topo_page":"206","hauteur_max_voie_m":150,"parking_associe":["parking en terre"],"approche_min":[5],"approche_metre":[150],"nb_voie_total":11,"nb_voie_sportive":10,"nb_voie_trad":1,"nb_voie_artificielle":0,"nb_voie_moulinette":0,"categorie":"falaise","nb_couenne":7,"nb_gv":3,"cotations":{"4a":3,"5b":1,"5c":3,"6a":2,"6b":1},"routes":"valcroissant","routes_falaise":104},"geometry":{"type":"Point","coordinates":[5.424517,44.741952]}},{"type":"Feature","properties":{"nom":"Valcroissant","site":"Valcroissant","secteur":"Principal","type_roche":"calcaire","orientation":["SO"],"lien_oblyk":"https://oblyk.org/crags/773/valcroissant","lien_camptocamp":"https://www.camptocamp.org/waypoints/114502/fr/valcroissant","source_id":"escalade-drome-2020","topo_id":"escalade-drome-2020","topo_page":"206","hauteur_max_voie_m":20,"parking_associe":["parking en terre"],"approche_min":[5],"approche_metre":[150],"nb_voie_total":21,"nb_voie_sportive":21,"nb_voie_trad":0,"nb_voie_artificielle":0,"nb_voie_moulinette":0,"categorie":"falaise","nb_couenne":21,"nb_gv":0,"cotations":{"5a":2,"5c":5,"6a":4,"6a+":3,"6b":3,"6c":2,"6c+":1},"routes":"valcroissant","routes_falaise":105},"geometry":{"type":"Point","coordinates":[5.42382,44.742049]}},{"type":"Feature","properties":{"nom":"Vallon de Baïn","site":"Vallon de Baïn","secteur":"Vallon de Baïn","type_roche":"calcaire","orientation":["O"],"lien_oblyk":"https://oblyk.org/crags/2465/valon-de-bain","lien_camptocamp":"https://www.camptocamp.org/waypoints/128312/fr/vallon-de-bain-le-suel-","source_id":"escalade-drome-2020","topo_id":"escalade-drome-2020","topo_page":"212","hauteur_max_voie_m":20,"parking_associe":["parking entrée du village Châtillon-En-Diois"],"approche_min":[15],"approche_metre":[null],"nb_voie_total":25,"nb_voie_sportive":25,"nb_voie_trad":0,"nb_voie_artificielle":0,"nb_voie_moulinette":0,"categorie":"falaise","nb_couenne":25,"nb_gv":0,"cotations":{"3c":1,"4b":8,"4c":5,"5b":3,"5c":2,"6a":1,"6a+":1,"6b":2,"6c":1,"7a":1},"routes":"vallon-de-bain","routes_falaise":106},"geometry":{"type":"Point","coordinates":[5.480809,44.700059]}},{"type":"Feature","properties":{"nom":"Vercheny","site":"Vercheny","secteur":"Dieux du stade","type_roche":"calcaire","orientation":["E","SE"],"lien_oblyk":"https://oblyk.org/crags/2678/vercheny","lien_camptocamp":null,"source_id":"escalade-drome-2020","topo_id":"escalade-drome-2020","topo_page":"168","hauteur_max_voie_m":30,"parking_associe":["parking de la mairie Vercheny"],"approche_min":[40],"approche_metre":[1800],"nb_voie_total":17,"nb_voie_sportive":17,"nb_voie_trad":0,"nb_voie_artificielle":0,"nb_voie_moulinette":0,"categorie":"falaise","nb_couenne":14,"nb_gv":3,"cotations":{"6a+":1,"6c":1,"7a":2,"7b+":3,"7c":1,"7c+":3,"8":2,"8a":1,"8b":2},"routes":"vercheny","routes_falaise":107},"geometry":{"type":"Point","coordinates":[5.243551,44.718175]}},{"type":"Feature","properties":{"nom":"Vercheny","site":"Vercheny","secteur":"La Pagode","type_roche":"calcaire","orientation":["SE"],"lien_oblyk":"https://oblyk.org/crags/2678/vercheny","lien_camptocamp":null,"source_id":"escalade-drome-2020","topo_id":"escalade-drome-2020","topo_page":"172","hauteur_max_voie_m":25,"parking_associe":["parking de la mairie Vercheny"],"approche_min":[40],"approche_metre":[1800],"nb_voie_total":1,"nb_voie_sportive":1,"nb_voie_trad":0,"nb_voie_artificielle":0,"nb_voie_moulinette":0,"categorie":"falaise","nb_couenne":0,"nb_gv":1,"cotations":{"8a":1},"routes":"vercheny","routes_falaise":108},"geometry":{"type":"Point","coordinates":[5.244607,44.721895]}},{"type":"Feature","properties":{"nom":"Vercheny","site":"Vercheny","secteur":"La Vire","type_roche":"calcaire","orientation":["E","SE"],"lien_oblyk":"https://oblyk.org/crags/2678/vercheny","lien_camptocamp":null,"source_id":"escalade-drome-2020","topo_id":"escalade-drome-2020","topo_page":"168","hauteur_max_voie_m":20,"parking_associe":["parking de la mairie Vercheny"],"approche_min":[40],"approche_metre":[1800],"nb_voie_total":4,"nb_voie_sportive":4,"nb_voie_trad":0,"nb_voie_artificielle":0,"nb_voie_moulinette":0,"categorie":"falaise","nb_couenne":4,"nb_gv":0,"cotations":{"7b+":2,"8a":1,"8a+":1},"routes":"vercheny","routes_falaise":109},"geometry":{"type":"Point","coordinates":[5.243363,44.71929]}},{"type":"Feature","properties":{"nom":"Vercheny","site":"Vercheny","secteur":"Le Temple","type_roche":"calcaire","orientation":["E","SE"],"lien_oblyk":"https://oblyk.org/crags/2678/vercheny","lien_camptocamp":null,"source_id":"escalade-drome-2020","topo_id":"escalade-drome-2020","topo_page":"170","hauteur_max_voie_m":35,"parking_associe":["parking de la mairie Vercheny"],"approche_min":[40],"approche_metre":[1800],"nb_voie_total":26,"nb_voie_sportive":26,"nb_voie_trad":0,"nb_voie_artificielle":0,"nb_voie_moulinette":0,"categorie":"falaise","nb_couenne":24,"nb_gv":2,"cotations":{"4c":1,"5b":1,"5c":1,"6a":1,"6a+":1,"6c":1,"6c+":1,"7a":1,"7a+":4,"7b":3,"7b+":4,"7c":1,"7c+":1,"8a":2,"8b":1,"8c":1,"9":1},"routes":"vercheny","routes_falaise":110},"geometry":{"type":"Point","coordinates":[5.24393,44.720904]}},{"type":"Feature","properties":{"nom":"Vercheny","site":"Vercheny","secteur":"Short Cut","type_roche":"calcaire","orientation":["SO"],"lien_oblyk":"https://oblyk.org/crags/2678/vercheny","lien_camptocamp":null,"source_id":"escalade-drome-2020","topo_id":"escalade-drome-2020","topo_page":"166","hauteur_max_voie_m":25,"parking_associe":["parking de la mairie Vercheny"],"approche_min":[40],"approche_metre":[1800],"nb_voie_total":18,"nb_voie_sportive":18,"nb_voie_trad":0,"nb_voie_artificielle":0,"nb_voie_moulinette":0,"categorie":"falaise","nb_couenne":18,"nb_gv":0,"cotations":{"5b":1,"6a+":1,"6c":1,"7a+":2,"7b":1,"7b+":1,"7c":3,"7c+":3,"8a+":1,"8b":2,"8c+":1,"9":1},"routes":"vercheny","routes_falaise":111},"geometry":{"type":"Point","coordinates":[5.241577,44.71892]}},{"type":"Feature","properties":{"nom":"parking de la Tour","trajet_gite_min":33,"categorie":"parking"},"geometry":{"type":"Point","coordinates":[5.025458,44.731522]}},{"type":"Feature","properties":{"nom":"grand Parking avant Vieux Village","trajet_gite_min":15,"categorie":"parking"},"geometry":{"type":"Point","coordinates":[5.022375,44.628992]}},{"type":"Feature","properties":{"nom":"petit parking D136","trajet_gite_min":13,"categorie":"parking"},"geometry":{"type":"Point","coordinates":[5.030639,44.626959]}},{"type":"Feature","properties":{"nom":"petit parking surplombant le Roubion","trajet_gite_min":12,"categorie":"parking"},"geometry":{"type":"Point","coordinates":[5.01624,44.625022]}},{"type":"Feature","properties":{"nom":"grand parking Le Clos","trajet_gite_min":19,"categorie":"parking"},"geometry":{"type":"Point","coordinates":[5.062521,44.646831]}},{"type":"Feature","properties":{"nom":"petit parking sur chemin goudronné de Roche Colombe","trajet_gite_min":19,"categorie":"parking"},"geometry":{"type":"Point","coordinates":[5.059763,44.650223]}},{"type":"Feature","properties":{"nom":"parking Roche Colombe","trajet_gite_min":19,"categorie":"parking"},"geometry":{"type":"Point","coordinates":[5.054614,44.652688]}},{"type":"Feature","properties":{"nom":"grand parking aménagé D136","trajet_gite_min":20,"categorie":"parking"},"geometry":{"type":"Point","coordinates":[5.07619,44.649778]}},{"type":"Feature","properties":{"nom":"parking sous un champ D136","trajet_gite_min":21,"categorie":"parking"},"geometry":{"type":"Point","coordinates":[5.082023,44.651545]}},{"type":"Feature","properties":{"nom":"parking au milieu des pins","trajet_gite_min":21,"categorie":"parking"},"geometry":{"type":"Point","coordinates":[5.078449,44.649641]}},{"type":"Feature","properties":{"nom":"petite bande de gravier en surplomb de la roche","trajet_gite_min":26,"categorie":"parking"},"geometry":{"type":"Point","coordinates":[5.069266,44.665191]}},{"type":"Feature","properties":{"nom":"parking de Siara","trajet_gite_min":33,"categorie":"parking"},"geometry":{"type":"Point","coordinates":[5.204597,44.629498]}},{"type":"Feature","properties":{"nom":"parking de Picourère","trajet_gite_min":34,"categorie":"parking"},"geometry":{"type":"Point","coordinates":[5.210774,44.64166]}},{"type":"Feature","properties":{"nom":"chemin communal Chastel-Arnaud","trajet_gite_min":40,"categorie":"parking"},"geometry":{"type":"Point","coordinates":[5.204575,44.665876]}},{"type":"Feature","properties":{"nom":"bordure de route Chastel-Arnaud","trajet_gite_min":41,"categorie":"parking"},"geometry":{"type":"Point","coordinates":[5.205891,44.666129]}},{"type":"Feature","properties":{"nom":"dégagement poubelles Chastel-Arnaud","trajet_gite_min":41,"categorie":"parking"},"geometry":{"type":"Point","coordinates":[5.211739,44.664124]}},{"type":"Feature","properties":{"nom":"dégagement gravier proche Auberts","trajet_gite_min":38,"categorie":"parking"},"geometry":{"type":"Point","coordinates":[5.18891,44.663199]}},{"type":"Feature","properties":{"nom":"parking de la mairie Vercheny","trajet_gite_min":44,"categorie":"parking"},"geometry":{"type":"Point","coordinates":[5.251138,44.711118]}},{"type":"Feature","properties":{"nom":"parking avant tunnel col du Rousset","trajet_gite_min":77,"categorie":"parking"},"geometry":{"type":"Point","coordinates":[5.396402,44.838211]}},{"type":"Feature","properties":{"nom":"parking Pont-du-Barret proche Roubion","trajet_gite_min":8,"categorie":"parking"},"geometry":{"type":"Point","coordinates":[5.013455,44.605301]}},{"type":"Feature","properties":{"nom":"parking rue du commandant Chaix","trajet_gite_min":8,"categorie":"parking"},"geometry":{"type":"Point","coordinates":[5.01268,44.603517]}},{"type":"Feature","properties":{"nom":"parking Omblèze","trajet_gite_min":54,"categorie":"parking"},"geometry":{"type":"Point","coordinates":[5.202992,44.847205]}},{"type":"Feature","properties":{"nom":"parking entre canal et rivière D742","trajet_gite_min":68,"categorie":"parking"},"geometry":{"type":"Point","coordinates":[5.400203,44.771996]}},{"type":"Feature","properties":{"nom":"parking en terre","trajet_gite_min":71,"categorie":"parking"},"geometry":{"type":"Point","coordinates":[5.425247,44.742248]}},{"type":"Feature","properties":{"nom":"parking entrée du village Châtillon-En-Diois","trajet_gite_min":82,"categorie":"parking"},"geometry":{"type":"Point","coordinates":[5.486107,44.693574]}},{"type":"Feature","properties":{"nom":"parking Rio Sourd","trajet_gite_min":90,"categorie":"parking"},"geometry":{"type":"Point","coordinates":[5.567521,44.679441]}},{"type":"Feature","properties":{"nom":"parking devant épingle à cheveux","trajet_gite_min":97,"categorie":"parking"},"geometry":{"type":"Point","coordinates":[5.61276,44.678258]}},{"type":"Feature","properties":{"nom":"parking après Borne","trajet_gite_min":101,"categorie":"parking"},"geometry":{"type":"Point","coordinates":[5.602542,44.719343]}},{"type":"Feature","properties":{"nom":"parking D505","trajet_gite_min":114,"categorie":"parking"},"geometry":{"type":"Point","coordinates":[5.731153,44.661404]}},{"type":"Feature","properties":{"nom":"parking Grisail","trajet_gite_min":118,"categorie":"parking"},"geometry":{"type":"Point","coordinates":[5.701053,44.683327]}},{"type":"Feature","properties":{"nom":"parking bande de gravier D595","trajet_gite_min":56,"categorie":"parking"},"geometry":{"type":"Point","coordinates":[5.323358,44.638477]}},{"type":"Feature","properties":{"nom":"parking long de route D595","trajet_gite_min":57,"categorie":"parking"},"geometry":{"type":"Point","coordinates":[5.325617,44.641971]}},{"type":"Feature","properties":{"nom":"parking Devès","trajet_gite_min":58,"categorie":"parking"},"geometry":{"type":"Point","coordinates":[5.334876,44.570477]}},{"type":"Feature","properties":{"nom":"Gîte","categorie":"hebergement"},"geometry":{"type":"Point","coordinates":[4.977431,44.573103]}}]}