{
"type": "FeatureCollection",
"name": "data",
"crs": { "type": "name", "properties": { "name": "urn:ogc:def:crs:OGC:1.3:CRS84" } },
"features": [
{"type":"Feature","properties":{"nom":"Les Roches","parking_associe":"parking de la Tour","approche_min":"15","approche_metre":"950","lien_oblyk":"https://oblyk.org/crags/1884/les-roches","type_roche":"calcaire","orientation":"E","cotation_min":"4a","cotation_max":"7a+","nb_voies":33,"nb_voies_cot5":19,"nb_voies_cot6a":6,"categorie":"falaise","trajet_gite_min":null},"geometry":{"type":"Point","coordinates":[5.029573013052678,44.738108213050708]}},
{"type":"Feature","properties":{"nom":"Rocher des Abeilles","parking_associe":"grand Parking avant Vieux Village","approche_min":"10","approche_metre":"300","lien_oblyk":"https://oblyk.org/crags/33/rocher-des-abeilles","type_roche":"calcaire","orientation":"S|SO","cotation_min":"3c","cotation_max":"7a","nb_voies":44,"nb_voies_cot5":12,"nb_voies_cot6a":10,"categorie":"falaise","trajet_gite_min":null},"geometry":{"type":"Point","coordinates":[5.022828577750746,44.627679023279256]}},
{"type":"Feature","properties":{"nom":"Le Petit Cirque","parking_associe":"petit parking D136","approche_min":"2","approche_metre":"50","lien_oblyk":"https://oblyk.org/crags/32/le-petit-cirque","type_roche":"calcaire","orientation":"S","cotation_min":"5c","cotation_max":"7c+","nb_voies":9,"nb_voies_cot5":1,"nb_voies_cot6a":1,"categorie":"falaise","trajet_gite_min":null},"geometry":{"type":"Point","coordinates":[5.03054066496536,44.627091487092372]}},
{"type":"Feature","properties":{"nom":"La Borne de Jeanne","parking_associe":"petit parking surplombant le Roubion","approche_min":"2","approche_metre":"50","lien_oblyk":"https://oblyk.org/crags/31/la-borne-de-jeanne","type_roche":"calcaire","orientation":"S","cotation_min":"6b","cotation_max":"7b","nb_voies":2,"nb_voies_cot5":0,"nb_voies_cot6a":0,"categorie":"falaise","trajet_gite_min":null},"geometry":{"type":"Point","coordinates":[5.016939325210994,44.625270785553802]}},
{"type":"Feature","properties":{"nom":"Mur des Étoiles","parking_associe":"grand parking Le Clos","approche_min":"15","approche_metre":"1000","lien_oblyk":"https://oblyk.org/crags/26/le-mur-des-etoiles","type_roche":"calcaire","orientation":"S","cotation_min":"6a","cotation_max":"7c+","nb_voies":15,"nb_voies_cot5":0,"nb_voies_cot6a":1,"categorie":"falaise","trajet_gite_min":null},"geometry":{"type":"Point","coordinates":[5.064889487746955,44.652820389547806]}},
{"type":"Feature","properties":{"nom":"Mur du Vent","parking_associe":"grand parking Le Clos","approche_min":"15","approche_metre":"1000","lien_oblyk":"https://oblyk.org/crags/2761/mur-du-vent","type_roche":"calcaire","orientation":"S","cotation_min":"5b","cotation_max":"7c+","nb_voies":25,"nb_voies_cot5":3,"nb_voies_cot6a":3,"categorie":"falaise","trajet_gite_min":null},"geometry":{"type":"Point","coordinates":[5.067906915472443,44.652198127685161]}},
{"type":"Feature","properties":{"nom":"Mur du Son","parking_associe":"petit parking sur chemin goudronné de Roche Colombe","approche_min":"30","approche_metre":"650","lien_oblyk":"https://oblyk.org/crags/34/mur-du-son","type_roche":"calcaire","orientation":"S","cotation_min":"5a","cotation_max":"7b+","nb_voies":36,"nb_voies_cot5":8,"nb_voies_cot6a":13,"categorie":"falaise","trajet_gite_min":null},"geometry":{"type":"Point","coordinates":[5.058638328053593,44.65488582795993]}},
{"type":"Feature","properties":{"nom":"Poupoune","parking_associe":"parking Roche Colombe","approche_min":"15 à 35","approche_metre":null,"lien_oblyk":"https://oblyk.org/crags/40/la-poupoune","type_roche":"calcaire","orientation":"S","cotation_min":"4c","cotation_max":"8a+","nb_voies":29,"nb_voies_cot5":6,"nb_voies_cot6a":8,"categorie":"falaise","trajet_gite_min":null},"geometry":{"type":"Point","coordinates":[5.050195558318588,44.656710125250775]}},
{"type":"Feature","properties":{"nom":"Roche Colombe","parking_associe":"parking Roche Colombe","approche_min":"20 à 40","approche_metre":null,"lien_oblyk":"https://oblyk.org/crags/39/roche-colombe","type_roche":"calcaire","orientation":"S","cotation_min":"5a","cotation_max":"8b","nb_voies":61,"nb_voies_cot5":10,"nb_voies_cot6a":9,"categorie":"falaise","trajet_gite_min":null},"geometry":{"type":"Point","coordinates":[5.046125244954313,44.659825350764535]}},
{"type":"Feature","properties":{"nom":"Grand Regardé","parking_associe":"grand parking aménagé D136","approche_min":"10 à 20","approche_metre":null,"lien_oblyk":"https://oblyk.org/crags/37/le-grand-regarde","type_roche":"calcaire","orientation":"S|SE","cotation_min":"5b","cotation_max":"8a+","nb_voies":41,"nb_voies_cot5":7,"nb_voies_cot6a":7,"categorie":"falaise","trajet_gite_min":null},"geometry":{"type":"Point","coordinates":[5.071780737930305,44.651899014245032]}},
{"type":"Feature","properties":{"nom":"La Tour","parking_associe":"grand parking aménagé D136","approche_min":"10 à 20","approche_metre":null,"lien_oblyk":"https://oblyk.org/crags/4322/la-tour","type_roche":"calcaire","orientation":"O|S|SE","cotation_min":"4b","cotation_max":"7c","nb_voies":54,"nb_voies_cot5":13,"nb_voies_cot6a":23,"categorie":"falaise","trajet_gite_min":null},"geometry":{"type":"Point","coordinates":[5.072990103991932,44.650701366904279]}},
{"type":"Feature","properties":{"nom":"La Ceyte Ouest","parking_associe":"parking sous un champ D136","approche_min":"15 à 25","approche_metre":null,"lien_oblyk":"https://oblyk.org/crags/1939/la-ceyte","type_roche":"calcaire","orientation":"S","cotation_min":"4b","cotation_max":"7b+","nb_voies":39,"nb_voies_cot5":19,"nb_voies_cot6a":9,"categorie":"falaise","trajet_gite_min":null},"geometry":{"type":"Point","coordinates":[5.079714442291455,44.653784777768053]}},
{"type":"Feature","properties":{"nom":"La Ceyte Est","parking_associe":"parking sous un champ D136","approche_min":"50","approche_metre":null,"lien_oblyk":"https://oblyk.org/crags/1939/la-ceyte","type_roche":"calcaire","orientation":"S","cotation_min":"5b","cotation_max":"7b","nb_voies":18,"nb_voies_cot5":2,"nb_voies_cot6a":8,"categorie":"falaise","trajet_gite_min":null},"geometry":{"type":"Point","coordinates":[5.084397892461579,44.654599412789445]}},
{"type":"Feature","properties":{"nom":"La Graville","parking_associe":"parking au milieu des pins","approche_min":"4","approche_metre":null,"lien_oblyk":"https://oblyk.org/crags/25/la-graville","type_roche":"calcaire","orientation":"N|NE|NO","cotation_min":"3b","cotation_max":"8a","nb_voies":78,"nb_voies_cot5":30,"nb_voies_cot6a":13,"categorie":"falaise","trajet_gite_min":null},"geometry":{"type":"Point","coordinates":[5.078574674883373,44.648904060022566]}},
{"type":"Feature","properties":{"nom":"Le Palloir","parking_associe":"parking au milieu des pins","approche_min":"10","approche_metre":null,"lien_oblyk":"https://oblyk.org/crags/45/le-palloir","type_roche":"calcaire","orientation":"N","cotation_min":"6b","cotation_max":"8b","nb_voies":17,"nb_voies_cot5":0,"nb_voies_cot6a":0,"categorie":"falaise","trajet_gite_min":null},"geometry":{"type":"Point","coordinates":[5.076233718417047,44.647568623048038]}},
{"type":"Feature","properties":{"nom":"Pas de Lauzun","parking_associe":"petite bande de gravier en surplomb de la roche","approche_min":null,"approche_metre":null,"lien_oblyk":"https://oblyk.org/crags/66/pas-de-lauzun","type_roche":"calcaire","orientation":"NO|NE|E","cotation_min":"5a","cotation_max":"8a+","nb_voies":20,"nb_voies_cot5":4,"nb_voies_cot6a":3,"categorie":"falaise","trajet_gite_min":null},"geometry":{"type":"Point","coordinates":[5.069037482843139,44.665929026225093]}},
{"type":"Feature","properties":{"nom":"Roche Rousse","parking_associe":"parking de Siara","approche_min":"60","approche_metre":null,"lien_oblyk":"https://oblyk.org/crags/771/les-3-becs","type_roche":"calcaire","orientation":"S","cotation_min":null,"cotation_max":null,"nb_voies":0,"nb_voies_cot5":0,"nb_voies_cot6a":0,"categorie":"falaise","trajet_gite_min":null},"geometry":{"type":"Point","coordinates":[5.193067662258891,44.630237989442435]}},
{"type":"Feature","properties":{"nom":"Le Veyou","parking_associe":"parking de Siara","approche_min":"60","approche_metre":null,"lien_oblyk":"https://oblyk.org/crags/771/les-3-becs","type_roche":"calcaire","orientation":"SE","cotation_min":null,"cotation_max":null,"nb_voies":0,"nb_voies_cot5":0,"nb_voies_cot6a":0,"categorie":"falaise","trajet_gite_min":null},"geometry":{"type":"Point","coordinates":[5.202679609012899,44.636049946741387]}},
{"type":"Feature","properties":{"nom":"Le Signal","parking_associe":"parking de Picourère","approche_min":"60","approche_metre":null,"lien_oblyk":"https://oblyk.org/crags/771/les-3-becs","type_roche":"calcaire","orientation":"SO|E|NO|E","cotation_min":null,"cotation_max":null,"nb_voies":0,"nb_voies_cot5":0,"nb_voies_cot6a":0,"categorie":"falaise","trajet_gite_min":null},"geometry":{"type":"Point","coordinates":[5.202272499075287,44.643105816200539]}},
{"type":"Feature","properties":{"nom":"Roche Courbe (La Pelle)","parking_associe":"parking de Picourère","approche_min":"60","approche_metre":null,"lien_oblyk":"https://oblyk.org/crags/771/les-3-becs","type_roche":"calcaire","orientation":"E|NE","cotation_min":"6a+","cotation_max":"7b+","nb_voies":9,"nb_voies_cot5":0,"nb_voies_cot6a":4,"categorie":"falaise","trajet_gite_min":null},"geometry":{"type":"Point","coordinates":[5.200345944671666,44.647164932897304]}},
{"type":"Feature","properties":{"nom":"Gorges de Saint-Moirans (Rive Gauche)","parking_associe":"chemin communal Chastel-Arnaud|bordure de route Chastel-Arnaud|dégagement poubelles Chastel-Arnaud","approche_min":"5 à 10|5 à 10|10 à 20","approche_metre":null,"lien_oblyk":"https://oblyk.org/crags/2677/gorges-de-saint-moirans","type_roche":"calcaire","orientation":"S|E","cotation_min":"3c","cotation_max":"7b+","nb_voies":36,"nb_voies_cot5":7,"nb_voies_cot6a":3,"categorie":"falaise","trajet_gite_min":null},"geometry":{"type":"Point","coordinates":[5.20463160786321,44.666369071545311]}},
{"type":"Feature","properties":{"nom":"Gorges de Saint-Moirans (Rive Droite)","parking_associe":"chemin communal Chastel-Arnaud|bordure de route Chastel-Arnaud|dégagement poubelles Chastel-Arnaud","approche_min":"5 à 10|5 à 10|10 à 20","approche_metre":null,"lien_oblyk":"https://oblyk.org/crags/2677/gorges-de-saint-moirans","type_roche":"calcaire","orientation":"S|SO|O","cotation_min":"4b","cotation_max":"7c+","nb_voies":74,"nb_voies_cot5":16,"nb_voies_cot6a":13,"categorie":"falaise","trajet_gite_min":null},"geometry":{"type":"Point","coordinates":[5.206292634620568,44.66649510000989]}},
{"type":"Feature","properties":{"nom":"Les Auberts","parking_associe":"dégagement gravier proche Auberts","approche_min":"20","approche_metre":"1300","lien_oblyk":"https://oblyk.org/crags/772/les-auberts","type_roche":"calcaire","orientation":"O","cotation_min":"5b","cotation_max":"8c+","nb_voies":58,"nb_voies_cot5":1,"nb_voies_cot6a":4,"categorie":"falaise","trajet_gite_min":null},"geometry":{"type":"Point","coordinates":[5.193302618992076,44.669948416364988]}},
{"type":"Feature","properties":{"nom":"Vercheny","parking_associe":"parking de la mairie Vercheny","approche_min":"40","approche_metre":"1800","lien_oblyk":"https://oblyk.org/crags/2678/vercheny","type_roche":"calcaire","orientation":"SO|SE|E","cotation_min":"4c","cotation_max":"8c+","nb_voies":66,"nb_voies_cot5":3,"nb_voies_cot6a":4,"categorie":"falaise","trajet_gite_min":null},"geometry":{"type":"Point","coordinates":[5.24353112580089,44.719159601914235]}},
{"type":"Feature","properties":{"nom":"Rocher de Chironne","parking_associe":"parking avant tunnel col du Rousset","approche_min":"10","approche_metre":"550","lien_oblyk":"https://oblyk.org/crags/2197/rocher-de-chironne","type_roche":"calcaire","orientation":"E","cotation_min":"4c","cotation_max":"7b+","nb_voies":13,"nb_voies_cot5":6,"nb_voies_cot6a":0,"categorie":"falaise","trajet_gite_min":null},"geometry":{"type":"Point","coordinates":[5.391259401642481,44.838336238007265]}},
{"type":"Feature","properties":{"nom":"Suzette flipo et Ricky banlieue","parking_associe":"parking Pont-du-Barret proche Roubion","approche_min":null,"approche_metre":null,"lien_oblyk":"https://oblyk.org/crags/30/suzette-flipo-et-ricky-banlieue","type_roche":"calcaire","orientation":null,"cotation_min":"4b","cotation_max":"7c","nb_voies":40,"nb_voies_cot5":16,"nb_voies_cot6a":14,"categorie":"falaise","trajet_gite_min":null},"geometry":{"type":"Point","coordinates":[5.012851712050111,44.607356325975182]}},
{"type":"Feature","properties":{"nom":"Les Rangs de Mars","parking_associe":"parking rue du commandant Chaix","approche_min":null,"approche_metre":null,"lien_oblyk":"https://oblyk.org/crags/3/les-rangs-de-mars","type_roche":"calcaire","orientation":null,"cotation_min":"6a","cotation_max":"8c","nb_voies":19,"nb_voies_cot5":0,"nb_voies_cot6a":1,"categorie":"falaise","trajet_gite_min":null},"geometry":{"type":"Point","coordinates":[5.015057203560292,44.604234499658489]}},
{"type":"Feature","properties":{"nom":"Les Corybantes","parking_associe":"parking rue du commandant Chaix","approche_min":"21","approche_metre":null,"lien_oblyk":"https://oblyk.org/crags/49/les-corybantes","type_roche":"calcaire","orientation":"O","cotation_min":"5a","cotation_max":"8a","nb_voies":15,"nb_voies_cot5":2,"nb_voies_cot6a":2,"categorie":"falaise","trajet_gite_min":null},"geometry":{"type":"Point","coordinates":[5.019050198097076,44.606631341470916]}},
{"type":"Feature","properties":{"nom":"Eson","parking_associe":"parking Pont-du-Barret proche Roubion","approche_min":"35","approche_metre":null,"lien_oblyk":"https://oblyk.org/crags/46/eson","type_roche":"calcaire","orientation":"E|S","cotation_min":"4c","cotation_max":"7c+","nb_voies":87,"nb_voies_cot5":11,"nb_voies_cot6a":12,"categorie":"falaise","trajet_gite_min":null},"geometry":{"type":"Point","coordinates":[5.018528488078586,44.608575814674204]}},
{"type":"Feature","properties":{"nom":"Les Appories","parking_associe":"parking Pont-du-Barret proche Roubion","approche_min":null,"approche_metre":null,"lien_oblyk":"https://oblyk.org/crags/47/les-appories","type_roche":"calcaire","orientation":null,"cotation_min":"5b","cotation_max":"7b","nb_voies":11,"nb_voies_cot5":1,"nb_voies_cot6a":1,"categorie":"falaise","trajet_gite_min":null},"geometry":{"type":"Point","coordinates":[5.016357820460684,44.608452083916433]}},
{"type":"Feature","properties":{"nom":"Le Bec qui se Tend","parking_associe":"parking Pont-du-Barret proche Roubion","approche_min":null,"approche_metre":null,"lien_oblyk":"https://oblyk.org/crags/48/le-bec-qui-se-tend","type_roche":"calcaire","orientation":"N","cotation_min":"6a+","cotation_max":"7b+","nb_voies":17,"nb_voies_cot5":0,"nb_voies_cot6a":1,"categorie":"falaise","trajet_gite_min":null},"geometry":{"type":"Point","coordinates":[5.014513541208624,44.611082697881884]}},
{"type":"Feature","properties":{"nom":"Gîte","parking_associe":null,"approche_min":null,"approche_metre":null,"lien_oblyk":null,"type_roche":null,"orientation":null,"cotation_min":null,"cotation_max":null,"nb_voies":null,"nb_voies_cot5":null,"nb_voies_cot6a":null,"categorie":"hébergement","trajet_gite_min":null},"geometry":{"type":"Point","coordinates":[4.977431348049941,44.57310262589521]}},
{"type":"Feature","properties":{"nom":"parking de la Tour","parking_associe":null,"approche_min":null,"approche_metre":null,"lien_oblyk":null,"type_roche":null,"orientation":null,"cotation_min":null,"cotation_max":null,"nb_voies":null,"nb_voies_cot5":null,"nb_voies_cot6a":null,"categorie":"parking","trajet_gite_min":29},"geometry":{"type":"Point","coordinates":[5.025457816745901,44.731521564186728]}},
{"type":"Feature","properties":{"nom":"grand Parking avant Vieux Village","parking_associe":null,"approche_min":null,"approche_metre":null,"lien_oblyk":null,"type_roche":null,"orientation":null,"cotation_min":null,"cotation_max":null,"nb_voies":null,"nb_voies_cot5":null,"nb_voies_cot6a":null,"categorie":"parking","trajet_gite_min":14},"geometry":{"type":"Point","coordinates":[5.022374709090112,44.628992009845007]}},
{"type":"Feature","properties":{"nom":"petit parking D136","parking_associe":null,"approche_min":null,"approche_metre":null,"lien_oblyk":null,"type_roche":null,"orientation":null,"cotation_min":null,"cotation_max":null,"nb_voies":null,"nb_voies_cot5":null,"nb_voies_cot6a":null,"categorie":"parking","trajet_gite_min":13},"geometry":{"type":"Point","coordinates":[5.030638798729821,44.626958788645929]}},
{"type":"Feature","properties":{"nom":"petit parking surplombant le Roubion","parking_associe":null,"approche_min":null,"approche_metre":null,"lien_oblyk":null,"type_roche":null,"orientation":null,"cotation_min":null,"cotation_max":null,"nb_voies":null,"nb_voies_cot5":null,"nb_voies_cot6a":null,"categorie":"parking","trajet_gite_min":11},"geometry":{"type":"Point","coordinates":[5.01623950880318,44.625021531390658]}},
{"type":"Feature","properties":{"nom":"grand parking Le Clos","parking_associe":null,"approche_min":null,"approche_metre":null,"lien_oblyk":null,"type_roche":null,"orientation":null,"cotation_min":null,"cotation_max":null,"nb_voies":null,"nb_voies_cot5":null,"nb_voies_cot6a":null,"categorie":"parking","trajet_gite_min":18},"geometry":{"type":"Point","coordinates":[5.062520751580135,44.646831489017323]}},
{"type":"Feature","properties":{"nom":"petit parking sur chemin goudronné de Roche Colombe","parking_associe":null,"approche_min":null,"approche_metre":null,"lien_oblyk":null,"type_roche":null,"orientation":null,"cotation_min":null,"cotation_max":null,"nb_voies":null,"nb_voies_cot5":null,"nb_voies_cot6a":null,"categorie":"parking","trajet_gite_min":20},"geometry":{"type":"Point","coordinates":[5.059762896489097,44.650222907023775]}},
{"type":"Feature","properties":{"nom":"parking Roche Colombe","parking_associe":null,"approche_min":null,"approche_metre":null,"lien_oblyk":null,"type_roche":null,"orientation":null,"cotation_min":null,"cotation_max":null,"nb_voies":null,"nb_voies_cot5":null,"nb_voies_cot6a":null,"categorie":"parking","trajet_gite_min":21},"geometry":{"type":"Point","coordinates":[5.054613664163083,44.652687512342325]}},
{"type":"Feature","properties":{"nom":"grand parking aménagé D136","parking_associe":null,"approche_min":null,"approche_metre":null,"lien_oblyk":null,"type_roche":null,"orientation":null,"cotation_min":null,"cotation_max":null,"nb_voies":null,"nb_voies_cot5":null,"nb_voies_cot6a":null,"categorie":"parking","trajet_gite_min":20},"geometry":{"type":"Point","coordinates":[5.076189610584623,44.649777624964329]}},
{"type":"Feature","properties":{"nom":"parking sous un champ D136","parking_associe":null,"approche_min":null,"approche_metre":null,"lien_oblyk":null,"type_roche":null,"orientation":null,"cotation_min":null,"cotation_max":null,"nb_voies":null,"nb_voies_cot5":null,"nb_voies_cot6a":null,"categorie":"parking","trajet_gite_min":20},"geometry":{"type":"Point","coordinates":[5.082023470109197,44.651544965748464]}},
{"type":"Feature","properties":{"nom":"parking au milieu des pins","parking_associe":null,"approche_min":null,"approche_metre":null,"lien_oblyk":null,"type_roche":null,"orientation":null,"cotation_min":null,"cotation_max":null,"nb_voies":null,"nb_voies_cot5":null,"nb_voies_cot6a":null,"categorie":"parking","trajet_gite_min":20},"geometry":{"type":"Point","coordinates":[5.07844859254708,44.649641412476015]}},
{"type":"Feature","properties":{"nom":"petite bande de gravier en surplomb de la roche","parking_associe":null,"approche_min":null,"approche_metre":null,"lien_oblyk":null,"type_roche":null,"orientation":null,"cotation_min":null,"cotation_max":null,"nb_voies":null,"nb_voies_cot5":null,"nb_voies_cot6a":null,"categorie":"parking","trajet_gite_min":27},"geometry":{"type":"Point","coordinates":[5.06926627614475,44.665191270866586]}},
{"type":"Feature","properties":{"nom":"parking de Siara","parking_associe":null,"approche_min":null,"approche_metre":null,"lien_oblyk":null,"type_roche":null,"orientation":null,"cotation_min":null,"cotation_max":null,"nb_voies":null,"nb_voies_cot5":null,"nb_voies_cot6a":null,"categorie":"parking","trajet_gite_min":41},"geometry":{"type":"Point","coordinates":[5.204596791729223,44.629498006530142]}},
{"type":"Feature","properties":{"nom":"parking de Picourère","parking_associe":null,"approche_min":null,"approche_metre":null,"lien_oblyk":null,"type_roche":null,"orientation":null,"cotation_min":null,"cotation_max":null,"nb_voies":null,"nb_voies_cot5":null,"nb_voies_cot6a":null,"categorie":"parking","trajet_gite_min":43},"geometry":{"type":"Point","coordinates":[5.210774309140938,44.641659659617872]}},
{"type":"Feature","properties":{"nom":"chemin communal Chastel-Arnaud","parking_associe":null,"approche_min":null,"approche_metre":null,"lien_oblyk":null,"type_roche":null,"orientation":null,"cotation_min":null,"cotation_max":null,"nb_voies":null,"nb_voies_cot5":null,"nb_voies_cot6a":null,"categorie":"parking","trajet_gite_min":42},"geometry":{"type":"Point","coordinates":[5.204574545552304,44.665876250666869]}},
{"type":"Feature","properties":{"nom":"bordure de route Chastel-Arnaud","parking_associe":null,"approche_min":null,"approche_metre":null,"lien_oblyk":null,"type_roche":null,"orientation":null,"cotation_min":null,"cotation_max":null,"nb_voies":null,"nb_voies_cot5":null,"nb_voies_cot6a":null,"categorie":"parking","trajet_gite_min":42},"geometry":{"type":"Point","coordinates":[5.205890787123725,44.666129166721532]}},
{"type":"Feature","properties":{"nom":"dégagement poubelles Chastel-Arnaud","parking_associe":null,"approche_min":null,"approche_metre":null,"lien_oblyk":null,"type_roche":null,"orientation":null,"cotation_min":null,"cotation_max":null,"nb_voies":null,"nb_voies_cot5":null,"nb_voies_cot6a":null,"categorie":"parking","trajet_gite_min":43},"geometry":{"type":"Point","coordinates":[5.211739380880787,44.664124380473481]}},
{"type":"Feature","properties":{"nom":"dégagement gravier proche Auberts","parking_associe":null,"approche_min":null,"approche_metre":null,"lien_oblyk":null,"type_roche":null,"orientation":null,"cotation_min":null,"cotation_max":null,"nb_voies":null,"nb_voies_cot5":null,"nb_voies_cot6a":null,"categorie":"parking","trajet_gite_min":44},"geometry":{"type":"Point","coordinates":[5.188910320419256,44.663199409467062]}},
{"type":"Feature","properties":{"nom":"parking de la mairie Vercheny","parking_associe":null,"approche_min":null,"approche_metre":null,"lien_oblyk":null,"type_roche":null,"orientation":null,"cotation_min":null,"cotation_max":null,"nb_voies":null,"nb_voies_cot5":null,"nb_voies_cot6a":null,"categorie":"parking","trajet_gite_min":45},"geometry":{"type":"Point","coordinates":[5.2511376075989,44.711118133861994]}},
{"type":"Feature","properties":{"nom":"parking avant tunnel col du Rousset","parking_associe":null,"approche_min":null,"approche_metre":null,"lien_oblyk":null,"type_roche":null,"orientation":null,"cotation_min":null,"cotation_max":null,"nb_voies":null,"nb_voies_cot5":null,"nb_voies_cot6a":null,"categorie":"parking","trajet_gite_min":81},"geometry":{"type":"Point","coordinates":[5.396401533931859,44.838210627455382]}},
{"type":"Feature","properties":{"nom":"parking Pont-du-Barret proche Roubion","parking_associe":null,"approche_min":null,"approche_metre":null,"lien_oblyk":null,"type_roche":null,"orientation":null,"cotation_min":null,"cotation_max":null,"nb_voies":null,"nb_voies_cot5":null,"nb_voies_cot6a":null,"categorie":"parking","trajet_gite_min":7},"geometry":{"type":"Point","coordinates":[5.013454723448952,44.605301416255436]}},
{"type":"Feature","properties":{"nom":"parking rue du commandant Chaix","parking_associe":null,"approche_min":null,"approche_metre":null,"lien_oblyk":null,"type_roche":null,"orientation":null,"cotation_min":null,"cotation_max":null,"nb_voies":null,"nb_voies_cot5":null,"nb_voies_cot6a":null,"categorie":"parking","trajet_gite_min":6},"geometry":{"type":"Point","coordinates":[5.012680258686238,44.603517128284921]}}
]
}
