{"type":"FeatureCollection","name":"data","crs":{"type":"name","properties":{"name":"urn:ogc:def:crs:OGC:1.3:CRS84"}},"sources":[{"id":"escalade-penhir-argol-2019","nom":"Escalade à Pen-Hir et Argol","auteur":"CT29 FFME","type":"topo payant","annee":"2019","url":"https://www.ffme.shop/bretagne/174-escalade-a-pen-hir-et-argol.html"}],"features":[{"type":"Feature","properties":{"nom":"Pen-Hir","site":"Pen-Hir","secteur":"La Dalle aux obus","type_roche":"grès","orientation":["O"],"lien_oblyk":"https://oblyk.org/crags/535/de-la-dalle-des-obus-a-l-arche-de-noe","lien_camptocamp":null,"source_id":"escalade-penhir-argol-2019","topo_id":"escalade-penhir-argol-2019","topo_page":"42","parking_associe":["parking du musée mémorial de la bataille Atlantique"],"approche_min":[null],"approche_metre":[null],"nb_voie_total":7,"nb_voie_sportive":6,"nb_voie_trad":1,"nb_voie_artificielle":0,"nb_voie_moulinette":0,"categorie":"falaise","nb_couenne":6,"nb_gv":0,"nb_faciles":0,"cotations":{"6b+":1,"6c":2,"7a":1,"7a+":1,"7b+":1},"routes":"pen-hir","routes_falaise":112},"geometry":{"type":"Point","coordinates":[-4.616761,48.269795]}},{"type":"Feature","properties":{"nom":"Pen-Hir","site":"Pen-Hir","secteur":"Toon’s land","type_roche":"grès","orientation":null,"lien_oblyk":"https://oblyk.org/crags/535/de-la-dalle-des-obus-a-l-arche-de-noe","lien_camptocamp":null,"source_id":"escalade-penhir-argol-2019","topo_id":"escalade-penhir-argol-2019","topo_page":"44","parking_associe":["parking du musée mémorial de la bataille Atlantique"],"approche_min":[null],"approche_metre":[null],"nb_voie_total":6,"nb_voie_sportive":4,"nb_voie_trad":2,"nb_voie_artificielle":0,"nb_voie_moulinette":0,"categorie":"falaise","nb_couenne":1,"nb_gv":3,"nb_faciles":1,"cotations":{"6a":1,"6b+":1,"6c+":1,"7b":1},"routes":"pen-hir","routes_falaise":113},"geometry":{"type":"Point","coordinates":[-4.616774,48.267975]}},{"type":"Feature","properties":{"nom":"Pen-Hir","site":"Pen-Hir","secteur":"La Fève","type_roche":"grès","orientation":["SO"],"lien_oblyk":"https://oblyk.org/crags/535/de-la-dalle-des-obus-a-l-arche-de-noe","lien_camptocamp":null,"source_id":"escalade-penhir-argol-2019","topo_id":"escalade-penhir-argol-2019","topo_page":"46","parking_associe":["parking du musée mémorial de la bataille Atlantique"],"approche_min":[null],"approche_metre":[null],"nb_voie_total":17,"nb_voie_sportive":12,"nb_voie_trad":5,"nb_voie_artificielle":0,"nb_voie_moulinette":0,"categorie":"falaise","nb_couenne":10,"nb_gv":2,"nb_faciles":4,"cotations":{"6a":1,"6a+":3,"6c":2,"6c+":1,"7a+":3,"7b+":1,"8":1},"routes":"pen-hir","routes_falaise":114},"geometry":{"type":"Point","coordinates":[-4.617988,48.266755]}},{"type":"Feature","properties":{"nom":"Pen-Hir","site":"Pen-Hir","secteur":"La Tourette","type_roche":"grès","orientation":["N"],"lien_oblyk":"https://oblyk.org/crags/535/de-la-dalle-des-obus-a-l-arche-de-noe","lien_camptocamp":null,"source_id":"escalade-penhir-argol-2019","topo_id":"escalade-penhir-argol-2019","topo_page":"48","parking_associe":["parking du musée mémorial de la bataille Atlantique"],"approche_min":[null],"approche_metre":[null],"nb_voie_total":3,"nb_voie_sportive":3,"nb_voie_trad":0,"nb_voie_artificielle":0,"nb_voie_moulinette":0,"categorie":"falaise","nb_couenne":3,"nb_gv":0,"nb_faciles":3,"cotations":{"5b":1,"5c":1,"5c+":1},"routes":"pen-hir","routes_falaise":115},"geometry":{"type":"Point","coordinates":[-4.618602,48.265922]}},{"type":"Feature","properties":{"nom":"Pen-Hir","site":"Pen-Hir","secteur":"Arche de Noé","type_roche":"grès","orientation":["O"],"lien_oblyk":"https://oblyk.org/crags/535/de-la-dalle-des-obus-a-l-arche-de-noe","lien_camptocamp":null,"source_id":"escalade-penhir-argol-2019","topo_id":"escalade-penhir-argol-2019","topo_page":"50","parking_associe":["parking du musée mémorial de la bataille Atlantique"],"approche_min":[null],"approche_metre":[null],"nb_voie_total":14,"nb_voie_sportive":14,"nb_voie_trad":0,"nb_voie_artificielle":0,"nb_voie_moulinette":0,"categorie":"falaise","nb_couenne":14,"nb_gv":0,"nb_faciles":1,"cotations":{"6a":1,"6b":2,"7a":4,"7b":2,"7b+":2,"7b-7c":1,"7c+/8a":1,"8a":1},"routes":"pen-hir","routes_falaise":116},"geometry":{"type":"Point","coordinates":[-4.619398,48.265592]}},{"type":"Feature","properties":{"nom":"Pen-Hir","site":"Pen-Hir","secteur":"Dalle des pêcheurs","type_roche":"grès","orientation":null,"lien_oblyk":"https://oblyk.org/crags/2229/de-la-dalle-des-pecheurs-a-la-face-nord","lien_camptocamp":null,"source_id":"escalade-penhir-argol-2019","topo_id":"escalade-penhir-argol-2019","topo_page":"52","parking_associe":["parking principal Pen-Hir"],"approche_min":[null],"approche_metre":[null],"nb_voie_total":5,"nb_voie_sportive":5,"nb_voie_trad":0,"nb_voie_artificielle":0,"nb_voie_moulinette":0,"categorie":"falaise","nb_couenne":5,"nb_gv":0,"nb_faciles":4,"cotations":{"5a":1,"5b":1,"5c":1,"6a":1,"6b":1},"routes":"pen-hir","routes_falaise":117},"geometry":{"type":"Point","coordinates":[-4.622057,48.262143]}},{"type":"Feature","properties":{"nom":"Pen-Hir","site":"Pen-Hir","secteur":"La Dalle Noire - Ys","type_roche":"grès","orientation":["O"],"lien_oblyk":"https://oblyk.org/crags/2229/de-la-dalle-des-pecheurs-a-la-face-nord","lien_camptocamp":null,"source_id":"escalade-penhir-argol-2019","topo_id":"escalade-penhir-argol-2019","topo_page":"54","parking_associe":["parking principal Pen-Hir"],"approche_min":[null],"approche_metre":[null],"nb_voie_total":4,"nb_voie_sportive":1,"nb_voie_trad":0,"nb_voie_artificielle":0,"nb_voie_moulinette":3,"categorie":"falaise","nb_couenne":1,"nb_gv":0,"nb_faciles":0,"cotations":{"7b+":1},"routes":"pen-hir","routes_falaise":118},"geometry":{"type":"Point","coordinates":[-4.622403,48.261048]}},{"type":"Feature","properties":{"nom":"Pen-Hir","site":"Pen-Hir","secteur":"La Brèche","type_roche":"grès","orientation":["SO"],"lien_oblyk":"https://oblyk.org/crags/2229/de-la-dalle-des-pecheurs-a-la-face-nord","lien_camptocamp":null,"source_id":"escalade-penhir-argol-2019","topo_id":"escalade-penhir-argol-2019","topo_page":"56","parking_associe":["parking principal Pen-Hir"],"approche_min":[null],"approche_metre":[null],"nb_voie_total":6,"nb_voie_sportive":0,"nb_voie_trad":6,"nb_voie_artificielle":0,"nb_voie_moulinette":0,"categorie":"falaise","nb_couenne":0,"nb_gv":0,"nb_faciles":0,"cotations":{},"routes":null,"routes_falaise":null},"geometry":{"type":"Point","coordinates":[-4.62252,48.261717]}},{"type":"Feature","properties":{"nom":"Pen-Hir","site":"Pen-Hir","secteur":"Dalle grise","type_roche":"grès","orientation":["NO"],"lien_oblyk":"https://oblyk.org/crags/2229/de-la-dalle-des-pecheurs-a-la-face-nord","lien_camptocamp":null,"source_id":"escalade-penhir-argol-2019","topo_id":"escalade-penhir-argol-2019","topo_page":"58","parking_associe":["parking principal Pen-Hir"],"approche_min":[null],"approche_metre":[null],"nb_voie_total":4,"nb_voie_sportive":4,"nb_voie_trad":0,"nb_voie_artificielle":0,"nb_voie_moulinette":0,"categorie":"falaise","nb_couenne":4,"nb_gv":0,"nb_faciles":2,"cotations":{"5a":1,"5b":1,"7b":1,"7c":1},"routes":"pen-hir","routes_falaise":120},"geometry":{"type":"Point","coordinates":[-4.622316,48.261609]}},{"type":"Feature","properties":{"nom":"Pen-Hir","site":"Pen-Hir","secteur":"Le Comptoir","type_roche":"grès","orientation":["O"],"lien_oblyk":"https://oblyk.org/crags/2229/de-la-dalle-des-pecheurs-a-la-face-nord","lien_camptocamp":null,"source_id":"escalade-penhir-argol-2019","topo_id":"escalade-penhir-argol-2019","topo_page":"62","parking_associe":["parking principal Pen-Hir"],"approche_min":[null],"approche_metre":[null],"nb_voie_total":9,"nb_voie_sportive":9,"nb_voie_trad":0,"nb_voie_artificielle":0,"nb_voie_moulinette":0,"categorie":"falaise","nb_couenne":8,"nb_gv":1,"nb_faciles":2,"cotations":{"5":2,"6a":1,"6a+":1,"6b":1,"6c":1,"6c+":1,"7b":1,"8":1},"routes":"pen-hir","routes_falaise":121},"geometry":{"type":"Point","coordinates":[-4.622744,48.26079]}},{"type":"Feature","properties":{"nom":"Pen-Hir","site":"Pen-Hir","secteur":"Les Strates","type_roche":"grès","orientation":["S"],"lien_oblyk":"https://oblyk.org/crags/2229/de-la-dalle-des-pecheurs-a-la-face-nord","lien_camptocamp":null,"source_id":"escalade-penhir-argol-2019","topo_id":"escalade-penhir-argol-2019","topo_page":"64","parking_associe":["parking principal Pen-Hir"],"approche_min":[null],"approche_metre":[null],"nb_voie_total":2,"nb_voie_sportive":1,"nb_voie_trad":1,"nb_voie_artificielle":0,"nb_voie_moulinette":0,"categorie":"falaise","nb_couenne":1,"nb_gv":0,"nb_faciles":1,"cotations":{"4c":1},"routes":"pen-hir","routes_falaise":122},"geometry":{"type":"Point","coordinates":[-4.623665,48.259739]}},{"type":"Feature","properties":{"nom":"Pen-Hir","site":"Pen-Hir","secteur":"Le Menhir","type_roche":"grès","orientation":["N","E","O"],"lien_oblyk":"https://oblyk.org/crags/2229/de-la-dalle-des-pecheurs-a-la-face-nord","lien_camptocamp":null,"source_id":"escalade-penhir-argol-2019","topo_id":"escalade-penhir-argol-2019","topo_page":"66","parking_associe":["parking principal Pen-Hir"],"approche_min":[null],"approche_metre":[null],"nb_voie_total":8,"nb_voie_sportive":7,"nb_voie_trad":1,"nb_voie_artificielle":0,"nb_voie_moulinette":0,"categorie":"falaise","nb_couenne":7,"nb_gv":0,"nb_faciles":7,"cotations":{"5a":2,"5b":2,"5c":2,"6a+":1},"routes":"pen-hir","routes_falaise":123},"geometry":{"type":"Point","coordinates":[-4.623945,48.259315]}},{"type":"Feature","properties":{"nom":"Pen-Hir","site":"Pen-Hir","secteur":"Face Nord","type_roche":"grès","orientation":["N"],"lien_oblyk":"https://oblyk.org/crags/2229/de-la-dalle-des-pecheurs-a-la-face-nord","lien_camptocamp":null,"source_id":"escalade-penhir-argol-2019","topo_id":"escalade-penhir-argol-2019","topo_page":"68","parking_associe":["parking principal Pen-Hir"],"approche_min":[null],"approche_metre":[null],"nb_voie_total":4,"nb_voie_sportive":1,"nb_voie_trad":3,"nb_voie_artificielle":0,"nb_voie_moulinette":0,"categorie":"falaise","nb_couenne":1,"nb_gv":0,"nb_faciles":0,"cotations":{"6c+":1},"routes":"pen-hir","routes_falaise":124},"geometry":{"type":"Point","coordinates":[-4.624527,48.259397]}},{"type":"Feature","properties":{"nom":"Pen-Hir","site":"Pen-Hir","secteur":"Rez-de-chaussée","type_roche":"grès","orientation":["S"],"lien_oblyk":null,"lien_camptocamp":null,"source_id":"escalade-penhir-argol-2019","topo_id":"escalade-penhir-argol-2019","topo_page":"116","parking_associe":["parking principal Pen-Hir"],"approche_min":[null],"approche_metre":[null],"nb_voie_total":4,"nb_voie_sportive":4,"nb_voie_trad":0,"nb_voie_artificielle":0,"nb_voie_moulinette":0,"categorie":"falaise","nb_couenne":4,"nb_gv":0,"nb_faciles":2,"cotations":{"5c+":1,"6a":1,"6c":1,"6c+":1},"routes":"pen-hir","routes_falaise":125},"geometry":{"type":"Point","coordinates":[-4.623865,48.257816]}},{"type":"Feature","properties":{"nom":"Banquise","site":"Pen-Hir","secteur":"Banquise Face Ouest","type_roche":"grès","orientation":["NE"],"lien_oblyk":"https://oblyk.org/crags/3588/banquise","lien_camptocamp":null,"source_id":"escalade-penhir-argol-2019","topo_id":"escalade-penhir-argol-2019","topo_page":"120","parking_associe":["parking principal Pen-Hir"],"approche_min":[null],"approche_metre":[null],"nb_voie_total":3,"nb_voie_sportive":3,"nb_voie_trad":0,"nb_voie_artificielle":0,"nb_voie_moulinette":0,"categorie":"falaise","nb_couenne":3,"nb_gv":0,"nb_faciles":3,"cotations":{"4b":1,"4c":1,"5a":1},"routes":"pen-hir","routes_falaise":126},"geometry":{"type":"Point","coordinates":[-4.623483,48.257325]}},{"type":"Feature","properties":{"nom":"Banquise","site":"Pen-Hir","secteur":"Banquise Face Nord Ouest","type_roche":"grès","orientation":["NE"],"lien_oblyk":"https://oblyk.org/crags/3588/banquise","lien_camptocamp":null,"source_id":"escalade-penhir-argol-2019","topo_id":"escalade-penhir-argol-2019","topo_page":"122","parking_associe":["parking principal Pen-Hir"],"approche_min":[null],"approche_metre":[null],"nb_voie_total":6,"nb_voie_sportive":5,"nb_voie_trad":1,"nb_voie_artificielle":0,"nb_voie_moulinette":0,"categorie":"falaise","nb_couenne":2,"nb_gv":3,"nb_faciles":2,"cotations":{"5a":1,"6a+":1,"6b":1,"6b+":1,"6c":1},"routes":"pen-hir","routes_falaise":127},"geometry":{"type":"Point","coordinates":[-4.623453,48.257418]}},{"type":"Feature","properties":{"nom":"Pen-Hir","site":"Pen-Hir","secteur":"Château de cartes","type_roche":"grès","orientation":["N","NE"],"lien_oblyk":null,"lien_camptocamp":null,"source_id":"escalade-penhir-argol-2019","topo_id":"escalade-penhir-argol-2019","topo_page":"124","parking_associe":["parking principal Pen-Hir"],"approche_min":[null],"approche_metre":[null],"nb_voie_total":2,"nb_voie_sportive":0,"nb_voie_trad":2,"nb_voie_artificielle":0,"nb_voie_moulinette":0,"categorie":"falaise","nb_couenne":0,"nb_gv":0,"nb_faciles":0,"cotations":{},"routes":null,"routes_falaise":null},"geometry":{"type":"Point","coordinates":[-4.624733,48.25729]}},{"type":"Feature","properties":{"nom":"Pen-Hir","site":"Pen-Hir","secteur":"Gwen ha du","type_roche":"grès","orientation":["NO"],"lien_oblyk":null,"lien_camptocamp":null,"source_id":"escalade-penhir-argol-2019","topo_id":"escalade-penhir-argol-2019","topo_page":"126","parking_associe":["parking principal Pen-Hir"],"approche_min":[null],"approche_metre":[null],"nb_voie_total":1,"nb_voie_sportive":0,"nb_voie_trad":1,"nb_voie_artificielle":0,"nb_voie_moulinette":0,"categorie":"falaise","nb_couenne":0,"nb_gv":0,"nb_faciles":0,"cotations":{},"routes":null,"routes_falaise":null},"geometry":{"type":"Point","coordinates":[-4.625341,48.256739]}},{"type":"Feature","properties":{"nom":"Pen-Hir","site":"Pen-Hir","secteur":"La Grande faille","type_roche":"grès","orientation":["SO"],"lien_oblyk":"https://oblyk.org/crags/2232/la-traversee-des-trois-pointes-face-sud","lien_camptocamp":null,"source_id":"escalade-penhir-argol-2019","topo_id":"escalade-penhir-argol-2019","topo_page":"128","parking_associe":["parking principal Pen-Hir"],"approche_min":[null],"approche_metre":[null],"nb_voie_total":2,"nb_voie_sportive":0,"nb_voie_trad":2,"nb_voie_artificielle":0,"nb_voie_moulinette":0,"categorie":"falaise","nb_couenne":0,"nb_gv":0,"nb_faciles":0,"cotations":{},"routes":null,"routes_falaise":null},"geometry":{"type":"Point","coordinates":[-4.625183,48.256612]}},{"type":"Feature","properties":{"nom":"Pen-Hir","site":"Pen-Hir","secteur":"Germaine","type_roche":"grès","orientation":["S"],"lien_oblyk":null,"lien_camptocamp":null,"source_id":"escalade-penhir-argol-2019","topo_id":"escalade-penhir-argol-2019","topo_page":"130","parking_associe":["parking principal Pen-Hir"],"approche_min":[null],"approche_metre":[null],"nb_voie_total":5,"nb_voie_sportive":2,"nb_voie_trad":3,"nb_voie_artificielle":0,"nb_voie_moulinette":0,"categorie":"falaise","nb_couenne":2,"nb_gv":0,"nb_faciles":1,"cotations":{"6a":1,"7b":1},"routes":"pen-hir","routes_falaise":131},"geometry":{"type":"Point","coordinates":[-4.624822,48.256496]}},{"type":"Feature","properties":{"nom":"Pen-Hir","site":"Pen-Hir","secteur":"Dalle de Paul","type_roche":"grès","orientation":["O"],"lien_oblyk":"https://oblyk.org/crags/2792/la-dalle-de-paul","lien_camptocamp":null,"source_id":"escalade-penhir-argol-2019","topo_id":"escalade-penhir-argol-2019","topo_page":"132","parking_associe":["parking principal Pen-Hir"],"approche_min":[null],"approche_metre":[null],"nb_voie_total":6,"nb_voie_sportive":6,"nb_voie_trad":0,"nb_voie_artificielle":0,"nb_voie_moulinette":0,"categorie":"falaise","nb_couenne":6,"nb_gv":0,"nb_faciles":5,"cotations":{"4a":1,"4b":3,"5+":1,"5a":1},"routes":"pen-hir","routes_falaise":132},"geometry":{"type":"Point","coordinates":[-4.623171,48.256686]}},{"type":"Feature","properties":{"nom":"Pen-Hir","site":"Pen-Hir","secteur":"Dalle de verre","type_roche":"grès","orientation":["O"],"lien_oblyk":"https://oblyk.org/crags/3157/dalle-de-verre","lien_camptocamp":null,"source_id":"escalade-penhir-argol-2019","topo_id":"escalade-penhir-argol-2019","topo_page":"134","parking_associe":["parking principal Pen-Hir"],"approche_min":[null],"approche_metre":[null],"nb_voie_total":5,"nb_voie_sportive":5,"nb_voie_trad":0,"nb_voie_artificielle":0,"nb_voie_moulinette":0,"categorie":"falaise","nb_couenne":5,"nb_gv":0,"nb_faciles":4,"cotations":{"5a":1,"5b":2,"6a":1,"6b":1},"routes":"pen-hir","routes_falaise":133},"geometry":{"type":"Point","coordinates":[-4.623392,48.256495]}},{"type":"Feature","properties":{"nom":"Pen-Hir","site":"Pen-Hir","secteur":"Quai des brumes","type_roche":"grès","orientation":["S"],"lien_oblyk":null,"lien_camptocamp":null,"source_id":"escalade-penhir-argol-2019","topo_id":"escalade-penhir-argol-2019","topo_page":"136","parking_associe":["parking principal Pen-Hir"],"approche_min":[null],"approche_metre":[null],"nb_voie_total":2,"nb_voie_sportive":0,"nb_voie_trad":2,"nb_voie_artificielle":0,"nb_voie_moulinette":0,"categorie":"falaise","nb_couenne":0,"nb_gv":0,"nb_faciles":0,"cotations":{},"routes":null,"routes_falaise":null},"geometry":{"type":"Point","coordinates":[-4.623066,48.256333]}},{"type":"Feature","properties":{"nom":"Pen-Hir","site":"Pen-Hir","secteur":"Douar nevez","type_roche":"grès","orientation":["SO"],"lien_oblyk":null,"lien_camptocamp":null,"source_id":"escalade-penhir-argol-2019","topo_id":"escalade-penhir-argol-2019","topo_page":"138","parking_associe":["parking principal Pen-Hir"],"approche_min":[null],"approche_metre":[null],"nb_voie_total":6,"nb_voie_sportive":2,"nb_voie_trad":4,"nb_voie_artificielle":0,"nb_voie_moulinette":0,"categorie":"falaise","nb_couenne":2,"nb_gv":0,"nb_faciles":0,"cotations":{"6b":1,"6c":1},"routes":"pen-hir","routes_falaise":135},"geometry":{"type":"Point","coordinates":[-4.622521,48.256049]}},{"type":"Feature","properties":{"nom":"Pen-Hir","site":"Pen-Hir","secteur":"Grande brèche","type_roche":"grès","orientation":["O"],"lien_oblyk":null,"lien_camptocamp":null,"source_id":"escalade-penhir-argol-2019","topo_id":"escalade-penhir-argol-2019","topo_page":"140","parking_associe":["parking principal Pen-Hir"],"approche_min":[null],"approche_metre":[null],"nb_voie_total":7,"nb_voie_sportive":7,"nb_voie_trad":0,"nb_voie_artificielle":0,"nb_voie_moulinette":0,"categorie":"falaise","nb_couenne":7,"nb_gv":0,"nb_faciles":2,"cotations":{"6a+":2,"6b+":1,"6c":1,"7b+":1,"7c":1,"8a":1},"routes":"pen-hir","routes_falaise":136},"geometry":{"type":"Point","coordinates":[-4.621559,48.255473]}},{"type":"Feature","properties":{"nom":"Pen-Hir","site":"Pen-Hir","secteur":"Dalle aux enfants","type_roche":"grès","orientation":["E"],"lien_oblyk":null,"lien_camptocamp":null,"source_id":"escalade-penhir-argol-2019","topo_id":"escalade-penhir-argol-2019","topo_page":"148","parking_associe":["parking principal Pen-Hir"],"approche_min":[null],"approche_metre":[null],"nb_voie_total":6,"nb_voie_sportive":6,"nb_voie_trad":0,"nb_voie_artificielle":0,"nb_voie_moulinette":0,"categorie":"falaise","nb_couenne":6,"nb_gv":0,"nb_faciles":0,"cotations":{"2b/3b":6},"routes":"pen-hir","routes_falaise":137},"geometry":{"type":"Point","coordinates":[-4.619227,48.258544]}},{"type":"Feature","properties":{"nom":"Pen-Hir","site":"Pen-Hir","secteur":"Dalle des débutants","type_roche":"grès","orientation":["E"],"lien_oblyk":"https://oblyk.org/crags/2233/les-secteur-du-sud","lien_camptocamp":null,"source_id":"escalade-penhir-argol-2019","topo_id":"escalade-penhir-argol-2019","topo_page":"146","parking_associe":["parking principal Pen-Hir"],"approche_min":[null],"approche_metre":[null],"nb_voie_total":17,"nb_voie_sportive":17,"nb_voie_trad":0,"nb_voie_artificielle":0,"nb_voie_moulinette":0,"categorie":"falaise","nb_couenne":17,"nb_gv":0,"nb_faciles":15,"cotations":{"3b":2,"3c":3,"4":2,"4a":3,"4b":3,"5a":3,"5b":1},"routes":"pen-hir","routes_falaise":138},"geometry":{"type":"Point","coordinates":[-4.621292,48.255448]}},{"type":"Feature","properties":{"nom":"Pen-Hir","site":"Pen-Hir","secteur":"La Crique","type_roche":"grès","orientation":["E"],"lien_oblyk":"https://oblyk.org/crags/3615/pen-hir-la-crique","lien_camptocamp":null,"source_id":"escalade-penhir-argol-2019","topo_id":"escalade-penhir-argol-2019","topo_page":"144","parking_associe":["parking principal Pen-Hir"],"approche_min":[null],"approche_metre":[null],"nb_voie_total":4,"nb_voie_sportive":4,"nb_voie_trad":0,"nb_voie_artificielle":0,"nb_voie_moulinette":0,"categorie":"falaise","nb_couenne":4,"nb_gv":0,"nb_faciles":4,"cotations":{"4a":1,"4c":1,"5b":1,"6a+":1},"routes":"pen-hir","routes_falaise":139},"geometry":{"type":"Point","coordinates":[-4.620595,48.255115]}},{"type":"Feature","properties":{"nom":"Pen-Hir","site":"Pen-Hir","secteur":"Grand Daouët","type_roche":"grès","orientation":["E"],"lien_oblyk":"https://oblyk.org/crags/3626/le-grand-daouet","lien_camptocamp":null,"source_id":"escalade-penhir-argol-2019","topo_id":"escalade-penhir-argol-2019","topo_page":"142","parking_associe":["parking principal Pen-Hir"],"approche_min":[null],"approche_metre":[null],"nb_voie_total":7,"nb_voie_sportive":0,"nb_voie_trad":7,"nb_voie_artificielle":0,"nb_voie_moulinette":0,"categorie":"falaise","nb_couenne":0,"nb_gv":0,"nb_faciles":0,"cotations":{},"routes":null,"routes_falaise":null},"geometry":{"type":"Point","coordinates":[-4.620559,48.254897]}},{"type":"Feature","properties":{"nom":"penhir-argol","site":"Pen-Hir","secteur":"Le Haut du Cirque","type_roche":"grès","orientation":null,"lien_oblyk":null,"lien_camptocamp":null,"source_id":"escalade-penhir-argol-2019","topo_id":"escalade-penhir-argol-2019","topo_page":"67","parking_associe":["parking principal Pen-Hir"],"approche_min":[null],"approche_metre":[null],"nb_voie_total":1,"nb_voie_sportive":1,"nb_voie_trad":0,"nb_voie_artificielle":0,"nb_voie_moulinette":0,"categorie":"falaise","nb_couenne":1,"nb_gv":0,"nb_faciles":1,"cotations":{"6a+":1},"routes":"pen-hir","routes_falaise":141},"geometry":{"type":"Point","coordinates":[-4.623857,48.259223]}},{"type":"Feature","properties":{"nom":"Cirque des courants d’air","site":"Pen-Hir","secteur":"Les Bâtardes","type_roche":"grès","orientation":["SO"],"lien_oblyk":"https://oblyk.org/crags/2230/le-cirque-des-courants-d-aire","lien_camptocamp":null,"source_id":"escalade-penhir-argol-2019","topo_id":"escalade-penhir-argol-2019","topo_page":"108","parking_associe":["parking principal Pen-Hir"],"approche_min":[null],"approche_metre":[null],"nb_voie_total":4,"nb_voie_sportive":0,"nb_voie_trad":4,"nb_voie_artificielle":0,"nb_voie_moulinette":0,"categorie":"falaise","nb_couenne":0,"nb_gv":0,"nb_faciles":0,"cotations":{},"routes":null,"routes_falaise":null},"geometry":{"type":"Point","coordinates":[-4.623676,48.25838]}},{"type":"Feature","properties":{"nom":"La Grande Falaise","site":"Pen-Hir","secteur":"Minigalithe","type_roche":"grès","orientation":["SO"],"lien_oblyk":"https://oblyk.org/crags/2228/la-grande-falaise","lien_camptocamp":null,"source_id":"escalade-penhir-argol-2019","topo_id":"escalade-penhir-argol-2019","topo_page":"104","parking_associe":["parking principal Pen-Hir"],"approche_min":[null],"approche_metre":[null],"nb_voie_total":2,"nb_voie_sportive":0,"nb_voie_trad":2,"nb_voie_artificielle":0,"nb_voie_moulinette":0,"categorie":"falaise","nb_couenne":0,"nb_gv":0,"nb_faciles":0,"cotations":{},"routes":null,"routes_falaise":null},"geometry":{"type":"Point","coordinates":[-4.624419,48.258243]}},{"type":"Feature","properties":{"nom":"La Grande Falaise","site":"Pen-Hir","secteur":"As de carreau","type_roche":"grès","orientation":["O"],"lien_oblyk":"https://oblyk.org/crags/2228/la-grande-falaise","lien_camptocamp":null,"source_id":"escalade-penhir-argol-2019","topo_id":"escalade-penhir-argol-2019","topo_page":"92","parking_associe":["parking principal Pen-Hir"],"approche_min":[null],"approche_metre":[null],"nb_voie_total":5,"nb_voie_sportive":2,"nb_voie_trad":3,"nb_voie_artificielle":0,"nb_voie_moulinette":0,"categorie":"falaise","nb_couenne":0,"nb_gv":2,"nb_faciles":1,"cotations":{"5b":1,"6b/6b+":1},"routes":"pen-hir","routes_falaise":144},"geometry":{"type":"Point","coordinates":[-4.624612,48.258803]}},{"type":"Feature","properties":{"nom":"La Grande Falaise","site":"Pen-Hir","secteur":"Bocal","type_roche":"grès","orientation":["O"],"lien_oblyk":"https://oblyk.org/crags/2228/la-grande-falaise","lien_camptocamp":null,"source_id":"escalade-penhir-argol-2019","topo_id":"escalade-penhir-argol-2019","topo_page":"96","parking_associe":["parking principal Pen-Hir"],"approche_min":[null],"approche_metre":[null],"nb_voie_total":4,"nb_voie_sportive":2,"nb_voie_trad":2,"nb_voie_artificielle":0,"nb_voie_moulinette":0,"categorie":"falaise","nb_couenne":0,"nb_gv":2,"nb_faciles":1,"cotations":{"4+":1,"6a+":1},"routes":"pen-hir","routes_falaise":145},"geometry":{"type":"Point","coordinates":[-4.624486,48.258671]}},{"type":"Feature","properties":{"nom":"La Grande Falaise","site":"Pen-Hir","secteur":"Diabolo","type_roche":"grès","orientation":["O"],"lien_oblyk":"https://oblyk.org/crags/2228/la-grande-falaise","lien_camptocamp":null,"source_id":"escalade-penhir-argol-2019","topo_id":"escalade-penhir-argol-2019","topo_page":"94","parking_associe":["parking principal Pen-Hir"],"approche_min":[null],"approche_metre":[null],"nb_voie_total":3,"nb_voie_sportive":1,"nb_voie_trad":2,"nb_voie_artificielle":0,"nb_voie_moulinette":0,"categorie":"falaise","nb_couenne":0,"nb_gv":1,"nb_faciles":1,"cotations":{"5c+":1},"routes":"pen-hir","routes_falaise":146},"geometry":{"type":"Point","coordinates":[-4.624557,48.258745]}},{"type":"Feature","properties":{"nom":"La Grande Falaise","site":"Pen-Hir","secteur":"Antiseptique","type_roche":"grès","orientation":["O"],"lien_oblyk":"https://oblyk.org/crags/2228/la-grande-falaise","lien_camptocamp":null,"source_id":"escalade-penhir-argol-2019","topo_id":"escalade-penhir-argol-2019","topo_page":"91","parking_associe":["parking principal Pen-Hir"],"approche_min":[null],"approche_metre":[null],"nb_voie_total":7,"nb_voie_sportive":7,"nb_voie_trad":0,"nb_voie_artificielle":0,"nb_voie_moulinette":0,"categorie":"falaise","nb_couenne":7,"nb_gv":0,"nb_faciles":5,"cotations":{"5a":1,"5c+":1,"6a":1,"6a+":2,"6b":1,"6c":1},"routes":"pen-hir","routes_falaise":147},"geometry":{"type":"Point","coordinates":[-4.624604,48.258957]}},{"type":"Feature","properties":{"nom":"Pen-Hir","site":"Pen-Hir","secteur":"Dalle triangulaire","type_roche":"grès","orientation":null,"lien_oblyk":null,"lien_camptocamp":null,"source_id":"escalade-penhir-argol-2019","topo_id":"escalade-penhir-argol-2019","topo_page":"91","parking_associe":["parking principal Pen-Hir"],"approche_min":[null],"approche_metre":[null],"nb_voie_total":0,"nb_voie_sportive":0,"nb_voie_trad":0,"nb_voie_artificielle":0,"nb_voie_moulinette":0,"categorie":"falaise","nb_couenne":0,"nb_gv":0,"nb_faciles":0,"cotations":{},"routes":null,"routes_falaise":null},"geometry":{"type":"Point","coordinates":[-4.624659,48.258894]}},{"type":"Feature","properties":{"nom":"La Grande Falaise","site":"Pen-Hir","secteur":"Soleil rouge","type_roche":"grès","orientation":["O"],"lien_oblyk":"https://oblyk.org/crags/2228/la-grande-falaise","lien_camptocamp":null,"source_id":"escalade-penhir-argol-2019","topo_id":"escalade-penhir-argol-2019","topo_page":"98","parking_associe":["parking principal Pen-Hir"],"approche_min":[null],"approche_metre":[null],"nb_voie_total":7,"nb_voie_sportive":4,"nb_voie_trad":3,"nb_voie_artificielle":0,"nb_voie_moulinette":0,"categorie":"falaise","nb_couenne":3,"nb_gv":1,"nb_faciles":2,"cotations":{"4":1,"5c":1,"6a+":1,"6c":1},"routes":"pen-hir","routes_falaise":149},"geometry":{"type":"Point","coordinates":[-4.624522,48.258565]}},{"type":"Feature","properties":{"nom":"La Grande Falaise","site":"Pen-Hir","secteur":"Fissure verte","type_roche":"grès","orientation":["O"],"lien_oblyk":"https://oblyk.org/crags/2228/la-grande-falaise","lien_camptocamp":null,"source_id":"escalade-penhir-argol-2019","topo_id":"escalade-penhir-argol-2019","topo_page":"86","parking_associe":["parking principal Pen-Hir"],"approche_min":[null],"approche_metre":[null],"nb_voie_total":8,"nb_voie_sportive":6,"nb_voie_trad":2,"nb_voie_artificielle":0,"nb_voie_moulinette":0,"categorie":"falaise","nb_couenne":5,"nb_gv":1,"nb_faciles":3,"cotations":{"5a":1,"6a+":2,"7b":1,"7b+":1,"7c":1},"routes":"pen-hir","routes_falaise":150},"geometry":{"type":"Point","coordinates":[-4.624718,48.258969]}},{"type":"Feature","properties":{"nom":"La Grande Falaise","site":"Pen-Hir","secteur":"Monolithe, 3ème type","type_roche":"grès","orientation":["NO"],"lien_oblyk":"https://oblyk.org/crags/2228/la-grande-falaise","lien_camptocamp":null,"source_id":"escalade-penhir-argol-2019","topo_id":"escalade-penhir-argol-2019","topo_page":"78","parking_associe":["parking principal Pen-Hir"],"approche_min":[null],"approche_metre":[null],"nb_voie_total":7,"nb_voie_sportive":1,"nb_voie_trad":6,"nb_voie_artificielle":0,"nb_voie_moulinette":0,"categorie":"falaise","nb_couenne":1,"nb_gv":0,"nb_faciles":0,"cotations":{"6b":1},"routes":"pen-hir","routes_falaise":151},"geometry":{"type":"Point","coordinates":[-4.624936,48.259128]}},{"type":"Feature","properties":{"nom":"La Grande Falaise","site":"Pen-Hir","secteur":"Monolithe Face Nord Ouest","type_roche":"grès","orientation":["NO"],"lien_oblyk":"https://oblyk.org/crags/2228/la-grande-falaise","lien_camptocamp":null,"source_id":"escalade-penhir-argol-2019","topo_id":"escalade-penhir-argol-2019","topo_page":"76","parking_associe":["parking principal Pen-Hir"],"approche_min":[null],"approche_metre":[null],"nb_voie_total":6,"nb_voie_sportive":6,"nb_voie_trad":0,"nb_voie_artificielle":0,"nb_voie_moulinette":0,"categorie":"falaise","nb_couenne":6,"nb_gv":0,"nb_faciles":5,"cotations":{"5a+":1,"5b":1,"5c":2,"6a":1,"6b":1},"routes":"pen-hir","routes_falaise":152},"geometry":{"type":"Point","coordinates":[-4.624844,48.259278]}},{"type":"Feature","properties":{"nom":"La Grande Falaise","site":"Pen-Hir","secteur":"La Grotte","type_roche":"grès","orientation":["SO"],"lien_oblyk":"https://oblyk.org/crags/2228/la-grande-falaise","lien_camptocamp":null,"source_id":"escalade-penhir-argol-2019","topo_id":"escalade-penhir-argol-2019","topo_page":"100","parking_associe":["parking principal Pen-Hir"],"approche_min":[null],"approche_metre":[null],"nb_voie_total":5,"nb_voie_sportive":5,"nb_voie_trad":0,"nb_voie_artificielle":0,"nb_voie_moulinette":0,"categorie":"falaise","nb_couenne":5,"nb_gv":0,"nb_faciles":1,"cotations":{"6a+":1,"6b":1,"6c":3},"routes":"pen-hir","routes_falaise":153},"geometry":{"type":"Point","coordinates":[-4.624428,48.258409]}},{"type":"Feature","properties":{"nom":"La Grande Falaise","site":"Pen-Hir","secteur":"Les Cristaux","type_roche":"grès","orientation":["O"],"lien_oblyk":"https://oblyk.org/crags/2228/la-grande-falaise","lien_camptocamp":null,"source_id":"escalade-penhir-argol-2019","topo_id":"escalade-penhir-argol-2019","topo_page":"80;82;84","parking_associe":["parking principal Pen-Hir"],"approche_min":[null],"approche_metre":[null],"nb_voie_total":16,"nb_voie_sportive":13,"nb_voie_trad":3,"nb_voie_artificielle":0,"nb_voie_moulinette":0,"categorie":"falaise","nb_couenne":13,"nb_gv":0,"nb_faciles":8,"cotations":{"4":1,"5a":1,"5b":1,"5c":2,"6a":4,"6b":1,"6b+":1,"6c":2},"routes":"pen-hir","routes_falaise":154},"geometry":{"type":"Point","coordinates":[-4.624989,48.258977]}},{"type":"Feature","properties":{"nom":"La Grande Falaise","site":"Pen-Hir","secteur":"Monolithe Face Nord","type_roche":"grès","orientation":["N"],"lien_oblyk":"https://oblyk.org/crags/2228/la-grande-falaise","lien_camptocamp":null,"source_id":"escalade-penhir-argol-2019","topo_id":"escalade-penhir-argol-2019","topo_page":"74","parking_associe":["parking principal Pen-Hir"],"approche_min":[null],"approche_metre":[null],"nb_voie_total":2,"nb_voie_sportive":2,"nb_voie_trad":0,"nb_voie_artificielle":0,"nb_voie_moulinette":0,"categorie":"falaise","nb_couenne":2,"nb_gv":0,"nb_faciles":1,"cotations":{"4":1,"5c":1},"routes":"pen-hir","routes_falaise":155},"geometry":{"type":"Point","coordinates":[-4.624806,48.259341]}},{"type":"Feature","properties":{"nom":"Pen-Hir","site":"Pen-Hir","secteur":"Rappel","type_roche":"grès","orientation":["O"],"lien_oblyk":null,"lien_camptocamp":null,"source_id":"escalade-penhir-argol-2019","topo_id":"escalade-penhir-argol-2019","topo_page":"72","parking_associe":["parking principal Pen-Hir"],"approche_min":[null],"approche_metre":[null],"nb_voie_total":2,"nb_voie_sportive":1,"nb_voie_trad":1,"nb_voie_artificielle":0,"nb_voie_moulinette":0,"categorie":"falaise","nb_couenne":1,"nb_gv":0,"nb_faciles":1,"cotations":{"6a":1},"routes":"pen-hir","routes_falaise":156},"geometry":{"type":"Point","coordinates":[-4.624809,48.259155]}},{"type":"Feature","properties":{"nom":"La Grande Falaise","site":"Pen-Hir","secteur":"Le Mur Noir","type_roche":"grès","orientation":null,"lien_oblyk":"https://oblyk.org/crags/2228/la-grande-falaise","lien_camptocamp":null,"source_id":"escalade-penhir-argol-2019","topo_id":"escalade-penhir-argol-2019","topo_page":"102","parking_associe":["parking principal Pen-Hir"],"approche_min":[null],"approche_metre":[null],"nb_voie_total":3,"nb_voie_sportive":3,"nb_voie_trad":0,"nb_voie_artificielle":0,"nb_voie_moulinette":0,"categorie":"falaise","nb_couenne":3,"nb_gv":0,"nb_faciles":1,"cotations":{"6a+":1,"6b+":1,"7a":1},"routes":"pen-hir","routes_falaise":157},"geometry":{"type":"Point","coordinates":[-4.624499,48.258204]}},{"type":"Feature","properties":{"nom":"Cirque des courants d’air","site":"Pen-Hir","secteur":"In Vino Veritas","type_roche":"grès","orientation":["E"],"lien_oblyk":"https://oblyk.org/crags/2230/le-cirque-des-courants-d-aire","lien_camptocamp":null,"source_id":"escalade-penhir-argol-2019","topo_id":"escalade-penhir-argol-2019","topo_page":"110","parking_associe":["parking principal Pen-Hir"],"approche_min":[null],"approche_metre":[null],"nb_voie_total":3,"nb_voie_sportive":3,"nb_voie_trad":0,"nb_voie_artificielle":0,"nb_voie_moulinette":0,"categorie":"falaise","nb_couenne":3,"nb_gv":0,"nb_faciles":3,"cotations":{"4c":1,"5c":2},"routes":"pen-hir","routes_falaise":158},"geometry":{"type":"Point","coordinates":[-4.623775,48.258379]}},{"type":"Feature","properties":{"nom":"Cirque des courants d’air","site":"Pen-Hir","secteur":"Le Fond du Cirque secteur du bas","type_roche":"grès","orientation":null,"lien_oblyk":"https://oblyk.org/crags/2230/le-cirque-des-courants-d-aire","lien_camptocamp":null,"source_id":"escalade-penhir-argol-2019","topo_id":"escalade-penhir-argol-2019","topo_page":"112","parking_associe":["parking principal Pen-Hir"],"approche_min":[null],"approche_metre":[null],"nb_voie_total":12,"nb_voie_sportive":7,"nb_voie_trad":5,"nb_voie_artificielle":0,"nb_voie_moulinette":0,"categorie":"falaise","nb_couenne":7,"nb_gv":0,"nb_faciles":5,"cotations":{"4":1,"5":1,"5a":1,"5b":1,"6a":1,"6a+":2},"routes":"pen-hir","routes_falaise":159},"geometry":{"type":"Point","coordinates":[-4.623835,48.258186]}},{"type":"Feature","properties":{"nom":"Cirque des courants d’air","site":"Pen-Hir","secteur":"Le Fond du Cirque secteur du haut","type_roche":"grès","orientation":null,"lien_oblyk":"https://oblyk.org/crags/2230/le-cirque-des-courants-d-aire","lien_camptocamp":null,"source_id":"escalade-penhir-argol-2019","topo_id":"escalade-penhir-argol-2019","topo_page":"114","parking_associe":["parking principal Pen-Hir"],"approche_min":[null],"approche_metre":[null],"nb_voie_total":7,"nb_voie_sportive":3,"nb_voie_trad":4,"nb_voie_artificielle":0,"nb_voie_moulinette":0,"categorie":"falaise","nb_couenne":3,"nb_gv":0,"nb_faciles":0,"cotations":{"5":3},"routes":"pen-hir","routes_falaise":160},"geometry":{"type":"Point","coordinates":[-4.623863,48.258324]}},{"type":"Feature","properties":{"nom":"Pen-Hir","site":"Pen-Hir","secteur":"Secteur du Parking","type_roche":"grès","orientation":null,"lien_oblyk":"https://oblyk.org/crags/2234/face-a-la-plage","lien_camptocamp":null,"source_id":"escalade-penhir-argol-2019","topo_id":"escalade-penhir-argol-2019","topo_page":"151","parking_associe":["parking principal Pen-Hir"],"approche_min":[null],"approche_metre":[null],"nb_voie_total":6,"nb_voie_sportive":2,"nb_voie_trad":0,"nb_voie_artificielle":0,"nb_voie_moulinette":4,"categorie":"falaise","nb_couenne":2,"nb_gv":0,"nb_faciles":0,"cotations":{"4":2},"routes":"pen-hir","routes_falaise":161},"geometry":{"type":"Point","coordinates":[-4.619684,48.258629]}},{"type":"Feature","properties":{"nom":"La grande face","site":"Argol","secteur":"La grande face","type_roche":"grès","orientation":null,"lien_oblyk":null,"lien_camptocamp":null,"source_id":"escalade-penhir-argol-2019","topo_id":"escalade-penhir-argol-2019","topo_page":"168","parking_associe":["parking du rocher Ar Kléguer Braz"],"approche_min":[null],"approche_metre":[null],"nb_voie_total":9,"nb_voie_sportive":9,"nb_voie_trad":0,"nb_voie_artificielle":0,"nb_voie_moulinette":0,"categorie":"falaise","nb_couenne":9,"nb_gv":0,"nb_faciles":0,"cotations":{"4":1,"4+":4,"5":1,"5+":3},"routes":"argol","routes_falaise":162},"geometry":{"type":"Point","coordinates":[-4.289676,48.235705]}},{"type":"Feature","properties":{"nom":"La grande face","site":"Argol","secteur":"La grande face côté droit","type_roche":"grès","orientation":null,"lien_oblyk":null,"lien_camptocamp":null,"source_id":"escalade-penhir-argol-2019","topo_id":"escalade-penhir-argol-2019","topo_page":"170","parking_associe":["parking du rocher Ar Kléguer Braz"],"approche_min":[null],"approche_metre":[null],"nb_voie_total":5,"nb_voie_sportive":5,"nb_voie_trad":0,"nb_voie_artificielle":0,"nb_voie_moulinette":0,"categorie":"falaise","nb_couenne":2,"nb_gv":3,"nb_faciles":0,"cotations":{"5+":1,"6b":4},"routes":"argol","routes_falaise":163},"geometry":{"type":"Point","coordinates":[-4.289802,48.235728]}},{"type":"Feature","properties":{"nom":"La grande face","site":"Argol","secteur":"La grande face côté gauche","type_roche":"grès","orientation":null,"lien_oblyk":null,"lien_camptocamp":null,"source_id":"escalade-penhir-argol-2019","topo_id":"escalade-penhir-argol-2019","topo_page":"166","parking_associe":["parking du rocher Ar Kléguer Braz"],"approche_min":[null],"approche_metre":[null],"nb_voie_total":7,"nb_voie_sportive":7,"nb_voie_trad":0,"nb_voie_artificielle":0,"nb_voie_moulinette":0,"categorie":"falaise","nb_couenne":7,"nb_gv":0,"nb_faciles":2,"cotations":{"5":2,"6a+":2,"6b":1,"6b+":1},"routes":"argol","routes_falaise":164},"geometry":{"type":"Point","coordinates":[-4.289554,48.235682]}},{"type":"Feature","properties":{"nom":"La grande face","site":"Argol","secteur":"Bâbord","type_roche":"grès","orientation":null,"lien_oblyk":null,"lien_camptocamp":null,"source_id":"escalade-penhir-argol-2019","topo_id":"escalade-penhir-argol-2019","topo_page":"172","parking_associe":["parking du rocher Ar Kléguer Braz"],"approche_min":[null],"approche_metre":[null],"nb_voie_total":4,"nb_voie_sportive":4,"nb_voie_trad":0,"nb_voie_artificielle":0,"nb_voie_moulinette":0,"categorie":"falaise","nb_couenne":4,"nb_gv":0,"nb_faciles":0,"cotations":{"4":3,"5":1},"routes":"argol","routes_falaise":165},"geometry":{"type":"Point","coordinates":[-4.29004,48.235741]}},{"type":"Feature","properties":{"nom":"Blocadom","site":"Argol","secteur":"Blocadom","type_roche":"grès","orientation":null,"lien_oblyk":null,"lien_camptocamp":null,"source_id":"escalade-penhir-argol-2019","topo_id":"escalade-penhir-argol-2019","topo_page":"162","parking_associe":["parking du rocher Ar Kléguer Braz"],"approche_min":[null],"approche_metre":[null],"nb_voie_total":4,"nb_voie_sportive":4,"nb_voie_trad":0,"nb_voie_artificielle":0,"nb_voie_moulinette":0,"categorie":"falaise","nb_couenne":4,"nb_gv":0,"nb_faciles":0,"cotations":{"4":1,"4+":1,"5":1,"6b":1},"routes":"argol","routes_falaise":166},"geometry":{"type":"Point","coordinates":[-4.288687,48.235555]}},{"type":"Feature","properties":{"nom":"Minos - Dalle du Kangourou","site":"Argol","secteur":"Minos - Dalle du Kangourou","type_roche":"grès","orientation":null,"lien_oblyk":null,"lien_camptocamp":null,"source_id":"escalade-penhir-argol-2019","topo_id":"escalade-penhir-argol-2019","topo_page":"160","parking_associe":["parking du rocher Ar Kléguer Braz"],"approche_min":[null],"approche_metre":[null],"nb_voie_total":5,"nb_voie_sportive":0,"nb_voie_trad":0,"nb_voie_artificielle":0,"nb_voie_moulinette":5,"categorie":"falaise","nb_couenne":0,"nb_gv":0,"nb_faciles":0,"cotations":{},"routes":null,"routes_falaise":null},"geometry":{"type":"Point","coordinates":[-4.290621,48.235469]}},{"type":"Feature","properties":{"nom":"Le Pierrier - Le Balcon","site":"Argol","secteur":"Le Pierrier - Le Balcon","type_roche":"grès","orientation":null,"lien_oblyk":null,"lien_camptocamp":null,"source_id":"escalade-penhir-argol-2019","topo_id":"escalade-penhir-argol-2019","topo_page":"163","parking_associe":["parking du rocher Ar Kléguer Braz"],"approche_min":[null],"approche_metre":[null],"nb_voie_total":6,"nb_voie_sportive":6,"nb_voie_trad":0,"nb_voie_artificielle":0,"nb_voie_moulinette":0,"categorie":"falaise","nb_couenne":6,"nb_gv":0,"nb_faciles":0,"cotations":{"3":3,"3+":1,"4":2},"routes":"argol","routes_falaise":168},"geometry":{"type":"Point","coordinates":[-4.288871,48.235586]}},{"type":"Feature","properties":{"nom":"Le mur englouti","site":"Argol","secteur":"Le mur englouti","type_roche":"grès","orientation":null,"lien_oblyk":null,"lien_camptocamp":null,"source_id":"escalade-penhir-argol-2019","topo_id":"escalade-penhir-argol-2019","topo_page":"164","parking_associe":["parking du rocher Ar Kléguer Braz"],"approche_min":[null],"approche_metre":[null],"nb_voie_total":10,"nb_voie_sportive":10,"nb_voie_trad":0,"nb_voie_artificielle":0,"nb_voie_moulinette":0,"categorie":"falaise","nb_couenne":10,"nb_gv":0,"nb_faciles":2,"cotations":{"3":1,"3+":1,"4":1,"4+":1,"5":1,"5+":2,"5b":1,"5c":1,"6":1},"routes":"argol","routes_falaise":169},"geometry":{"type":"Point","coordinates":[-4.289063,48.235666]}},{"type":"Feature","properties":{"nom":"Le lierre","site":"Argol","secteur":"Le lierre face nord","type_roche":"grès","orientation":["N"],"lien_oblyk":null,"lien_camptocamp":null,"source_id":"escalade-penhir-argol-2019","topo_id":"escalade-penhir-argol-2019","topo_page":"178","parking_associe":["parking du rocher Ar Kléguer Braz"],"approche_min":[null],"approche_metre":[null],"nb_voie_total":3,"nb_voie_sportive":3,"nb_voie_trad":0,"nb_voie_artificielle":0,"nb_voie_moulinette":0,"categorie":"falaise","nb_couenne":3,"nb_gv":0,"nb_faciles":1,"cotations":{"5":1,"6a+":1,"6b+":1},"routes":"argol","routes_falaise":170},"geometry":{"type":"Point","coordinates":[-4.290057,48.235845]}},{"type":"Feature","properties":{"nom":"Le lierre","site":"Argol","secteur":"Le lierre face est","type_roche":"grès","orientation":["E"],"lien_oblyk":null,"lien_camptocamp":null,"source_id":"escalade-penhir-argol-2019","topo_id":"escalade-penhir-argol-2019","topo_page":"176","parking_associe":["parking du rocher Ar Kléguer Braz"],"approche_min":[null],"approche_metre":[null],"nb_voie_total":2,"nb_voie_sportive":2,"nb_voie_trad":0,"nb_voie_artificielle":0,"nb_voie_moulinette":0,"categorie":"falaise","nb_couenne":2,"nb_gv":0,"nb_faciles":0,"cotations":{"5":1,"5+":1},"routes":"argol","routes_falaise":171},"geometry":{"type":"Point","coordinates":[-4.290016,48.235825]}},{"type":"Feature","properties":{"nom":"parking du musée mémorial de la bataille Atlantique","trajet_gite_min":4,"categorie":"parking"},"geometry":{"type":"Point","coordinates":[-4.614933,48.267603]}},{"type":"Feature","properties":{"nom":"parking du rocher Ar Kléguer Braz","trajet_gite_min":40,"categorie":"parking"},"geometry":{"type":"Point","coordinates":[-4.291925,48.235038]}},{"type":"Feature","properties":{"nom":"parking principal Pen-Hir","trajet_gite_min":5,"categorie":"parking"},"geometry":{"type":"Point","coordinates":[-4.621651,48.258539]}},{"type":"Feature","properties":{"nom":"Gîte","categorie":"hebergement"},"geometry":{"type":"Point","coordinates":[-4.599459,48.271573]}}]}